CityName,RegionName,Address,DeptNm,BranchNm,Longitude,Latitude,direct,limit
連江縣,南竿鄉,介壽村47-10號前,連江縣警察局,南竿警察所,119.95137,26.160198,順向(往介壽村方向),30
連江縣,北竿鄉,塘岐村168號前,連江縣警察局,北竿警察所,119.99763,26.223022,順向(往機場方向),30
連江縣,北竿鄉,板里村46號前,連江縣警察局,北竿警察所,119.97415,26.216692,順向(往白沙方向),30
金門縣,金城鎮,西海路水頭路段,金門縣警察局,金城分局,118.29999,24.411718,東西雙向,50
金門縣,福建省金門縣金城鎮,西海路金城消防分隊路段,金門縣警察局,金城分局,118.31096,24.419662,南北雙向,50
金門縣,金城鎮,西海路空中大學路段(空中大學附近),金門縣警察局,金城分局,118.31264,24.422647,東西雙向,50
金門縣,金城鎮,環島南路小西門路段,金門縣警察局,金城分局,118.32414,24.413134,東西雙向,60
金門縣,金沙鎮,環島北路4段洋山路段(警光會館附近),金門縣警察局,金湖分局,118.40696,24.486645,東西雙向,60
金門縣,金沙鎮,高陽路蔡厝路段,金門縣警察局,金湖分局,118.419556,24.47699,東西雙向,60
金門縣,金湖鎮,環島南路環保公園路段(環保局附近),金門縣警察局,金湖分局,118.370316,24.44133,東西雙向,60
金門縣,福建省金門縣金湖鎮,瓊徑路小徑路段(小徑茶室附近),金門縣警察局,金湖分局,118.38353,24.449205,南北雙向,50
金門縣,金湖鎮,環島南路后園路段(168加油站附近),金門縣警察局,金湖分局,118.4034,24.437878,東西雙向,50
金門縣,福建省金門縣金湖鎮,太湖路鑑潭山莊路段(鑑潭山莊附近),金門縣警察局,金湖分局,118.40811,24.44457,東西雙向,50
金門縣,金湖鎮,黃海路監理站路段,金門縣警察局,金湖分局,118.41738,24.446644,南北雙向,50
金門縣,金湖鎮,金港路料羅路段,金門縣警察局,金湖分局,118.43421,24.419786,南北雙向,50
金門縣,金寧鄉,慈湖路湖下路段,金門縣警察局,金城分局,118.309654,24.449041,南北雙向,50
金門縣,金寧鄉,環島北路鎮西路段,金門縣警察局,金城分局,118.33072,24.448359,東西雙向,60
金門縣,金寧鄉,環島南路后湖路段,金門縣警察局,金城分局,118.3318,24.416346,東西雙向,60
金門縣,金寧鄉,桃園路金寧加油站路段(金寧加油站附近),金門縣警察局,金城分局,118.337685,24.430235,東西雙向,60
金門縣,金寧鄉,環島北路頂堡路段(環北頂林路口附近),金門縣警察局,金城分局,118.33837,24.44981,東西雙向,60
金門縣,金寧鄉,伯玉路盤果路口,金門縣警察局,金城分局,118.340614,24.441227,東往西向,70
金門縣,金寧鄉,環島南路中心教練場路段(中心教練場附近),金門縣警察局,金城分局,118.34236,24.4258,東西雙向,60
金門縣,金寧鄉,桃園路雙乳山路段,金門縣警察局,金城分局,118.35565,24.436016,東西雙向,60
金門縣,金寧鄉,環島北路后盤山路段,金門縣警察局,金城分局,118.35793,24.453362,東西雙向,60
金門縣,金湖鎮,黃海路陽明湖路段(陽明營區附近),金門縣警察局,金湖分局,118.43147,24.458809,南北雙向,60
宜蘭縣,宜蘭市,宜興橋南端(往羅東)+50m南下,宜蘭縣政府警察局,宜蘭分局,121.75987,24.760712,北向南,50
宜蘭縣,宜蘭市,中山路1段560號前北上,宜蘭縣政府警察局,宜蘭分局,121.76105,24.738028,南向北,60
宜蘭縣,宜蘭市,宜16線5.5K南津路東向,宜蘭縣政府警察局,宜蘭分局,121.76525,24.718306,東西雙向,50
宜蘭縣,宜蘭市,台9線79k+550m環市東路與192甲線路口北上,宜蘭縣政府警察局,宜蘭分局,121.770744,24.767035,南向北,70
宜蘭縣,宜蘭市,台9線80k+700m環市東路黎霧橋南端南下,宜蘭縣政府警察局,宜蘭分局,121.771355,24.756819,北向南,70
宜蘭縣,宜蘭市,台9線81k+650m環市東路北上,宜蘭縣政府警察局,宜蘭分局,121.77159,24.748297,南向北,70
宜蘭縣,宜蘭市,191線與宜14線路口北上,宜蘭縣政府警察局,宜蘭分局,121.78176,24.744093,南向北,60
宜蘭縣,羅東鎮,公正路324號西向,宜蘭縣政府警察局,羅東分局,121.76142,24.68059,東向西,40
宜蘭縣,蘇澳鎮,台9線100k+242m新城段北上,宜蘭縣政府警察局,蘇澳分局,121.821266,24.615463,南北雙向,60
宜蘭縣,蘇澳鎮,台9線117k+772m新澳隧道北上,宜蘭縣政府警察局,蘇澳分局,121.83023,24.490236,南向北,40
宜蘭縣,蘇澳鎮,台9線102k+200m聖湖段南下,宜蘭縣政府警察局,蘇澳分局,121.83417,24.60313,南北雙向,60
宜蘭縣,蘇澳鎮,台9線109k+240m東澳隧道南下,宜蘭縣政府警察局,蘇澳分局,121.84039,24.551931,北向南,70
宜蘭縣,蘇澳鎮,台9線103k+562m南下,宜蘭縣政府警察局,蘇澳分局,121.84053,24.59536,南北雙向,50
宜蘭縣,蘇澳鎮,蘇澳鎮台9線108k+269m至南澳鄉台9線110k+995m東澳隧道南下-1,宜蘭縣政府警察局,蘇澳分局,121.84233,24.560524,北向南,70
宜蘭縣,蘇澳鎮,台2線164k+390m港邊段南下,宜蘭縣政府警察局,蘇澳分局,121.85278,24.611954,南北雙向,70
宜蘭縣,蘇澳鎮,台2線166k+497m蘇澳港段南下,宜蘭縣政府警察局,蘇澳分局,121.85626,24.590792,南北雙向,60
宜蘭縣,蘇澳鎮,台2戊線12k+215m移山路北上,宜蘭縣政府警察局,蘇澳分局,121.8595,24.590792,南北雙向,60
宜蘭縣,頭城鎮,台9線56k+600m至68k+600m北往南-1,宜蘭縣政府警察局,礁溪分局,121.77586,24.865316,南北雙向,40
宜蘭縣,頭城鎮,台9線68k+600m至56k+600m南往北-2,宜蘭縣政府警察局,礁溪分局,121.77586,24.865316,南北雙向,40
宜蘭縣,頭城鎮,台9線69ｋ+20ｍ北宜路一段南下,宜蘭縣政府警察局,礁溪分局,121.79265,24.84562,南北雙向,60
宜蘭縣,頭城鎮,台9線68.6K南下,宜蘭縣政府警察局,礁溪分局,121.79389,24.849024,南北雙向,40
宜蘭縣,頭城鎮,台9線56k+600m至68k+600m北往南-2,宜蘭縣政府警察局,礁溪分局,121.79389,24.849024,南北雙向,40
宜蘭縣,頭城鎮,台9線68k+600m至56k+600m南往北-1,宜蘭縣政府警察局,礁溪分局,121.79389,24.849024,南北雙向,40
宜蘭縣,頭城鎮,宜3線3k+850m宜三路南下,宜蘭縣政府警察局,礁溪分局,121.79603,24.84921,南北雙向,50
宜蘭縣,頭城鎮,191甲線2ｋ+50ｍ中崙段南下,宜蘭縣政府警察局,礁溪分局,121.80138,24.828068,南北雙向,60
宜蘭縣,頭城鎮,台2線139k+738ｍ竹安段南下,宜蘭縣政府警察局,礁溪分局,121.82069,24.824112,南北雙向,60
宜蘭縣,頭城鎮,台2線133k+769ｍ港口段南下,宜蘭縣政府警察局,礁溪分局,121.83554,24.871765,南北雙向,60
宜蘭縣,頭城鎮,台2線129k+309m梗枋國小南下,宜蘭縣政府警察局,礁溪分局,121.86346,24.900974,南北雙向,50
宜蘭縣,頭城鎮,台2線128k+754m梗枋段南下,宜蘭縣政府警察局,礁溪分局,121.86673,24.90387,南北雙向,60
宜蘭縣,頭城鎮,台2線123ｋ+642ｍ大溪段北上,宜蘭縣政府警察局,礁溪分局,121.89127,24.939224,南北雙向,50
宜蘭縣,頭城鎮,台2線122k+634ｍ大溪段南下,宜蘭縣政府警察局,礁溪分局,121.90011,24.941515,北向南,60
宜蘭縣,頭城鎮,台2線118k+49m大里段南下,宜蘭縣政府警察局,礁溪分局,121.92609,24.970085,南北雙向,50
宜蘭縣,礁溪鄉,191線4K瑪僯段北上,宜蘭縣政府警察局,礁溪分局,121.780426,24.791037,南向北,60
宜蘭縣,礁溪鄉,191甲線6ｋ+600ｍ玉田段北上,宜蘭縣政府警察局,礁溪分局,121.784225,24.789581,南北雙向,60
宜蘭縣,礁溪鄉,份尾三路北上(份尾橋南側100公尺處),宜蘭縣政府警察局,礁溪分局,121.78717,24.830685,南北雙向,50
宜蘭縣,礁溪鄉,宜4線4k+280m大塭段東向,宜蘭縣政府警察局,礁溪分局,121.810684,24.818115,東西雙向,50
宜蘭縣,壯圍鄉,191線與雪隧路口南下,宜蘭縣政府警察局,礁溪分局,121.77852,24.766775,北向南,60
宜蘭縣,壯圍鄉,宜16線7k+500ｍ新南段西向,宜蘭縣政府警察局,礁溪分局,121.783035,24.720304,東西雙向,50
宜蘭縣,壯圍鄉,宜16線9ｋ+500ｍ美福段東向,宜蘭縣政府警察局,礁溪分局,121.80265,24.719269,東西雙向,50
宜蘭縣,壯圍鄉,宜20線1ｋ+150m新南段西向,宜蘭縣政府警察局,礁溪分局,121.808556,24.727465,東西雙向,60
宜蘭縣,壯圍鄉,台2線147ｋ+40ｍ過嶺國小南下,宜蘭縣政府警察局,礁溪分局,121.81548,24.758747,南北雙向,60
宜蘭縣,壯圍鄉,台2線142k+480ｍ大福段北上,宜蘭縣政府警察局,礁溪分局,121.81658,24.79972,南北雙向,60
宜蘭縣,壯圍鄉,台2線150ｋ+199m公館段南下,宜蘭縣政府警察局,礁溪分局,121.81915,24.73036,南北雙向,60
宜蘭縣,員山鄉,台7線113k+357ｍ內城段東向,宜蘭縣政府警察局,宜蘭分局,121.700935,24.717842,東西雙向,60
宜蘭縣,員山鄉,宜18-2線9ｋ深溝段西向,宜蘭縣政府警察局,宜蘭分局,121.709625,24.707457,東西雙向,60
宜蘭縣,員山鄉,台7線115k+865m八甲段西向,宜蘭縣政府警察局,宜蘭分局,121.71639,24.732752,東西雙向,60
宜蘭縣,員山鄉,宜61線900ｍ深溝段南下,宜蘭縣政府警察局,宜蘭分局,121.717964,24.720016,南北雙向,60
宜蘭縣,員山鄉,宜61線1ｋ+200ｍ深溝段北上,宜蘭縣政府警察局,宜蘭分局,121.71865,24.71743,南北雙向,60
宜蘭縣,員山鄉,宜18-2線溪洲路346號東向,宜蘭縣政府警察局,宜蘭分局,121.738594,24.714243,東西雙向,50
宜蘭縣,員山鄉,宜18-2線溪洲路150號西向,宜蘭縣政府警察局,宜蘭分局,121.748116,24.719,東西雙向,50
宜蘭縣,冬山鄉,台9線94k+450ｍ冬山段南下,宜蘭縣政府警察局,羅東分局,121.78557,24.645603,北向南,60
宜蘭縣,五結鄉,宜22線1k+400ｍ二結段東向,宜蘭縣政府警察局,羅東分局,121.76619,24.710798,東西雙向,60
宜蘭縣,五結鄉,台7丙線28k+98ｍ中山路東向,宜蘭縣政府警察局,羅東分局,121.78949,24.672573,東西雙向,60
宜蘭縣,五結鄉,191線與宜24線路口南下,宜蘭縣政府警察局,羅東分局,121.791145,24.688986,北向南,60
宜蘭縣,五結鄉,191線與196線路口北上,宜蘭縣政府警察局,羅東分局,121.79258,24.683813,南向北,60
宜蘭縣,五結鄉,五結鄉191線與傳藝路口南下,宜蘭縣政府警察局,羅東分局,121.79319,24.680323,北向南,60
宜蘭縣,五結鄉,五結鄉台7丙線29K+743M親河路西向,宜蘭縣政府警察局,羅東分局,121.80519,24.673485,東西雙向,60
宜蘭縣,五結鄉,宜22線6ｋ錦草段西向,宜蘭縣政府警察局,羅東分局,121.81058,24.709387,東西雙向,60
宜蘭縣,五結鄉,台2線157k+652m利澤段北上,宜蘭縣政府警察局,羅東分局,121.82835,24.664686,南向北,60
宜蘭縣,三星鄉,196線3ｋ+800ｍ萬富東向,宜蘭縣政府警察局,三星分局,121.67725,24.677273,東西雙向,60
宜蘭縣,三星鄉,台7丙線18ｋ+342ｍ大隱段東向,宜蘭縣政府警察局,三星分局,121.697624,24.667261,東西雙向,60
宜蘭縣,三星鄉,台7丙線19ｋ+865m大隱段西向,宜蘭縣政府警察局,三星分局,121.71217,24.670204,東西雙向,60
宜蘭縣,三星鄉,196線7ｋ+900ｍ大義段西向,宜蘭縣政府警察局,三星分局,121.71839,24.687069,東西雙向,60
宜蘭縣,三星鄉,宜61線3ｋ+600ｍ大洲段南下,宜蘭縣政府警察局,三星分局,121.72788,24.69807,北向南,60
宜蘭縣,三星鄉,宜61線3ｋ+800ｍ大洲段北上,宜蘭縣政府警察局,三星分局,121.72893,24.696066,南北雙向,60
宜蘭縣,三星鄉,196線11ｋ大洲段東向,宜蘭縣政府警察局,三星分局,121.74223,24.700827,東西雙向,50
宜蘭縣,南澳鄉,台9線137K+295m至141K+458m谷風隧道南下-2,宜蘭縣政府警察局,蘇澳分局,121.7648,24.330963,北向南,70
宜蘭縣,南澳鄉,台9線141K+420m至137K+205m谷風隧道北上-2,宜蘭縣政府警察局,蘇澳分局,121.76504,24.332409,南向北,70
宜蘭縣,南澳鄉,台9線139k+667m谷風隧道北上,宜蘭縣政府警察局,蘇澳分局,121.7668,24.347893,南向北,70
宜蘭縣,南澳鄉,台9線138k+677m谷風隧道南下,宜蘭縣政府警察局,蘇澳分局,121.771545,24.355694,北向南,70
宜蘭縣,南澳鄉,台9線129k+404m至131k+860m觀音隧道南下,宜蘭縣政府警察局,蘇澳分局,121.77481,24.433311,北向南,70
宜蘭縣,南澳鄉,台9線137K+295m至141K+458m谷風隧道南下-1,宜蘭縣政府警察局,蘇澳分局,121.77798,24.365217,北向南,70
宜蘭縣,南澳鄉,台9線141K+420m至137K+205m谷風隧道北上-1,宜蘭縣政府警察局,蘇澳分局,121.77935,24.366602,南向北,70
宜蘭縣,南澳鄉,台9線130k+347m觀音隧道北上,宜蘭縣政府警察局,蘇澳分局,121.780174,24.426088,南向北,70
宜蘭縣,南澳鄉,台9線134k+538m至136k+883m觀音隧道南下,宜蘭縣政府警察局,蘇澳分局,121.780304,24.369637,北向南,70
宜蘭縣,南澳鄉,台9線136k+912m至134k+405m觀音隧道北上,宜蘭縣政府警察局,蘇澳分局,121.780426,24.369045,南向北,70
宜蘭縣,南澳鄉,台9線130k+492m觀音隧道南下,宜蘭縣政府警察局,蘇澳分局,121.78068,24.42525,北向南,70
宜蘭縣,南澳鄉,台9線135K+910m觀音隧道南下,宜蘭縣政府警察局,蘇澳分局,121.78324,24.377888,北向南,70
宜蘭縣,南澳鄉,台9線135K+841m觀音隧道北上,宜蘭縣政府警察局,蘇澳分局,121.7837,24.378277,南向北,70
宜蘭縣,南澳鄉,台9線131K+860m至134K+538m觀音隧道南下,宜蘭縣政府警察局,蘇澳分局,121.78547,24.390112,北向南,70
宜蘭縣,南澳鄉,台9線134k+405m至131k+849m觀音隧道北上,宜蘭縣政府警察局,蘇澳分局,121.785706,24.390938,南向北,70
宜蘭縣,南澳鄉,台9線133k+289m觀音隧道南下,宜蘭縣政府警察局,蘇澳分局,121.78592,24.401218,北向南,70
宜蘭縣,南澳鄉,台9線131K+849m至129K+360m觀音隧道北上,宜蘭縣政府警察局,蘇澳分局,121.78607,24.413862,南向北,70
宜蘭縣,南澳鄉,台9線133k+174m觀音隧道北上,宜蘭縣政府警察局,蘇澳分局,121.78618,24.401888,南向北,70
宜蘭縣,南澳鄉,台9線123ｋ+570ｍ南澳段南下,宜蘭縣政府警察局,蘇澳分局,121.80645,24.46758,南北雙向,50
宜蘭縣,南澳鄉,蘇澳鎮台9線108k+269m至南澳鄉台9線110k+995m東澳隧道南下-2,宜蘭縣政府警察局,蘇澳分局,121.83616,24.536652,北向南,70
宜蘭縣,南澳鄉,南澳鄉台9線110k+960m至蘇澳鎮台9線108k+224m東澳隧道北上-1,宜蘭縣政府警察局,蘇澳分局,121.836655,24.536793,南向北,70
宜蘭縣,南澳鄉,台9線110k+300m東澳隧道北上,宜蘭縣政府警察局,蘇澳分局,121.83988,24.547905,南向北,70
宜蘭縣,南澳鄉,南澳鄉台9線110k+960m至蘇澳鎮台9線108k+224m東澳隧道北上-2,宜蘭縣政府警察局,蘇澳分局,121.84309,24.5618,南向北,70
新竹縣,竹北市,中正西路118線3km+500處,新竹縣政府警察局,竹北分局,120.97137,24.84157,東西雙向,50
新竹縣,竹北市,中華路1432號前(台1線65.5公里)南向,新竹縣政府警察局,新湖分局,120.99152,24.863388,南北雙向,60
新竹縣,竹北市,西濱公路與埔和路口(台15線64.4公里)南向,新竹縣政府警察局,新湖分局,120.99606,24.931686,北向南,60
新竹縣,竹北市,竹北市台1線中華路佑順加油站前,新竹縣政府警察局,竹北分局,120.99748,24.826073,南往北,50
新竹縣,竹北市,台一線大眉南下路口,新竹縣政府警察局,竹北分局,121.002075,24.855177,北往南,50
新竹縣,竹北市,中華路212號前(台1線70.1公里),新竹縣政府警察局,竹北分局,121.00238,24.831179,南向北,50
新竹縣,竹北市,中華路1138號前,新竹縣政府警察局,竹北分局,121.00254,24.855085,南向北,50
新竹縣,竹北市,竹北市興隆路與莊敬南路口(新竹地方法院前),新竹縣政府警察局,竹北分局,121.01772,24.812561,西往東,50
新竹縣,竹北市,竹北市自強北路與十興路口,新竹縣政府警察局,竹北分局,121.03342,24.826258,北往南,50
新竹縣,竹北市,竹北市光明六路東二段與嘉豐南路一段口,新竹縣政府警察局,竹北分局,121.03497,24.812794,西往東,50
新竹縣,竹北市,東興路二段316號前(120線7.1公里)雙向,新竹縣政府警察局,竹北分局,121.05501,24.797277,東西雙向,60
新竹縣,竹東鎮,台三線北上91.2公里,新竹縣政府警察局,竹東分局,120.98595,24.697054,南北雙向,60
新竹縣,竹東鎮,中興路四段372號前(122線14公里)西向,新竹縣政府警察局,竹東分局,121.02924,24.779507,東向西,50
新竹縣,竹東鎮,台68線12.55公里(快速道路)西向,新竹縣政府警察局,竹東分局,121.029686,24.79777,東向西,90
新竹縣,竹東鎮,竹東鎮公道路616號前,新竹縣政府警察局,竹東分局,121.03005,24.787918,西往東,50
新竹縣,竹東鎮,台68線12.85公里(快速道路)東向,新竹縣政府警察局,竹東分局,121.03352,24.795456,西向東,90
新竹縣,竹東鎮,中盛村路口(台3線86.5公里)南向,新竹縣政府警察局,竹東分局,121.03471,24.697115,南北雙向,60
新竹縣,竹東鎮,台3線中豐路老爺山莊路口,新竹縣政府警察局,竹東分局,121.078285,24.723764,南向北,50
新竹縣,竹東鎮,竹122線18KM+160(中興路一段94-2號),新竹縣政府警察局,竹東分局,121.08006,24.747807,東西雙向,50
新竹縣,竹東鎮,竹東鎮台68線竹東匝道口與北興路三段,新竹縣政府警察局,竹東分局,121.08052,24.749659,北往南,50
新竹縣,新埔鎮,新埔鎮文山里竹118線12K處,新竹縣政府警察局,新埔分局,121.05021,24.826906,西往東,50
新竹縣,新埔鎮,文山路亞東段369號西向,新竹縣政府警察局,新埔分局,121.05786,24.825338,東向西,60
新竹縣,新埔鎮,新關路1046巷口東向,新竹縣政府警察局,新埔分局,121.09389,24.822088,西往東,60
新竹縣,關西鎮,石光里702號前(118線19.1公里)西向,新竹縣政府警察局,新埔分局,121.115875,24.816027,東往西,60
新竹縣,關西鎮,竹118線22.7K,新竹縣政府警察局,新埔分局,121.15133,24.805145,東往西,50
新竹縣,關西鎮,南新里新城9鄰1號(台3線62公里)北向,新竹縣政府警察局,新埔分局,121.17297,24.765247,南往北,50
新竹縣,關西鎮,190號東光陸橋(台3線60.6公里)南向,新竹縣政府警察局,新埔分局,121.17617,24.775278,北向南,50
新竹縣,關西鎮,關西鎮台3線59km,新竹縣政府警察局,新埔分局,121.18595,24.788391,南往北,50
新竹縣,關西鎮,關西鎮中豐公路牛欄河6鄰63號,新竹縣政府警察局,新埔分局,121.19896,24.811626,南向北,60
新竹縣,湖口鄉,湖口鄉成功路與三元路路口,新竹縣政府警察局,新湖分局,121.02174,24.889975,西往東,60
新竹縣,湖口鄉,八德路一段35號前(台1線61公里)南向,新竹縣政府警察局,新湖分局,121.02346,24.885187,北向南,70
新竹縣,湖口鄉,台1線中山路口南向,新竹縣政府警察局,新湖分局,121.03631,24.880438,北向南,70
新竹縣,湖口鄉,台1線54KM+900處,新竹縣政府警察局,新湖分局,121.082695,24.886557,南北雙向,70
新竹縣,新豐鄉,新豐鄉新興路與康樂路口,新竹縣政府警察局,新湖分局,120.991875,24.864685,北往南,50
新竹縣,新豐鄉,台15線62公里南向,新竹縣政府警察局,新湖分局,120.99692,24.932375,北向南,60
新竹縣,芎林鄉,芎林鄉富林路一段竹120線15.5K處,新竹縣政府警察局,橫山分局,0.0,0.0,西往東,60
新竹縣,芎林鄉,富林路三段、文德路口(120線10.4公里)東向,新竹縣政府警察局,橫山分局,121.07388,24.774717,東向西,60
新竹縣,芎林鄉,富林路二段竹林交流道(120線11.5公里)西向,新竹縣政府警察局,橫山分局,121.08224,24.765705,東向西,60
新竹縣,橫山鄉,橫山鄉中豐路二段12巷口(台3線),新竹縣政府警察局,橫山分局,0.0,0.0,西往東,60
新竹縣,橫山鄉,中豐路一段、站前街口(台3線72.9公里)南向,新竹縣政府警察局,橫山分局,121.11652,24.720446,南北雙向,60
新竹縣,寶山鄉,寶山鄉寶山路二段竹83線0km+800,新竹縣政府警察局,竹東分局,0.0,0.0,南往北,50
新竹縣,寶山鄉,雙林路一般竹47-1線4km處,新竹縣政府警察局,竹東分局,120.95864,24.744226,南向北,50
新竹縣,寶山鄉,雙園路2段(竹82線1公里)南向,新竹縣政府警察局,竹東分局,120.99643,24.766848,北向南,50
新竹縣,寶山鄉,竹83線4km+150,新竹縣政府警察局,竹東分局,121.033325,24.728348,西往東,50
苗栗縣,苗栗市,台13線35.2公里處,苗栗縣警察局,苗栗分局,120.792854,24.522364,南向北,60
苗栗縣,苗栗市,新川里柑園5號前處,苗栗縣警察局,苗栗分局,120.80374,24.578798,東向西,60
苗栗縣,苗栗市,台13線30.3公里處(苗商後方),苗栗縣警察局,苗栗分局,120.81373,24.557383,南北雙向,50
苗栗縣,苗栗市,台13線31.1公里處(信義街口),苗栗縣警察局,苗栗分局,120.813934,24.550495,南向北,50
苗栗縣,苗栗市,英才路與文發路 口,苗栗縣警察局,苗栗分局,120.81526,24.590336,東向西,50
苗栗縣,苗栗市,中正路905號前公車停靠區及禁臨停區,苗栗縣警察局,苗栗分局,120.81608,24.551743,南北雙向,50
苗栗縣,苗栗市,台6線(經國路)14.5公里處,苗栗縣警察局,苗栗分局,120.83144,24.551407,東西雙向,70
苗栗縣,苑裡鎮,台1線140.8公里處(臨海路口),苗栗縣警察局,通霄分局,120.64825,24.4435,北向南,60
苗栗縣,苑裡鎮,苑北里中山路與成功路口處,苗栗縣警察局,通霄分局,120.65332,24.44647,北向南,50
苗栗縣,苑裡鎮,140線與苗47之1線口處,苗栗縣警察局,通霄分局,120.6551,24.41928,西向東,50
苗栗縣,苑裡鎮,140線與121線口處,苗栗縣警察局,通霄分局,120.67131,24.394587,東向西,60
苗栗縣,苑裡鎮,140線8.1公里處,苗栗縣警察局,通霄分局,120.68583,24.37995,西向東,60
苗栗縣,通霄鎮,台1線137.2公里處(五福國小陸橋下),苗栗縣警察局,通霄分局,120.66622,24.469824,南向北,60
苗栗縣,通霄鎮,台61線北向122.6公里至115.6公里,苗栗縣警察局,通霄分局,120.67632,24.494154,南向北,90
苗栗縣,通霄鎮,台61線南向122.2公里至130.2公里,苗栗縣警察局,通霄分局,120.67696,24.497608,北向南,90
苗栗縣,通霄鎮,台1線134.7公里與121線口處,苗栗縣警察局,通霄分局,120.68407,24.48168,北向南,60
苗栗縣,通霄鎮,128線2.4公里處,苗栗縣警察局,通霄分局,120.69913,24.496456,東向西,60
苗栗縣,通霄鎮,台1線124.8公里處(啟新國中前),苗栗縣警察局,通霄分局,120.709694,24.56362,南向北,60
苗栗縣,通霄鎮,台61線114.3公里處,苗栗縣警察局,通霄分局,120.7139,24.559273,南向北,90
苗栗縣,竹南鎮,台1線124.1公里處(拱天宮前),苗栗縣警察局,通霄分局,120.7121,24.569326,北向南,60
苗栗縣,竹南鎮,台61線90.4公里與苗3-3線路口處,苗栗縣警察局,竹南分局,120.81119,24.657883,北向南,80
苗栗縣,竹南鎮,台1己線1.3公里與明勝路口處,苗栗縣警察局,竹南分局,120.85556,24.671747,東向西,60
苗栗縣,竹南鎮,台61線91公里快(側)車道與博愛街口處,苗栗縣警察局,竹南分局,120.85995,24.693743,南向北,40
苗栗縣,竹南鎮,台61線88.15公里處,苗栗縣警察局,竹南分局,120.86775,24.717684,南北雙向,80
苗栗縣,竹南鎮,台1己線3公里處,苗栗縣警察局,竹南分局,120.87099,24.671583,西向東,60
苗栗縣,竹南鎮,環市路與公教路口處（清寧橋前）,苗栗縣警察局,竹南分局,120.87718,24.692722,東向西,60
苗栗縣,竹南鎮,竹南火車站前後圓環,苗栗縣警察局,竹南分局,120.879974,24.686905,東西南北,30
苗栗縣,竹南鎮,台13線永貞路與公園路口處,苗栗縣警察局,竹南分局,120.88542,24.690916,北向南,60
苗栗縣,竹南鎮,永貞路與勝利街口處,苗栗縣警察局,竹南分局,120.885445,24.69521,北向南,60
苗栗縣,竹南鎮,台13線2.5公里與友義路口處,苗栗縣警察局,竹南分局,120.90459,24.723228,南向北,60
苗栗縣,竹南鎮,台1線與苗2線口處(科學路口),苗栗縣警察局,竹南分局,120.92211,24.713758,南向北,70
苗栗縣,頭份市,台1線與苗10線口處,苗栗縣警察局,頭份分局,120.878746,24.66203,北向南,70
苗栗縣,頭份市,台1線98.3公里處,苗栗縣警察局,頭份分局,120.88218,24.663143,南向北,70
苗栗縣,頭份市,台13線12.1公里處（尖山國小前）,苗栗縣警察局,頭份分局,120.88288,24.65347,南向北,60
苗栗縣,頭份市,中華路440號處,苗栗縣警察局,頭份分局,120.89102,24.674002,南向北,60
苗栗縣,頭份市,台1線95.2公里處(紡安紡織公司口),苗栗縣警察局,頭份分局,120.89492,24.683172,南向北,60
苗栗縣,頭份市,中央路(頭份國中前),苗栗縣警察局,頭份分局,120.90152,24.692188,東西雙向,50
苗栗縣,頭份市,台1線91.6公里與科東二路口處,苗栗縣警察局,頭份分局,120.90206,24.68516,北向南,60
苗栗縣,頭份市,中華路與自強路口,苗栗縣警察局,頭份分局,120.9131,24.690813,北向南,60
苗栗縣,頭份市,正興路與水源路口處,苗栗縣警察局,頭份分局,120.91392,24.674433,北向南,60
苗栗縣,頭份市,124甲線與中華路口,苗栗縣警察局,頭份分局,120.91523,24.69308,東向西,50
苗栗縣,頭份市,124甲線1公里東向與土牛社區路口處,苗栗縣警察局,頭份分局,120.92369,24.690245,西向東,50
苗栗縣,頭份市,124甲線1公里西向與土牛社區路口處,苗栗縣警察局,頭份分局,120.92423,24.68992,東向西,50
苗栗縣,頭份市,中正一路與124甲線路口,苗栗縣警察局,頭份分局,120.92912,24.686438,東向西,50
苗栗縣,頭份市,124線8.45公里處,苗栗縣警察局,頭份分局,120.93603,24.685402,東向西,50
苗栗縣,頭份市,124線9.8公里處,苗栗縣警察局,頭份分局,120.94835,24.680124,西向東,50
苗栗縣,頭份市,124線10.75公里處,苗栗縣警察局,頭份分局,120.95703,24.681976,東向西,50
苗栗縣,後龍鎮,台61線與苗11線口處,苗栗縣警察局,竹南分局,120.78327,24.637379,南向北,80
苗栗縣,後龍鎮,台6線3.7公里處(後龍交流道附近),苗栗縣警察局,竹南分局,120.78955,24.594868,西向東,60
苗栗縣,後龍鎮,台1線與成功路口處,苗栗縣警察局,竹南分局,120.79464,24.61392,南向北,60
苗栗縣,後龍鎮,台61線97.55公里處,苗栗縣警察局,竹南分局,120.81203,24.657776,南北雙向,80
苗栗縣,後龍鎮,台13甲線12.4公里處,苗栗縣警察局,竹南分局,120.832245,24.607538,北向南,60
苗栗縣,卓蘭鎮,台3線142.2公里處,苗栗縣警察局,大湖分局,120.82357,24.338886,南向北,60
苗栗縣,卓蘭鎮,台3線146.8公里處（豐田國小旁）,苗栗縣警察局,大湖分局,120.823845,24.3246,北向南,60
苗栗縣,大湖鄉,台3線141公里處,苗栗縣警察局,大湖分局,120.8283,24.348303,北向南,60
苗栗縣,大湖鄉,台3線137.2公里,苗栗縣警察局,大湖分局,120.842674,24.37388,南向北,60
苗栗縣,大湖鄉,台3線與苗55線口處(南湖國小前),苗栗縣警察局,大湖分局,120.86043,24.395475,南向北,60
苗栗縣,大湖鄉,台3線131.6公里處,苗栗縣警察局,大湖分局,120.86529,24.409588,南向北,60
苗栗縣,大湖鄉,台3線與中原路口處,苗栗縣警察局,大湖分局,120.86771,24.428797,南向北,60
苗栗縣,公館鄉,台72線24公里處,苗栗縣警察局,苗栗分局,120.81822,24.46855,東西雙向,80
苗栗縣,公館鄉,119甲線(沿山道)3.4公里處,苗栗縣警察局,苗栗分局,120.835365,24.512255,北向南,60
苗栗縣,銅鑼鄉,台13線與苗38－1線口處（外環道與九湖橋頭）,苗栗縣警察局,苗栗分局,120.78136,24.478888,北向南,60
苗栗縣,銅鑼鄉,台13線與128線口處,苗栗縣警察局,苗栗分局,120.78141,24.494358,北向南,60
苗栗縣,銅鑼鄉,128線與苗27線口處,苗栗縣警察局,苗栗分局,120.80876,24.498888,北向南,60
苗栗縣,銅鑼鄉,台72線與119甲線口處,苗栗縣警察局,苗栗分局,120.80923,24.47729,東向西,80
苗栗縣,南庄鄉,台3線與苗20線口處,苗栗縣警察局,頭份分局,120.955826,24.639528,南向北,60
苗栗縣,頭屋鄉,台13線24.2公里處,苗栗縣警察局,苗栗分局,120.85494,24.576845,北向南,50
苗栗縣,三義鄉,140線15.3公里處,苗栗縣警察局,苗栗分局,120.74204,24.35014,東西向,50
苗栗縣,三義鄉,140線16.2公里至23.1公里至25.1公里,苗栗縣警察局,苗栗分局,120.744514,24.345043,東西雙向,50
苗栗縣,三義鄉,台13線52.4公里處(龍騰派出所前),苗栗縣警察局,苗栗分局,120.74986,24.378527,北向南,60
苗栗縣,三義鄉,140線20.2公里處,苗栗縣警察局,苗栗分局,120.77479,24.323368,東西雙向,50
苗栗縣,造橋鄉,台13甲線北向11公里至9.8公里,苗栗縣警察局,竹南分局,120.839836,24.616726,北向,50
苗栗縣,造橋鄉,台1線102.8公里處（育達科技大學前）,苗栗縣警察局,竹南分局,120.845,24.646929,南向北,70
苗栗縣,造橋鄉,台13甲線10.1公里處,苗栗縣警察局,竹南分局,120.84604,24.622055,南北雙向,50
苗栗縣,造橋鄉,台13甲線南向9.8公里至11公里,苗栗縣警察局,竹南分局,120.84835,24.624105,南向,50
苗栗縣,造橋鄉,台13甲線北向9.5公里至8.3公里,苗栗縣警察局,竹南分局,120.85055,24.625143,北向,60
苗栗縣,造橋鄉,台1線與苗9線口處（談文派出所前）,苗栗縣警察局,竹南分局,120.85221,24.653536,南向北,70
苗栗縣,造橋鄉,台13甲線南向8.3公里至9.5公里,苗栗縣警察局,竹南分局,120.85721,24.632866,南向,60
苗栗縣,三灣鄉,台3線102.8公里處,苗栗縣警察局,頭份分局,120.94928,24.616138,南北雙向,60
苗栗縣,三灣鄉,台3線101.5公里處(大河老街口),苗栗縣警察局,頭份分局,120.949905,24.619045,南向北,60
苗栗縣,三灣鄉,台3線103.2公里至108公里,苗栗縣警察局,頭份分局,120.952415,24.61412,南北雙向,60
苗栗縣,三灣鄉,台3線104.9公里處,苗栗縣警察局,頭份分局,120.9586,24.604675,南向北,60
苗栗縣,三灣鄉,台3線95.5公里處,苗栗縣警察局,頭份分局,120.96546,24.665936,南向北,60
苗栗縣,獅潭鄉,台3線108公里處,苗栗縣警察局,大湖分局,120.71483,23.803984,南、北雙向,60
苗栗縣,獅潭鄉,台3線114.3公里至122.8公里,苗栗縣警察局,大湖分局,120.88974,24.476599,南北雙向,60
苗栗縣,獅潭鄉,台3線120.9公里處,苗栗縣警察局,大湖分局,120.89901,24.488768,北向南,60
苗栗縣,獅潭鄉,台3線115.4公里處,苗栗縣警察局,大湖分局,120.91459,24.529861,南向北,60
苗栗縣,獅潭鄉,台3線111.8公里處,苗栗縣警察局,大湖分局,120.916466,24.52958,北向南,60
苗栗縣,獅潭鄉,台3線113.5公里處,苗栗縣警察局,大湖分局,120.916466,24.52958,北向南,60
苗栗縣,獅潭鄉,台3線113.1公里處(獅潭國中旁),苗栗縣警察局,大湖分局,120.921745,24.5422,北向南,60
彰化縣,彰化市,金馬、忠誠路口,彰化縣警察局,彰化分局,120.53111,24.08472,南向,70
彰化縣,彰化市,建國北路,彰化縣警察局,彰化分局,120.55056,24.09194,西向,50
彰化縣,彰化市,中興路與介壽橋口,彰化縣警察局,彰化分局,120.5525,24.07028,西向,50
彰化縣,彰化市,中山、中正路口,彰化縣警察局,彰化分局,120.5525,24.08389,北向,50
彰化縣,彰化市,台74甲線與彰員路口,彰化縣警察局,彰化分局,120.55556,24.02333,南向,70
彰化縣,彰化市,金馬路一段、泰和路二段415巷口,彰化縣警察局,彰化分局,120.55722,24.09833,北向,70
彰化縣,彰化市,彰化市金馬東路與金馬東路317巷口,彰化縣警察局,彰化分局,120.57575,24.093752,南向,70
彰化縣,彰化市,台1線186.95公里,彰化縣警察局,彰化分局,120.58028,24.10111,北向,70
彰化縣,彰化市,彰化市縣139線7.7公里處,彰化縣警察局,彰化分局,120.59235,24.036015,南北雙向,40
彰化縣,彰化市,台74甲線3.4公里,彰化縣警察局,彰化分局,120.59366,24.07311,南向,70
彰化縣,彰化市,台74甲線2.2公里,彰化縣警察局,彰化分局,120.59444,24.08222,南北雙向,70
彰化縣,彰化市,台14線、福興路口,彰化縣警察局,彰化分局,120.62194,24.04528,東向,70
彰化縣,鹿港鎮,台61西部濱海快速公路北上177公里到168.1公里(區間測速),彰化縣警察局,鹿港分局,120.42038,24.081823,往北,90
彰化縣,鹿港鎮,台17線31.7公里,彰化縣警察局,鹿港分局,120.44583,24.08639,北向,70
彰化縣,鹿港鎮,台17線31.3公里(長安宮前),彰化縣警察局,鹿港分局,120.44806,24.09083,南北雙向,70
彰化縣,鹿港鎮,鹿港鎮鹿和路2段與鹿和路2段537巷口 (縣道),彰化縣警察局,鹿港分局,120.460785,24.074808,東西雙向,60
彰化縣,和美鎮,線東路五段291號南側170公尺處,彰化縣警察局,和美分局,120.48998,24.12682,南北雙向,60
彰化縣,和美鎮,和美鎮和港路與西興路、北明路口,彰化縣警察局,和美分局,120.49588,24.114037,北向,60
彰化縣,和美鎮,彰美、中興路口,彰化縣警察局,和美分局,120.52417,24.09917,西向,60
彰化縣,伸港鄉,伸港鄉濱海路與工五路口,彰化縣警察局,和美分局,120.51881,24.153168,東西雙向,60
彰化縣,福興鄉,沿海路、龍舟路路口,彰化縣警察局,鹿港分局,120.431015,24.048855,西向,50
彰化縣,福興鄉,福興鄉縣道144線與南環路口,彰化縣警察局,鹿港分局,120.44422,24.03323,東向,70
彰化縣,福興鄉,福興鄉彰鹿路6段與彰鹿路6段314巷路口,彰化縣警察局,鹿港分局,120.462975,24.046333,西向,60
彰化縣,福興鄉,台19線、番花路口,彰化縣警察局,鹿港分局,120.48861,24.01611,南向,60
彰化縣,秀水鄉,彰鹿路、民意街口,彰化縣警察局,鹿港分局,120.49667,24.050226,東向,60
彰化縣,秀水鄉,台19線、安鶴路口,彰化縣警察局,鹿港分局,120.51111,24.05056,北向,60
彰化縣,花壇鄉,台1線194.496K(省道),彰化縣警察局,彰化分局,120.53299,24.050976,南向,70
彰化縣,花壇鄉,台1線194.5公里,彰化縣警察局,彰化分局,120.533295,24.051216,南北雙向,70
彰化縣,花壇鄉,台1線198.4公里,彰化縣警察局,彰化分局,120.53889,24.02694,南北雙向,70
彰化縣,花壇鄉,中山路1段95號(福安宮前),彰化縣警察局,彰化分局,120.54389,24.02167,北向,70
彰化縣,芬園鄉,彰化縣縣道139線8.537K處,彰化縣警察局,彰化分局,120.593895,24.03417,南北雙向,40
彰化縣,芬園鄉,芬園鄉大彰路與縣安路口,彰化縣警察局,彰化分局,120.62687,24.010653,東向,50
彰化縣,員林市,員林市員埔路與三潭巷路口,彰化縣警察局,員林分局,120.557594,23.971558,東西雙向,60
彰化縣,員林市,莒光路、員鹿路路口,彰化縣警察局,員林分局,120.56619,23.957155,南向,60
彰化縣,員林市,員林大道(30米外環道)、員集路口,彰化縣警察局,員林分局,120.57598,23.947823,西向,50
彰化縣,員林市,員林市東彰路與員集路口,彰化縣警察局,員林分局,120.57929,23.92596,東西雙向,70
彰化縣,溪湖鎮,溪湖鎮彰水路台19線、海豐路口,彰化縣警察局,溪湖分局,120.48286,23.93747,南向,70
彰化縣,田中鎮,田中鎮斗中路與大社南路(彰95高鐵站連接道路)路口,彰化縣警察局,田中分局,120.57679,23.86265,西向,60
彰化縣,田中鎮,縣141線13.3公里南下,彰化縣警察局,田中分局,120.59444,23.84583,南向,60
彰化縣,大村鄉,台1線201.4公里,彰化縣警察局,員林分局,120.56194,23.94417,南北雙向,70
彰化縣,埔鹽鄉,埔鹽鄉彰水路二段與中山路口,彰化縣警察局,溪湖分局,120.47615,23.997437,北向,60
彰化縣,埔心鄉,埔心鄉員林大道(30米外環道)與員鹿路路口,彰化縣警察局,員林分局,120.56222,23.95708,南向,50
彰化縣,永靖鄉,永靖鄉中山路1段與中山路1段 351巷路口,彰化縣警察局,北斗分局,120.54631,23.922073,南向,70
彰化縣,社頭鄉,社頭鄉 中山路與和平三路口,彰化縣警察局,田中分局,120.58377,23.893862,北向,60
彰化縣,社頭鄉,縣141線6.6公里北上,彰化縣警察局,田中分局,120.585,23.86278,北向,60
彰化縣,二水鄉,縣152線與二水鄉外環道(外環道路口),彰化縣警察局,田中分局,120.61972,23.80611,南向,50
彰化縣,二水鄉,二水鄉縣141線21.594公里(二水鄉南通路二段398號對面),彰化縣警察局,田中分局,120.62801,23.801483,南向,60
彰化縣,二水鄉,縣152線與二水鄉外環道(往名間方向),彰化縣警察局,田中分局,120.67444,23.81694,南向,50
彰化縣,北斗鎮,斗苑路2段、斗苑路2段307巷口,彰化縣警察局,北斗分局,120.51024,23.878145,東西雙向,60
彰化縣,北斗鎮,北斗鎮中山路與斗苑路口,彰化縣警察局,北斗分局,120.51719,23.873512,南向,50
彰化縣,田尾鄉,台1線214.6公里南下,彰化縣警察局,北斗分局,120.50639,23.86167,南向,50
彰化縣,田尾鄉,台1線214公里北上,彰化縣警察局,北斗分局,120.50722,23.8625,北向,70
彰化縣,埤頭鄉,彰水路、庄子路口,彰化縣警察局,北斗分局,120.46079,23.894117,北向,70
彰化縣,埤頭鄉,台19線25.3公里北上東外環,彰化縣警察局,北斗分局,120.46972,23.89861,北向,70
彰化縣,埤頭鄉,埤頭鄉東環路與庄子路282巷路口,彰化縣警察局,田中分局,120.476715,23.896597,南向,70
彰化縣,埤頭鄉,埤頭鄉斗苑東路與中南路口,彰化縣警察局,北斗分局,120.47823,23.889475,西向,60
彰化縣,埤頭鄉,埤頭鄉縣152線16.5公里,彰化縣警察局,北斗分局,120.53134,23.832464,東西雙向,60
彰化縣,芳苑鄉,台17線與新上路口,彰化縣警察局,芳苑分局,120.3075,23.90333,南向,70
彰化縣,芳苑鄉,台17線59.3公里(芳苑鄉芳新路芳苑段801號),彰化縣警察局,芳苑分局,120.32361,23.93417,南北雙向,70
彰化縣,芳苑鄉,台17線53.7公里,彰化縣警察局,芳苑分局,120.33472,23.95222,南北雙向,70
彰化縣,芳苑鄉,芳苑鄉斗苑路頂後段與路平路口,彰化縣警察局,芳苑分局,120.340614,23.910868,東西雙向,60
彰化縣,芳苑鄉,台17線、中正路口,彰化縣警察局,芳苑分局,120.35222,23.975,北向,70
彰化縣,竹塘鄉,竹塘鄉中央路二段大湖路口,彰化縣警察局,北斗分局,120.42628,23.862356,南向,70
彰化縣,溪州鄉,台1線219.7公里(溪洲外環道),彰化縣警察局,北斗分局,120.47028,23.83444,北向,70
彰化縣,溪州鄉,台1線218.4公里處(溪州鄉中山路4段287號),彰化縣警察局,北斗分局,120.48311,23.848318,南北雙向,70
南投縣,南投市,139線35.95公里處,南投縣政府警察局,南投分局,120.637566,23.91971,北向南,50
南投縣,南投市,華陽路850號前,南投縣政府警察局,南投分局,120.678246,23.930109,南北雙向,60
南投縣,南投市,南投市南崗一路與民族路口,南投縣政府警察局,南投分局,120.67985,23.90651,南北雙向,60
南投縣,南投市,東閔路1.35公里,南投縣政府警察局,中興分局,120.686226,23.93615,北向南,60
南投縣,南投市,臺3線215.5公里,南投縣政府警察局,南投分局,120.68987,23.888296,南北雙向,60
南投縣,埔里鎮,臺21線49.9公里,南投縣政府警察局,埔里分局,120.93764,23.948853,南向北,60
南投縣,埔里鎮,埔里鎮信義路、中山路三段與南安路口闖紅燈、未依標線指示行駛及測速,南投縣政府警察局,埔里分局,120.95306,23.970133,東西雙向,50
南投縣,埔里鎮,埔里鎮和平東路與中正路口闖紅燈、違規停(臨)車、未依標線指示行駛、測速,南投縣政府警察局,埔里分局,120.97403,23.956371,東西雙向,50
南投縣,草屯鎮,臺14乙線5.9公里,南投縣政府警察局,草屯分局,120.65508,23.963615,南北雙向,70
南投縣,草屯鎮,臺63甲線0.3公里闖紅燈及未依標線指示行駛,南投縣政府警察局,草屯分局,120.67785,24.00289,南向北,60
南投縣,草屯鎮,臺63甲線1.2公里,南投縣政府警察局,草屯分局,120.67963,23.996204,南北雙向,60
南投縣,草屯鎮,草屯鎮中正路與博愛路口,南投縣政府警察局,草屯分局,120.68671,23.98525,東西雙向,70
南投縣,草屯鎮,草屯鎮中正路與大覺路口,南投縣政府警察局,草屯分局,120.69453,24.004614,南北雙向,60
南投縣,草屯鎮,臺14線富功國小前,南投縣政府警察局,草屯分局,120.69843,23.97888,東向西,50
南投縣,草屯鎮,東草屯交流道永安路1.8公里闖紅燈、未依標線指示行駛及測速,南投縣政府警察局,草屯分局,120.722466,23.996405,南北雙向,50
南投縣,竹山鎮,大明路與前山路口闖紅燈及未依標線指示行駛,南投縣政府警察局,竹山分局,120.6793,23.757366,南向北,60
南投縣,竹山鎮,社寮產業運輸道路2.15公里處,南投縣政府警察局,竹山分局,120.705376,23.808374,南北雙向,40
南投縣,竹山鎮,臺3線227.7公里,南投縣政府警察局,竹山分局,120.70938,23.789066,南北雙向,60
南投縣,竹山鎮,社寮產業運輸道路4.5公里處,南投縣政府警察局,竹山分局,120.72166,23.82349,南北雙向,40
南投縣,集集鎮,臺16線2.37公里,南投縣政府警察局,集集分局,120.730965,23.834896,東西雙向,70
南投縣,集集鎮,臺16線4.8公里闖紅燈、未依標線指示行駛及測速,南投縣政府警察局,集集分局,120.75247,23.828299,東向西,70
南投縣,鹿谷鄉,鹿谷鄉151線10.07公里處,南投縣政府警察局,竹山分局,120.768555,23.73256,南北雙向,50
南投縣,中寮鄉,中寮鄉139線47.5公里處,南投縣政府警察局,草屯分局,120.71774,23.894646,東西雙向,50
南投縣,魚池鄉,魚池鄉臺21線53.9K至51.1K(區間測速),南投縣政府警察局,集集分局,120.92913,23.94172,南北雙向,60
南投縣,國姓鄉,國姓鄉臺14線40.1公里處,南投縣政府警察局,埔里分局,120.84806,24.01532,南北雙向,70
南投縣,信義鄉,臺21線93.1公里處(臺21線與敦福路口),南投縣政府警察局,信義分局,120.87654,23.662935,南向北,50
南投縣,仁愛鄉,仁愛鄉臺14線70.7公里處,南投縣政府警察局,仁愛分局,121.084465,24.002531,東西雙向,50
南投縣,仁愛鄉,臺14甲線7.95公里處,南投縣政府警察局,仁愛分局,121.15568,24.045826,北向南,30
雲林縣,,臺61線南下218k+250m至226k+250m(區間平均速率自動偵測照相系統路段),雲林縣警察局,臺西分局,120.27286,23.774952,南下,90
雲林縣,斗六市,台1丁線公路與久安路口,雲林縣警察局,斗六分局,120.50823,23.691448,東西雙向,70
雲林縣,斗六市,大學路與雲林科技大學前路口,雲林縣警察局,斗六分局,120.53308,23.695944,西向東,60
雲林縣,斗六市,斗六市大學路與中山路路口,雲林縣警察局,斗六分局,120.53748,23.696798,西向東,60
雲林縣,斗六市,台3線公路252k+65m處,雲林縣警察局,斗六分局,120.54649,23.699762,南向北,60
雲林縣,斗六市,斗六市明德北路與育英北街路口,雲林縣警察局,斗六分局,120.55062,23.717327,東向西,60
雲林縣,斗六市,154乙縣道13k+200m處(環科大前),雲林縣警察局,斗六分局,120.55256,23.680202,南北雙向,60
雲林縣,斗六市,斗六市台3線公路與成功路口,雲林縣警察局,斗六分局,120.55346,23.702805,南向北,70
雲林縣,斗六市,斗六市雲科路二段與科班路路口(158縣道43.7K),雲林縣警察局,斗六分局,120.56408,23.73015,西向東,50
雲林縣,斗六市,台3線公路248k+970m處,雲林縣警察局,斗六分局,120.568954,23.717222,南向北,60
雲林縣,斗南鎮,台78線快速公路29k+400m處(西向東),雲林縣警察局,斗南分局,120.45189,23.673025,西向東,100
雲林縣,斗南鎮,台78線快速公路29k+400m處(東向西),雲林縣警察局,斗南分局,120.45193,23.67321,東向西,100
雲林縣,斗南鎮,台1線公路與文昌路口(南向北),雲林縣警察局,斗南分局,120.480835,23.679546,南向北,60
雲林縣,斗南鎮,台1線公路與文昌路口(北向南),雲林縣警察局,斗南分局,120.48086,23.68034,北向南,60
雲林縣,斗南鎮,斗南鎮台1丁線12k+800m(新光陸橋-斗南往斗六),雲林縣警察局,斗南分局,120.49234,23.68357,西向東,60
雲林縣,斗南鎮,斗南鎮新生二路東明橋北端,雲林縣警察局,斗南分局,120.49306,23.683113,南向北,50
雲林縣,斗南鎮,斗南鎮台1丁線12k+700m(新光陸橋東側-斗六往斗南),雲林縣警察局,斗南分局,120.49349,23.683903,東向西,60
雲林縣,虎尾鎮,科虎三路18號(元翎科技公司),保二總隊,保二三大隊,120.396,23.736464,北往南,60
雲林縣,虎尾鎮,158縣道與博愛路口,雲林縣警察局,虎尾分局,120.43605,23.719143,西向東,60
雲林縣,虎尾鎮,158縣道與林森路一段路口,雲林縣警察局,虎尾分局,120.44133,23.717178,東向西,60
雲林縣,虎尾鎮,145乙縣道與雲71線路口前(東向西),雲林縣警察局,虎尾分局,120.458275,23.735708,東向西,60
雲林縣,虎尾鎮,台1線公路與雲74線路口(惠來派出所前),雲林縣警察局,虎尾分局,120.488914,23.728313,南北雙向,70
雲林縣,西螺鎮,154甲縣道1k處(高鐵橋下),雲林縣警察局,西螺分局,120.43022,23.785646,東西雙向,60
雲林縣,西螺鎮,145縣道與福來路20巷路口(12.6k處-北向),雲林縣警察局,西螺分局,120.44506,23.778845,南向北,60
雲林縣,西螺鎮,台1線公路與振興路口(北向南),雲林縣警察局,西螺分局,120.47047,23.790655,北向南,50
雲林縣,西螺鎮,台1線公路與振興路口(南向北),雲林縣警察局,西螺分局,120.47076,23.79007,南向北,50
雲林縣,土庫鎮,158縣道18k處,雲林縣警察局,虎尾分局,120.35221,23.701073,西向東,70
雲林縣,土庫鎮,145縣道29k處(土庫外環道),雲林縣警察局,虎尾分局,120.38855,23.670492,南北雙向,60
雲林縣,北港鎮,164縣道14k+800m處(扶朝段),雲林縣警察局,北港分局,120.2824,23.567465,東向西,60
雲林縣,北港鎮,台19線公路與145線道路口,雲林縣警察局,北港分局,120.2994,23.583763,北向南,60
雲林縣,北港鎮,北港鎮145縣道40k+750m處,雲林縣警察局,北港分局,120.32356,23.596136,南北雙向,60
雲林縣,大埤鄉,大埤鄉157線公路2k+130m,雲林縣警察局,斗南分局,120.45549,23.658314,南北雙向,60
雲林縣,大埤鄉,台1線公路247k+500m處(豐田段),雲林縣警察局,斗南分局,120.46827,23.63372,南向北,70
雲林縣,大埤鄉,台1線公路246k+400m處(豐田段),雲林縣警察局,斗南分局,120.46946,23.639185,北向南,70
雲林縣,莿桐鄉,台1線公路235k+592m處,雲林縣警察局,斗六分局,120.494446,23.742592,南北雙向,60
雲林縣,莿桐鄉,台1線公路與中正路口,雲林縣警察局,斗六分局,120.49677,23.75775,北向南,70
雲林縣,莿桐鄉,156縣道與莿桐外環道(孩沙里)路口,雲林縣警察局,斗六分局,120.506424,23.766708,北向南,60
雲林縣,莿桐鄉,台1丁線公路與農校路口,雲林縣警察局,斗六分局,120.508675,23.750402,北向南,60
雲林縣,林內鄉,台3線公路238k+268m處,雲林縣警察局,斗六分局,120.644,23.770504,南向北,60
雲林縣,二崙鄉,二崙鄉台19線公路40km+200m,雲林縣警察局,西螺分局,120.38286,23.800879,南北雙向,60
雲林縣,崙背鄉,崙背鄉156縣道7k+700m,雲林縣警察局,西螺分局,120.33265,23.767534,東西雙向,60
雲林縣,麥寮鄉,雲3線海豐村忠和路131號前,雲林縣警察局,臺西分局,120.22894,23.77376,南北雙向,60
雲林縣,麥寮鄉,工業路與雲3號路口(西向東),雲林縣警察局,臺西分局,120.2346,23.792048,西向東,60
雲林縣,麥寮鄉,工業路與4k+500m處路口,雲林縣警察局,臺西分局,120.23678,23.79157,西向東,70
雲林縣,麥寮鄉,台17線公路與工業路口,雲林縣警察局,臺西分局,120.271,23.788769,南向北,60
雲林縣,麥寮鄉,台17線公路與154縣道路口(橋頭),雲林縣警察局,臺西分局,120.278656,23.796333,北向南,60
雲林縣,東勢鄉,雲113公路湖東橋前路段,雲林縣警察局,臺西分局,120.24066,23.655548,東向西,60
雲林縣,東勢鄉,新坤路與158甲縣道路口,雲林縣警察局,臺西分局,120.253296,23.721405,北向南,60
雲林縣,東勢鄉,153縣道1k處,雲林縣警察局,臺西分局,120.25528,23.738638,北向南,60
雲林縣,東勢鄉,東勢鄉153縣道與158甲縣道路口,雲林縣警察局,臺西分局,120.25655,23.721605,北向南,60
雲林縣,東勢鄉,153線與158甲線縣道路口,雲林縣警察局,臺西分局,120.25662,23.720882,南向北,60
雲林縣,東勢鄉,153縣道嘉勝路與守密街路口(南向),雲林縣警察局,臺西分局,120.25901,23.665485,北向南,50
雲林縣,東勢鄉,台78線快速公路13k處(西向東),雲林縣警察局,臺西分局,120.30067,23.684862,西向東,100
雲林縣,東勢鄉,台78線快速公路13k處(東向西),雲林縣警察局,臺西分局,120.3066,23.685007,東向西,100
雲林縣,褒忠鄉,台19線公路與158縣道路口,雲林縣警察局,虎尾分局,120.32407,23.69827,北向南,70
雲林縣,褒忠鄉,台19線公路53k+500m處,雲林縣警察局,虎尾分局,120.324425,23.708206,南北雙向,70
雲林縣,臺西鄉,155縣道民權路47-8號前,雲林縣警察局,臺西分局,120.20016,23.703785,北向南,50
雲林縣,臺西鄉,155縣道4k+800m處,雲林縣警察局,臺西分局,120.20882,23.669996,南北雙向,60
雲林縣,臺西鄉,臺西鄉台61線快速道路226K+850m,雲林縣警察局,臺西分局,120.220314,23.727283,北向,90
雲林縣,元長鄉,元長鄉台19線64k+450m,雲林縣警察局,虎尾分局,120.30748,23.611443,南北雙向,60
雲林縣,元長鄉,160縣道20k+947m處(子茂段),雲林縣警察局,虎尾分局,120.337105,23.658632,東西雙向,60
雲林縣,四湖鄉,155線四湖國中前,雲林縣警察局,臺西分局,120.22754,23.630302,北向南,60
雲林縣,口湖鄉,口湖鄉台61線快速道路246K+100m,雲林縣警察局,北港分局,120.15164,23.585243,南向,90
雲林縣,口湖鄉,台17線公路97k+842m處,雲林縣警察局,北港分局,120.16689,23.623926,南北雙向,70
嘉義縣,太保市,台18線1.5K(往西),嘉義縣警察局,嘉縣警局交通隊,120.32873,23.472519,由東向西,70
嘉義縣,朴子市,朴子市168線與157線路口,嘉義縣警察局,嘉縣警局交通隊,120.254814,23.46616,由西往東,50
嘉義縣,大林鎮,大林鎮162線10.953K,嘉義縣警察局,,120.4908,23.604876,東西雙向,60
嘉義縣,民雄鄉,民雄鄉台1線258K與東榮路口,嘉義縣警察局,嘉縣警局交通隊,120.43358,23.557116,由南往北,50
嘉義縣,民雄鄉,民雄鄉台1線255.5K(鎮北段),嘉義縣警察局,嘉縣警局交通隊,120.43957,23.578737,南北雙向,70
嘉義縣,新港鄉,159線南壇段水月橋,嘉義縣警察局,民雄分局,120.32498,23.560232,由東向西,60
嘉義縣,六腳鄉,台19線73.1K(六美國小),嘉義縣警察局,朴子分局,120.292694,23.539839,由南向北,50
嘉義縣,東石鄉,台82線4.65K,嘉義縣警察局,朴子分局,120.19099,23.45666,雙向,70
嘉義縣,水上鄉,水上鄉台1線277.51K(南靖段),嘉義縣警察局,嘉縣警局交通隊,120.38366,23.40862,南北雙向,70
嘉義縣,水上鄉,水上鄉台1線275.3K龍德路口,嘉義縣警察局,水上分局,120.39391,23.426891,由北往南,50
嘉義縣,中埔鄉,番路鄉台18線30.02K日安社區路口,嘉義縣警察局,中埔分局,120.56846,23.45109,由東往西,60
嘉義縣,梅山鄉,台3線272.2K(大南國小),嘉義縣警察局,竹崎分局,120.553925,23.558527,由北向南,60
嘉義縣,大埔鄉,曾文水庫道路9.8k,保七總隊,保七二大隊,120.53687,23.24949,西向,40
屏東縣,屏東市,環河路段南北雙向,屏東縣政府警察局,屏東分局,120.447914,22.673306,南北雙向,60
屏東縣,屏東市,189線10.1K大溪路口南下,屏東縣政府警察局,屏東分局,120.45391,22.639193,北向南,70
屏東縣,屏東市,高屏大橋屏東端南北雙向,屏東縣政府警察局,屏東分局,120.45488,22.652136,南北雙向,70
屏東縣,屏東市,台1線建國路與和生路口,屏東縣政府警察局,屏東分局,120.4657,22.655245,南向,70
屏東縣,屏東市,台27線62.1K公館外環道南北雙向,屏東縣政府警察局,屏東分局,120.482124,22.619041,南北雙向,60
屏東縣,屏東市,台27線59.73K復興南路與公成路南北雙向,屏東縣政府警察局,屏東分局,120.48557,22.640203,南北雙向,70
屏東縣,屏東市,屏東市逢甲路與復興路口,屏東縣政府警察局,屏東分局,120.48883,22.67112,北向,50
屏東縣,屏東市,屏東市復興北路與逢甲路口,屏東縣政府警察局,屏東分局,120.48896,22.671589,南向,50
屏東縣,屏東市,屏東市中正路與勝利路口,屏東縣政府警察局,屏東分局,120.49087,22.678587,北向,50
屏東縣,屏東市,屏東市中正路與勝利路口,屏東縣政府警察局,屏東分局,120.49098,22.679312,南向,50
屏東縣,屏東市,台3線429.8K忠孝路段南北雙向,屏東縣政府警察局,,120.49361,22.695242,南北雙向,70
屏東縣,屏東市,屏東市和生路一段與工業六路口南下,屏東縣政府警察局,屏東分局,120.497734,22.654818,北向南,60
屏東縣,屏東市,台3線428.8K海豐果菜市場附近南北雙向,屏東縣政府警察局,屏東分局,120.49994,22.70484,南北雙向,70
屏東縣,屏東市,屏東市民生東路與安心四橫巷口,屏東縣政府警察局,屏東分局,120.51235,22.65938,南向北,50
屏東縣,屏東市,屏東市屏17線10K,屏東縣政府警察局,屏縣警局交通隊,120.51959,22.702332,南北雙向,60
屏東縣,潮州鎮,台一線417.5K潮州段南北雙向,屏東縣政府警察局,潮州分局,120.54044,22.53663,南北雙向,70
屏東縣,潮州鎮,屏85線與屏83線路口南下,屏東縣政府警察局,潮州分局,120.54082,22.56965,北向南,60
屏東縣,潮州鎮,台一線415K南北雙向,屏東縣政府警察局,潮州分局,120.55583,22.55167,南北雙向,70
屏東縣,潮州鎮,潮州鎮185甲線15.62K處,屏東縣政府警察局,,120.58669,22.542807,雙向,60
屏東縣,東港鎮,大鵬灣環灣道路3K南北雙向處,屏東縣政府警察局,東港分局,120.4703,22.440039,南北雙向處,40
屏東縣,東港鎮,中正路三段與新厝路,屏東縣政府警察局,東港分局,120.478874,22.491724,東向西,60
屏東縣,東港鎮,台17線258.5K東港大鵬灣段南北雙向,屏東縣政府警察局,東港分局,120.481926,22.456896,南北雙向,70
屏東縣,東港鎮,大鵬灣環灣道路12K處南北雙向,屏東縣政府警察局,東港分局,120.49351,22.441694,南北雙向,40
屏東縣,恆春鎮,台26線20K省北路二段南北雙向,屏東縣政府警察局,恆春分局,120.7301,22.045582,南北雙向,70
屏東縣,恆春鎮,台26線22.9K南北雙向,屏東縣政府警察局,恆春分局,120.74307,22.024391,北向南,60
屏東縣,恆春鎮,台26線28.8公里處南北雙向,屏東縣政府警察局,恆春分局,120.75299,21.97737,南北雙向,70
屏東縣,恆春鎮,台26線28K核三廠前北上,屏東縣政府警察局,恆春分局,120.7586,21.96524,南向北,70
屏東縣,恆春鎮,台26線31.11K南灣段,屏東縣政府警察局,恆春分局,120.76714,21.958733,南北雙向,60
屏東縣,萬丹鄉,萬丹鄉188線16.65K萬順路一段東西雙向,屏東縣政府警察局,屏東分局,120.483116,22.568169,東西雙向,50
屏東縣,萬丹鄉,萬丹鄉西環路與和平西路口,屏東縣政府警察局,屏東分局,120.48716,22.589525,北向南,50
屏東縣,萬丹鄉,台27線65.6K丹榮路段南北雙向,屏東縣政府警察局,屏東分局,120.49234,22.589718,南北雙向,70
屏東縣,萬丹鄉,萬丹鄉187甲線14.67K大學路段南北雙向,屏東縣政府警察局,屏東分局,120.49876,22.591784,南北雙向,50
屏東縣,長治鄉,屏21線神農西路段南北雙向,屏東縣政府警察局,屏東分局,120.53357,22.712818,南北雙向,50
屏東縣,長治鄉,屏21線農科路與神農西路口,屏東縣政府警察局,屏東分局,120.53376,22.713966,北向南,60
屏東縣,長治鄉,屏26線神農德華路口東西雙向,屏東縣政府警察局,屏東分局,120.53903,22.716288,東西雙向,50
屏東縣,長治鄉,台24線7.98K長治鄉中興路段東西雙向,屏東縣政府警察局,屏東分局,120.54267,22.693243,東西雙向,60
屏東縣,麟洛鄉,麟洛鄉中山路與民權路口,屏東縣政府警察局,,120.5258,22.651611,南下,50
屏東縣,九如鄉,台3線427.4K九如機場西側外環道南下,屏東縣政府警察局,里港分局,120.48813,22.710312,北向南,50
屏東縣,九如鄉,台3線426.3K九如玉水路段南北雙向,屏東縣政府警察局,里港分局,120.48843,22.717932,南北雙向,70
屏東縣,九如鄉,台三線423.66K九如林森路口南下,屏東縣政府警察局,里港分局,120.48953,22.736687,北向南,50
屏東縣,里港鄉,台3線里港鄉420.5K處南北雙向,屏東縣政府警察局,里港分局,120.49375,22.769915,南北雙向,50
屏東縣,里港鄉,里港鄉台3線418.9K鐵店路口南下,屏東縣政府警察局,里港分局,120.498055,22.778225,北向南,50
屏東縣,里港鄉,里港鄉台3線415.7K北向,屏東縣政府警察局,里港分局,120.50132,22.803162,南往北,50
屏東縣,里港鄉,里港鄉台3線415.7K南向,屏東縣政府警察局,里港分局,120.50132,22.803162,北往南,60
屏東縣,里港鄉,台3線414.7K土庫段南北雙向,屏東縣政府警察局,里港分局,120.506744,22.816883,南北雙向,50
屏東縣,鹽埔鄉,台27線45K鹽埔彭厝路段南北雙向,屏東縣政府警察局,里港分局,120.55449,22.74935,南北雙向,60
屏東縣,鹽埔鄉,台24線14.87K東西雙向,屏東縣政府警察局,屏東分局,120.59917,22.718996,東西雙向,70
屏東縣,高樹鄉,高樹鄉185線0.95K處,屏東縣政府警察局,里港分局,120.64389,22.871248,南北雙向,50
屏東縣,萬巒鄉,萬巒鄉185線39.43K處,屏東縣政府警察局,,120.620445,22.59836,雙向,60
屏東縣,內埔鄉,台一線405.4K內埔豐田段南北雙向,屏東縣政府警察局,內埔分局,120.55209,22.626106,南北雙向,70
屏東縣,內埔鄉,台1線408.7公里學人路段,屏東縣政府警察局,內埔分局,120.5597,22.599407,北向南,50
屏東縣,內埔鄉,台1線408.7公里學人路段,屏東縣政府警察局,內埔分局,120.5597,22.599407,南向北,50
屏東縣,內埔鄉,內埔屏光路與復興路口,屏東縣政府警察局,內埔分局,120.55973,22.608566,北向南,70
屏東縣,內埔鄉,屏東縣187丙線17.4K科大路南北雙向,屏東縣政府警察局,內埔分局,120.578575,22.644043,南北雙向,60
屏東縣,竹田鄉,189線20.1K大湖橋北上,屏東縣政府警察局,潮州分局,120.510124,22.579426,南向北,70
屏東縣,竹田鄉,台88線20.6K快速道路南下,屏東縣政府警察局,潮州分局,120.522575,22.570126,北向南,90
屏東縣,竹田鄉,台88線20.6K快速道路北上,屏東縣政府警察局,潮州分局,120.52277,22.570349,南向北,90
屏東縣,竹田鄉,台一線410.97K水源路段南北雙向,屏東縣政府警察局,潮州分局,120.54868,22.582087,南北雙向,70
屏東縣,新埤鄉,新埤鄉189線31.85K北向,屏東縣政府警察局,潮州分局,120.54937,22.48785,北向,50
屏東縣,新埤鄉,新埤鄉189線31.85K南向,屏東縣政府警察局,潮州分局,120.54937,22.48785,南向,60
屏東縣,新埤鄉,新埤鄉185線50.56K處,屏東縣政府警察局,,120.600334,22.512333,雙向,50
屏東縣,新埤鄉,新埤鄉185線56.9K處,屏東縣政府警察局,屏縣警局交通隊,120.60919,22.46825,雙向,60
屏東縣,枋寮鄉,台一線435.6k南北雙向,屏東縣政府警察局,枋寮分局,120.59174,22.394459,北向南,70
屏東縣,枋寮鄉,枋寮鄉185線62.62K處,屏東縣政府警察局,,120.60589,22.42014,雙向,60
屏東縣,新園鄉,台17線253.5K與學仁路口北上,屏東縣政府警察局,東港分局,120.4554,22.487032,南向北,70
屏東縣,新園鄉,台17線東港大橋端,屏東縣政府警察局,東港分局,120.45672,22.480722,南向北,50
屏東縣,新園鄉,台27線74.3K興安段北向,屏東縣政府警察局,東港分局,120.46287,22.524467,南向北,60
屏東縣,新園鄉,台27線74.3K興安段南向,屏東縣政府警察局,東港分局,120.46287,22.524467,北向南,70
屏東縣,新園鄉,台27線71.1K仙公廟南北雙向,屏東縣政府警察局,東港分局,120.46594,22.551575,南北雙向,60
屏東縣,崁頂鄉,崁頂鄉187線32K南北雙向,屏東縣政府警察局,東港分局,120.49575,22.501558,南北雙向,50
屏東縣,崁頂鄉,屏75線3.8K與崁頂南二高平面道路路口南下,屏東縣政府警察局,東港分局,120.51875,22.541096,北向南,50
屏東縣,崁頂鄉,屏75線3.9K與崁頂南二高平面道路路口北上,屏東縣政府警察局,東港分局,120.51883,22.54065,南向北,50
屏東縣,南州鄉,187乙線南州鄉勝利路段,屏東縣政府警察局,東港分局,120.52966,22.48964,西向東,50
屏東縣,佳冬鄉,台一線428.9k南北雙向,屏東縣政府警察局,枋寮分局,120.55739,22.44863,南向北,70
屏東縣,佳冬鄉,佳和路與佳農路口,屏東縣政府警察局,枋寮分局,120.56386,22.409676,南向北,60
屏東縣,佳冬鄉,台一線431.07K戰備道南北雙向,屏東縣政府警察局,枋寮分局,120.57348,22.431042,南北雙向,70
屏東縣,車城鄉,台26線16.5K車城分駐所前南下,屏東縣政府警察局,恆春分局,120.71401,22.072859,北向南,50
屏東縣,枋山鄉,台一線444.29K,屏東縣政府警察局,屏縣警局交通隊,120.62501,22.326096,南北雙向,70
屏東縣,枋山鄉,台一線460.2K楓港段南北雙向,屏東縣政府警察局,枋寮分局,120.688126,22.203466,南北雙向,70
屏東縣,枋山鄉,台26線3.7k南北雙向,屏東縣政府警察局,枋寮分局,120.69289,22.181366,北向南,70
屏東縣,枋山鄉,台26線7.87K,屏東縣政府警察局,屏縣警局交通隊,120.70069,22.14475,北向,50
屏東縣,枋山鄉,台26線7.87K,屏東縣政府警察局,屏縣警局交通隊,120.70069,22.14475,南向,50
屏東縣,瑪家鄉,185線32.13K佳義路段南北雙向,屏東縣政府警察局,內埔分局,120.631424,22.662312,南北雙向,50
屏東縣,獅子鄉,台一線447.89K內獅段南北雙向,屏東縣政府警察局,枋寮分局,120.64377,22.300001,南北雙向,70
屏東縣,獅子鄉,台9線468.1K丹路段,屏東縣政府警察局,枋寮分局,120.74949,22.204988,東向西,40
屏東縣,獅子鄉,台9線草埔國小前,屏東縣政府警察局,屏縣警局交通隊,120.80282,22.23517,南北雙向,40
屏東縣,獅子鄉,獅子鄉台9線460.1K草埔橋口,屏東縣政府警察局,,120.803444,22.237247,北向,40
屏東縣,獅子鄉,獅子鄉台9線436.53K草埔隧道南向,屏東縣政府警察局,,120.81045,22.244919,南向,70
屏東縣,獅子鄉,獅子鄉台9線436.58K草埔隧道北向,屏東縣政府警察局,,120.81402,22.24568,北向,70
臺東縣,臺東市,臺9線373.73K(建和國小前),臺東縣警察局,臺東分局,121.0496,22.716475,南北雙向,60
臺東縣,臺東市,臺9線370.41K(蘇巴陽段),臺東縣警察局,臺東分局,121.05706,22.743982,南北雙向,70
臺東縣,臺東市,臺11線174.3K(聖母農莊前),臺東縣警察局,臺東分局,121.07218,22.710924,北向南,50
臺東縣,臺東市,臺9線365.23K(體育中學前),臺東縣警察局,臺東分局,121.07541,22.77143,南北雙向,60
臺東縣,臺東市,臺9線353.21K(綠色隧道北端),臺東縣警察局,臺東分局,121.09504,22.800642,南北雙向,60
臺東縣,臺東市,臺9線362.65K(中興陸橋南端),臺東縣警察局,臺東分局,121.10084,22.77357,南北雙向,60
臺東縣,臺東市,臺11線170.1K(豐源大橋),臺東縣警察局,臺東分局,121.102104,22.726719,南北雙向,70
臺東縣,臺東市,臺9線354.63K(十股段),臺東縣警察局,臺東分局,121.105995,22.79259,南北雙向,60
臺東縣,臺東市,東49-1線與臺東市更生北路633巷路口(南王橋),臺東縣警察局,臺東分局,121.10995,22.780073,南北雙向,50
臺東縣,臺東市,臺11線168.7Ｋ(台糖加油站北方),臺東縣警察局,臺東分局,121.12043,22.728712,南北雙向,70
臺東縣,臺東市,馬亨亨大道(貓山段),臺東縣警察局,臺東分局,121.13283,22.78048,東向西,60
臺東縣,成功鎮,臺11線127.65K(小馬段),臺東縣警察局,成功分局,121.31564,22.99692,南北雙向,60
臺東縣,成功鎮,臺11線123.75K(都歷段),臺東縣警察局,成功分局,121.33215,23.027685,南北雙向,50
臺東縣,成功鎮,臺11線114K(大同路與漢口街口),臺東縣警察局,成功分局,121.3768,23.103252,雙向測速兼北上闖紅燈,50
臺東縣,成功鎮,臺11線112.4K(芝田段),臺東縣警察局,成功分局,121.383514,23.108957,南北雙向,50
臺東縣,成功鎮,臺11線106.9K(美山段),臺東縣警察局,成功分局,121.39859,23.153486,南北雙向,50
臺東縣,關山鎮,臺9線324.5K（瑞豐所前）,臺東縣警察局,關山分局,121.14093,22.987513,南北雙向,60
臺東縣,關山鎮,臺9線315.82K（米國學校）,臺東縣警察局,關山分局,121.16925,23.061531,南北雙向,60
臺東縣,卑南鄉,臺9乙線7.4k(利嘉段),臺東縣警察局,臺東分局,121.063995,22.775743,南北雙向,40
臺東縣,卑南鄉,臺9線350.73k(美濃段),臺東縣警察局,臺東分局,121.090614,22.82124,南北雙向,60
臺東縣,卑南鄉,臺9線352.33K(賓朗段),臺東縣警察局,臺東分局,121.09232,22.807804,南北雙向,60
臺東縣,鹿野鄉,臺9線340.89K（鹿鳴橋北端）,臺東縣警察局,關山分局,121.09514,22.893963,南北雙向,60
臺東縣,鹿野鄉,臺9線340.37K（四維段）,臺東縣警察局,關山分局,121.0965,22.898182,南北雙向,60
臺東縣,鹿野鄉,臺9線333.85K(鹿野),臺東縣警察局,關山分局,121.13658,22.914585,南北雙向,50
臺東縣,鹿野鄉,臺9線330.89K（永隆段）,臺東縣警察局,關山分局,121.14304,22.938217,南北雙向,60
臺東縣,鹿野鄉,臺11線153.4k(富山段),臺東縣警察局,臺東分局,121.1889,22.821447,南北雙向,50
臺東縣,池上鄉,臺9線309.21K(新興段),臺東縣警察局,關山分局,121.202835,23.107685,南北雙向,60
臺東縣,池上鄉,臺9線307.55K(池上),臺東縣警察局,關山分局,121.21221,23.12015,南北雙向,50
臺東縣,東河鄉,臺11線141.7K(興隆國小前),臺東縣警察局,成功分局,121.2478,22.895144,南北雙向,50
臺東縣,東河鄉,臺11線137.48K(隆昌段),臺東縣警察局,成功分局,121.267784,22.925764,南北雙向,50
臺東縣,東河鄉,臺11線132.1K(東河段),臺東縣警察局,成功分局,121.29628,22.962713,南北雙向,50
臺東縣,長濱鄉,臺30線27.7K(玉長公路),臺東縣警察局,成功分局,121.374016,23.26661,東西雙向,50
臺東縣,長濱鄉,臺11線97.9K(膽曼段),臺東縣警察局,成功分局,121.41338,23.223274,南北雙向,50
臺東縣,長濱鄉,臺11線94.42K（八桑安）,臺東縣警察局,成功分局,121.41799,23.25344,雙向,50
臺東縣,長濱鄉,臺11線90.95K(竹湖段),臺東縣警察局,成功分局,121.42773,23.28243,南北雙向,70
臺東縣,長濱鄉,臺11線84.13K（長光段）,臺東縣警察局,成功分局,121.46233,23.329168,南北雙向,50
臺東縣,長濱鄉,臺11線78.3K(大俱來),臺東縣警察局,成功分局,121.47184,23.379984,南北雙向,50
臺東縣,太麻里鄉,臺9線405.74K(大溪段),臺東縣警察局,大武分局,120.945015,22.462353,南北雙向,50
臺東縣,太麻里鄉,臺9線398.65K(金崙大橋南端),臺東縣警察局,大武分局,120.965706,22.522211,南北雙向兼南下闖紅燈,60
臺東縣,太麻里鄉,臺9線391.88K(新香蘭段),臺東縣警察局,大武分局,120.99005,22.575094,南北雙向,60
臺東縣,太麻里鄉,臺9線390.32K(香蘭國小),臺東縣警察局,大武分局,120.99458,22.58744,南北雙向兼南下闖紅燈,60
臺東縣,太麻里鄉,臺9線388.24K (太麻里街口),臺東縣警察局,大武分局,121.00136,22.60339,南北雙向,60
臺東縣,太麻里鄉,臺9線385.38K(北里段),臺東縣警察局,大武分局,121.012535,22.626123,南北雙向,70
臺東縣,太麻里鄉,臺9線383.7K(代天宮),臺東縣警察局,大武分局,121.0167,22.640696,南北雙向,60
臺東縣,太麻里鄉,臺9線380.97K(華源段),臺東縣警察局,大武分局,121.028694,22.662472,南北雙向,60
臺東縣,太麻里鄉,臺9線379.43K(三和國小),臺東縣警察局,大武分局,121.03803,22.67261,南北雙向,60
臺東縣,太麻里鄉,臺9線378K(美和所前),臺東縣警察局,大武分局,121.043526,22.684458,南北雙向,70
臺東縣,大武鄉,臺9線423.02K(南興地磅站前),臺東縣警察局,大武分局,120.89187,22.323227,南北雙向,70
臺東縣,大武鄉,臺9線415.75K(大鳥村口),臺東縣警察局,大武分局,120.91234,22.382149,南北雙向,60
臺東縣,達仁鄉,臺9線433.72K（草埔森永隧道南下）,臺東縣警察局,大武分局,120.832146,22.25845,南下兼科技執法偵測,70
臺東縣,達仁鄉,臺9線433.72K(草埔森永隧道北上),臺東縣警察局,大武分局,120.833466,22.2591,北上兼科技執法偵測,70
臺東縣,達仁鄉,臺9戊線9.92K(壽卡休憩亭)至3.94K森永區間測速,臺東縣警察局,大武分局,120.84108,22.254738,雙向暨科技執法偵測,40
臺東縣,達仁鄉,臺9戊線3.94K(森永所)至9.92K壽卡休息亭區間測速,臺東縣警察局,大武分局,120.86456,22.277948,雙向暨科技執法偵測,40
臺東縣,達仁鄉,臺9線427.43K(達仁消防隊旁),臺東縣警察局,大武分局,120.87637,22.293703,雙向暨科技執法偵測,70
臺東縣,達仁鄉,臺9線426.29K(達仁圖書館),臺東縣警察局,大武分局,120.88693,22.2947,南北雙向,60
花蓮縣,花蓮市,中央路與豐村路口,花蓮縣警察局,花蓮分局,121.599724,24.002083,北上車道,50
花蓮縣,花蓮市,尚志路18-1號前,花蓮縣警察局,花蓮分局,121.61,23.989222,南下車道,50
花蓮縣,花蓮市,府前路與北興路口,花蓮縣警察局,花蓮分局,121.6183,24.006317,南下,60
花蓮縣,鳳林鎮,公正街與信義路口,花蓮縣警察局,鳳林分局,121.452415,23.74475,北上車道,70
花蓮縣,玉里鎮,興國路與自由街口,花蓮縣警察局,玉里分局,121.32008,23.3355,南下車道,60
花蓮縣,玉里鎮,台30線27.2K,花蓮縣警察局,玉里分局,121.369484,23.26736,東往西向,50
花蓮縣,新城鄉,台9線179.02K,花蓮縣警察局,新城分局,121.608475,24.072582,北上車道,70
花蓮縣,吉安鄉,台9丙線7.33K,花蓮縣警察局,吉安分局,121.55067,23.954082,南下車道,50
花蓮縣,吉安鄉,中央路與稻香路口,花蓮縣警察局,吉安分局,121.56716,23.964924,南下車道,60
花蓮縣,吉安鄉,吉豐路與吉興路口,花蓮縣警察局,吉安分局,121.569275,23.95881,北上,60
花蓮縣,吉安鄉,吉豐路與吉興路口,花蓮縣警察局,吉安分局,121.569275,23.95881,南下,60
花蓮縣,吉安鄉,知卡宣大道與永華二街口,花蓮縣警察局,吉安分局,121.58009,23.940998,西往東,60
花蓮縣,吉安鄉,中央路與建國路口,花蓮縣警察局,吉安分局,121.5879,23.987082,南下車道,50
花蓮縣,壽豐鄉,台9線211.57K,花蓮縣警察局,吉安分局,121.49324,23.845201,北上,50
花蓮縣,壽豐鄉,台11丙線14.2K,花蓮縣警察局,吉安分局,121.50567,23.829111,北上車道,70
花蓮縣,壽豐鄉,志學村中山路與中正路口,花蓮縣警察局,吉安分局,121.53001,23.907051,北上車道,50
花蓮縣,壽豐鄉,台11丙線4.4K,花蓮縣警察局,吉安分局,121.56071,23.898764,南下車道,70
花蓮縣,壽豐鄉,台11線23.4公里,花蓮縣警察局,吉安分局,121.56104,23.780403,南下,50
花蓮縣,光復鄉,台9線233.92K,花蓮縣警察局,鳳林分局,121.4195,23.678417,南下車道,60
花蓮縣,豐濱鄉,台11線43.95K,花蓮縣警察局,鳳林分局,121.534386,23.647057,北上車道,60
花蓮縣,瑞穗鄉,台9線255.45K,花蓮縣警察局,鳳林分局,121.368385,23.498083,南下車道,70
花蓮縣,瑞穗鄉,台9線262.5K,花蓮縣警察局,鳳林分局,121.38253,23.56691,南下車道,60
花蓮縣,瑞穗鄉,縣道193線89.12K,花蓮縣警察局,鳳林分局,121.3959,23.49179,西往東,50
花蓮縣,瑞穗鄉,縣道193線89.15K,花蓮縣警察局,鳳林分局,121.396095,23.491833,東往西,50
花蓮縣,富里鄉,台9線299.82K,花蓮縣警察局,玉里分局,121.24275,23.173555,北上車道,60
花蓮縣,秀林鄉,台9線190.37K,花蓮縣警察局,新城分局,121.61717,23.982086,北上,50
花蓮縣,秀林鄉,台9線166.5K,花蓮縣警察局,新城分局,121.63917,24.117222,南下車道,60
花蓮縣,秀林鄉,台9線167.5K,花蓮縣警察局,新城分局,121.65052,24.1578,北上車道,60
花蓮縣,秀林鄉,台9線156.9k(仁水隧道),花蓮縣警察局,新城分局,121.69864,24.227335,北上,50
花蓮縣,秀林鄉,台9線156.1K(仁水隧道),花蓮縣警察局,新城分局,121.7037,24.23202,南下,50
花蓮縣,秀林鄉,台9線151.6k(中仁隧道),花蓮縣警察局,新城分局,121.724266,24.267445,南下,70
花蓮縣,秀林鄉,台9線151.7k(中仁隧道),花蓮縣警察局,新城分局,121.7247,24.266958,北上,70
花蓮縣,秀林鄉,台9線146.272K,花蓮縣警察局,新城分局,121.750694,24.30211,北上車道,50
澎湖縣,馬公市,縣道203線中華路與林森路口（闖紅燈）,澎湖縣政府警察局,馬公分局,119.57703,23.572325,東向西,50
澎湖縣,馬公市,縣道201線井垵段5.6K,澎湖縣政府警察局,馬公分局,119.57787,23.519863,東向西,50
澎湖縣,馬公市,縣道205線前寮段5.8K,澎湖縣政府警察局,馬公分局,119.58419,23.553822,西向東,50
澎湖縣,馬公市,馬公市新店路與文山路口（闖紅燈）,澎湖縣政府警察局,馬公分局,119.58558,23.563847,東向西,50
澎湖縣,馬公市,縣道203線西文里97-2號,澎湖縣政府警察局,馬公分局,119.58885,23.56912,東向西,50
澎湖縣,馬公市,縣道204線西文里121號,澎湖縣政府警察局,馬公分局,119.58949,23.563833,東向西,50
澎湖縣,馬公市,縣道204線中正國中前路口（闖紅燈）,澎湖縣政府警察局,馬公分局,119.59828,23.55948,東向西,50
澎湖縣,馬公市,縣道204線光華段2.6K,澎湖縣政府警察局,馬公分局,119.603134,23.557316,西向東,50
澎湖縣,馬公市,縣道201線鐵線段1.95K,澎湖縣政府警察局,馬公分局,119.60335,23.536844,南向北,70
澎湖縣,馬公市,縣道203線安宅段5.3K,澎湖縣政府警察局,馬公分局,119.60373,23.578081,北向南,50
澎湖縣,馬公市,縣道201線興仁岔路口,澎湖縣政府警察局,馬公分局,119.6105,23.552406,北向南,50
澎湖縣,馬公市,縣道202線成功段1.6K,澎湖縣政府警察局,馬公分局,119.61402,23.571623,北向南,70
澎湖縣,馬公市,縣道204線興仁段4K,澎湖縣政府警察局,馬公分局,119.61489,23.549904,東向西,50
澎湖縣,馬公市,縣道204線烏崁段4.6K,澎湖縣政府警察局,馬公分局,119.62043,23.548962,南向北,50
澎湖縣,湖西鄉,縣道203線中西段7.6k,澎湖縣政府警察局,馬公分局,119.613266,23.597082,南向北,70
澎湖縣,湖西鄉,縣道203線許家段6.1K,澎湖縣政府警察局,馬公分局,119.63154,23.560314,南向北,50
澎湖縣,湖西鄉,馬公機場出入口（闖紅燈）,澎湖縣政府警察局,馬公分局,119.63206,23.558592,南向北,50
澎湖縣,湖西鄉,縣道202線西溪段5K,澎湖縣政府警察局,馬公分局,119.63691,23.581766,西向東,50
澎湖縣,湖西鄉,縣道204線林投段7.8K,澎湖縣政府警察局,馬公分局,119.64445,23.563566,西向東,50
澎湖縣,湖西鄉,縣道202線湖西段7.1k,澎湖縣政府警察局,馬公分局,119.656944,23.584229,西向東,50
澎湖縣,湖西鄉,縣道202號菓葉段9.9K,澎湖縣政府警察局,馬公分局,119.65956,23.584875,南向北,50
澎湖縣,湖西鄉,澎14號南寮村121號旁,澎湖縣政府警察局,馬公分局,119.667145,23.58425,南向北,40
澎湖縣,白沙鄉,縣道203線通梁段19.9K,澎湖縣政府警察局,白沙分局,119.5603,23.660503,西向東,70
澎湖縣,白沙鄉,縣道203線後寮段17.8K,澎湖縣政府警察局,白沙分局,119.57477,23.66744,北向南,70
澎湖縣,白沙鄉,澎8號道瓦硐段,澎湖縣政府警察局,白沙分局,119.58657,23.654982,東向西,50
澎湖縣,白沙鄉,縣道203線講美段12.3K,澎湖縣政府警察局,白沙分局,119.59717,23.634432,北向南,50
澎湖縣,白沙鄉,縣道203線講美社區路口（闖紅燈）,澎湖縣政府警察局,白沙分局,119.59902,23.632357,東向西,50
澎湖縣,白沙鄉,縣道203線港子段14K,澎湖縣政府警察局,白沙分局,119.599335,23.649065,北向南,50
澎湖縣,白沙鄉,縣道203線講美段11.72K,澎湖縣政府警察局,白沙分局,119.60078,23.63084,東向西,50
澎湖縣,白沙鄉,白沙鄉赤崁村聯外橋樑北端出口岔路,澎湖縣政府警察局,白沙分局,119.60277,23.66645,南向北,40
澎湖縣,白沙鄉,縣道203線中屯段9.5K,澎湖縣政府警察局,白沙分局,119.61315,23.601107,北向南,50
澎湖縣,西嶼鄉,縣道203線池東段30.4K,澎湖縣政府警察局,白沙分局,119.50949,23.599384,北向南,50
澎湖縣,西嶼鄉,縣道203線二崁與大池岔路口,澎湖縣政府警察局,白沙分局,119.51426,23.61425,南向北,70
澎湖縣,西嶼鄉,縣道203線合界段24.8K,澎湖縣政府警察局,白沙分局,119.52867,23.63674,西向東,70
基隆市,,台62甲線3號隧道內南下3.69k處,基隆市警察局,第二分局,121.77956,25.12413,北向南,60
基隆市,,台62甲線3號隧道內北上3.7k處,基隆市警察局,第二分局,121.77979,25.124203,南向北,60
基隆市,中正區,中正路信五路口,基隆市警察局,第二分局,121.74588,25.134869,南向北,50
基隆市,中正區,信一路義三路口,基隆市警察局,第二分局,121.74642,25.129612,東向西,50
基隆市,中正區,中正路中船路口(南口),基隆市警察局,第二分局,121.74951,25.137762,北向南,50
基隆市,中正區,台62甲線、東海街口,基隆市警察局,第二分局,121.753204,25.139427,南向北,40
基隆市,中正區,台62甲1號隧道出口(0.7K處),基隆市警察局,第二分局,121.75845,25.139378,南向北,40
基隆市,中正區,北寧路(海洋大學前),基隆市警察局,第二分局,121.777985,25.151018,南向北,50
基隆市,中正區,調和街154之3號旁,基隆市警察局,第二分局,121.79846,25.13211,北向南,50
基隆市,中正區,調和街242號對面處,基隆市警察局,第二分局,121.799614,25.129747,南向北,50
基隆市,七堵區,明德三路(長春貨櫃),基隆市警察局,第三分局,121.68742,25.075933,南向北,50
基隆市,七堵區,大埔交流道、大同街口,基隆市警察局,第三分局,121.69048,25.112968,西向東,40
基隆市,七堵區,新台五線五堵橋頭(台5線19K+107),基隆市警察局,第三分局,121.6918,25.076023,南向北,60
基隆市,七堵區,萬瑞快速道路(台62線)3.4K(西行),基隆市警察局,第三分局,121.6935,25.115122,東向西,80
基隆市,七堵區,萬瑞快速道路(台62線)3K+290(東行),基隆市警察局,第三分局,121.69441,25.116095,西向東,80
基隆市,七堵區,實踐路294巷口,基隆市警察局,第三分局,121.69552,25.087847,北向南,50
基隆市,七堵區,大華二路46號對面處,基隆市警察局,第三分局,121.69604,25.101782,東西雙向,50
基隆市,七堵區,新台五路、福三街口(南向北),基隆市警察局,第三分局,121.69804,25.08034,南向北,50
基隆市,七堵區,新台五路、福三街口(北向南),基隆市警察局,第三分局,121.69829,25.080408,北向南,50
基隆市,七堵區,工建西路、工建路口,基隆市警察局,第三分局,121.69939,25.092577,北向南,50
基隆市,七堵區,明德二路(台五線20K+422)南向,基隆市警察局,第三分局,121.703125,25.081993,北向南,50
基隆市,七堵區,明德二路(台5線20.5K處)北向,基隆市警察局,第三分局,121.70324,25.081923,南向北,50
基隆市,七堵區,明德二路2之1號前,基隆市警察局,第三分局,121.707184,25.090446,南向北,50
基隆市,七堵區,光明路106號前,基隆市警察局,第三分局,121.71404,25.095709,北向南,50
基隆市,七堵區,八堵路185巷口(北上),基隆市警察局,第三分局,121.726135,25.103292,南向北,50
基隆市,七堵區,八堵路185巷口(南下),基隆市警察局,第三分局,121.726135,25.103992,北向南,50
基隆市,七堵區,八堵路國安路口,基隆市警察局,第三分局,121.73506,25.110722,南向北,50
基隆市,七堵區,萬瑞快速道路(台62線)11K+280(西行),基隆市警察局,第三分局,121.75308,25.10187,東向西,80
基隆市,七堵區,萬瑞快速道路(台62線)11K+470(東行),基隆市警察局,第三分局,121.754326,25.102283,西向東,80
基隆市,暖暖區,源遠路、水源路口,基隆市警察局,第三分局,121.73433,25.104801,西向東,50
基隆市,暖暖區,過港路、寧靜街口,基隆市警察局,第三分局,121.737564,25.1053,東向西,50
基隆市,暖暖區,源遠路、暖暖街口,基隆市警察局,第三分局,121.73952,25.102694,西向東,50
基隆市,暖暖區,東勢街、暖濃橋口,基隆市警察局,第三分局,121.74865,25.083538,南向北,40
基隆市,暖暖區,源遠路249巷口,基隆市警察局,第三分局,121.75474,25.098783,東向西,50
基隆市,暖暖區,東勢街與東安一號橋口,基隆市警察局,第三分局,121.75572,25.076906,南向北,40
基隆市,暖暖區,基平隧道北端出口處往基隆,基隆市警察局,第三分局,121.75822,25.074478,南向北,40
基隆市,暖暖區,基平隧道5K+120往基隆,基隆市警察局,第三分局,121.762505,25.06859,南向北,50
基隆市,仁愛區,29號橋,基隆市警察局,第一分局,121.73601,25.123318,南向北,50
基隆市,仁愛區,南榮路509巷口,基隆市警察局,第一分局,121.74012,25.113022,南向北,50
基隆市,仁愛區,南榮路64巷口,基隆市警察局,第一分局,121.74293,25.123219,北向南,50
基隆市,仁愛區,南榮路393巷口,基隆市警察局,第一分局,121.74368,25.11819,北向南,50
基隆市,中山區,文化路116號前,基隆市警察局,第四分局,121.7342,25.153727,西向東,50
基隆市,中山區,西岸高架橋南下0K+460處,基隆市警察局,第四分局,121.737,25.13015,北向南,50
基隆市,中山區,中華路97巷口,基隆市警察局,第四分局,121.738014,25.147667,西向東,50
基隆市,中山區,中山二路、健民街口(南向),基隆市警察局,第四分局,121.73884,25.141909,北向南,50
基隆市,中山區,西岸高架橋北端路口處,基隆市警察局,第四分局,121.73922,25.133802,南向北,50
基隆市,中山區,中山二路、健民街口(北向),基隆市警察局,第四分局,121.73923,25.141153,南向北,50
基隆市,中山區,中山二路65巷口,基隆市警察局,第四分局,121.74045,25.13845,南向北,50
基隆市,中山區,中山一路、港西街口,基隆市警察局,第四分局,121.740974,25.136154,北向南,50
基隆市,中山區,中山二路36巷口,基隆市警察局,第四分局,121.740974,25.138008,北向南,50
基隆市,安樂區,基金三路、武隆街口,基隆市警察局,第四分局,121.695404,25.157051,西向東,50
基隆市,安樂區,基金三路、武聖街口,基隆市警察局,第四分局,121.695755,25.156769,東向西,50
基隆市,安樂區,基金三路、武訓街口(東向),基隆市警察局,第四分局,121.699745,25.149271,西向東,50
基隆市,安樂區,基金三路、武訓街口(西向),基隆市警察局,第四分局,121.70003,25.148745,東向西,50
基隆市,安樂區,北濱公路(台2線)、武聖街144巷口,基隆市警察局,第四分局,121.70153,25.162273,西向東,50
基隆市,安樂區,萬瑞快速公路(台62線)、基金二路一巷口,基隆市警察局,第四分局,121.703316,25.141867,東向西,40
基隆市,安樂區,基金一路135巷口,基隆市警察局,第四分局,121.70965,25.14201,西向東,50
基隆市,安樂區,基金一路208巷口,基隆市警察局,第四分局,121.70991,25.141825,東向西,50
基隆市,安樂區,基金一路、5B匝道口,基隆市警察局,第四分局,121.71468,25.13953,東向西,50
基隆市,安樂區,麥金路、樂利三街口,基隆市警察局,第四分局,121.71967,25.12792,東向西,50
基隆市,安樂區,麥金路749號前,基隆市警察局,第四分局,121.72058,25.133339,西向東,50
基隆市,安樂區,麥金路222號(長庚醫院)前,基隆市警察局,第四分局,121.72226,25.120644,東向西,50
基隆市,安樂區,安樂路二段127號(中華電信)前,基隆市警察局,第四分局,121.72526,25.122475,南向北,50
基隆市,安樂區,麥金路12號前,基隆市警察局,第四分局,121.72644,25.116156,東向西,50
基隆市,安樂區,基金三路下坡路段,基隆市警察局,第四分局,121.73231,25.1274,西向東,50
基隆市,安樂區,安樂路一段、崇德街口,基隆市警察局,第四分局,121.733025,25.12841,南向北,50
基隆市,信義區,信二、義一路口,基隆市警察局,第二分局,121.74495,25.131996,北向南,50
基隆市,信義區,仁一、月眉路口,基隆市警察局,第二分局,121.75589,25.128004,西向東,50
基隆市,信義區,培德路2巷口,基隆市警察局,第二分局,121.76861,25.128143,東向西,50
基隆市,信義區,台62甲線孝東匝道口,基隆市警察局,第二分局,121.77779,25.127695,南向北,40
基隆市,信義區,台62甲線3號隧道內北上3.7K處,基隆市警察局,第二分局,121.77931,25.124163,北上,60
基隆市,信義區,台62甲線3號隧道內南下3.69K處,基隆市警察局,第二分局,121.77956,25.12413,南下,60
基隆市,信義區,深澳坑路118號前,基隆市警察局,第二分局,121.78308,25.12693,西向東,50
基隆市,信義區,深澳坑路240號旁,基隆市警察局,第二分局,121.79007,25.12427,西向東,50
新竹市,東區,東大路三段110巷口(往南寮-機場彎道),新竹市警察局,第一分局,120.95478,24.829601,東向西,50
新竹市,東區,火車站前,新竹市警察局,第二分局,120.97159,24.801601,雙向,50
新竹市,東區,東大高架民族路上方,新竹市警察局,第二分局,120.973694,24.80587,西向東,50
新竹市,東區,中央路、民權路口,新竹市警察局,第二分局,120.974434,24.808844,往北,50
新竹市,東區,高峰路168號旁,新竹市警察局,第三分局,120.97511,24.788465,往市區,40
新竹市,東區,公道五路四段127號前,新竹市警察局,第一分局,120.97564,24.825012,西向東,40
新竹市,東區,中央路、民生路口,新竹市警察局,第二分局,120.977264,24.809816,往北,50
新竹市,東區,寶山路317巷口(高峰植物園),新竹市警察局,第二分局,120.98239,24.788258,東向西,50
新竹市,東區,自由路、民族路口,新竹市警察局,第二分局,120.982635,24.810917,東向西,50
新竹市,東區,中華路二段2號,新竹市警察局,第二分局,120.98313,24.809292,南往北,50
新竹市,東區,高翠路311號前,新竹市警察局,第三分局,120.98497,24.778402,雙向,40
新竹市,東區,高翠路292巷口,新竹市警察局,第三分局,120.98529,24.788721,往高峰路,40
新竹市,東區,中華路一段2巷137號,新竹市警察局,第二分局,120.98689,24.822033,西向東,40
新竹市,東區,光復路二段、忠孝路口,新竹市警察局,第二分局,120.98983,24.800165,東向西,50
新竹市,東區,溪埔路、經國路一段156巷50弄口,新竹市警察局,第二分局,120.99061,24.817444,北向南,50
新竹市,東區,新竹科學園區園區三路近研新四路,保二總隊,保二三大隊,120.99193,24.782099,往南,50
新竹市,東區,新竹科學園區園區三路世界先進前,保二總隊,保二三大隊,120.99644,24.775665,往南,50
新竹市,東區,園區三路121號台積電旁,保二總隊,保二第三大隊,120.99819,24.774435,西向東,50
新竹市,東區,新竹科學園區園區三路台積電二五廠前,保二總隊,保二三大隊,120.998215,24.774504,往東,50
新竹市,東區,新竹科學園區新安路近展業一路口,保二總隊,保二三大隊,121.00155,24.781939,往東,50
新竹市,東區,新竹科學園區新安路近園區一路,保二總隊,保二三大隊,121.006386,24.780663,往北,50
新竹市,東區,新竹科學園區園區一路近竹村一路口,保二總隊,保二三大隊,121.006836,24.784254,往東,50
新竹市,東區,新竹科學園區園區一路近竹村一路口,保二總隊,保二三大隊,121.006836,24.784254,往西,50
新竹市,東區,新竹科學園區園區一路慈雲路橋下,保二總隊,保二三大隊,121.00824,24.78629,往東,50
新竹市,東區,新竹科學園區園區三路辰鴻加油站對面,保二總隊,保二三大隊,121.00926,24.771814,往北,50
新竹市,東區,新竹科學園區竹村七路近靜心湖出入口,保二總隊,保二三大隊,121.01094,24.77858,往南,40
新竹市,東區,慈雲路、埔頂二路口,新竹市警察局,第二分局,121.01215,24.791552,雙向,50
新竹市,東區,慈雲路、公道五路口,新竹市警察局,第二分局,121.01323,24.79537,南向北,50
新竹市,東區,新竹科學園區.園區一路近園區三路口,保二總隊,保二三大隊,121.014,24.775927,往東,50
新竹市,東區,關新路、關新一街口(往光復路),新竹市警察局,第二分局,121.01837,24.784632,北往南,30
新竹市,東區,新竹科學園區力行路近世界先進便道,保二總隊,保二三大隊,121.02655,24.770788,往北,50
新竹市,北區,延平路二段961之1號旁,新竹市警察局,第一分局,120.92646,24.811949,南北,50
新竹市,北區,西濱路、榮濱南路口,新竹市警察局,第一分局,120.927216,24.832527,南往北,60
新竹市,北區,台68線榮濱路匝道口,新竹市警察局,第一分局,120.9341,24.845257,東向西,50
新竹市,北區,西濱路、東大路四段口(北上),新竹市警察局,第一分局,120.93412,24.842299,南向北,50
新竹市,北區,西濱路、東大路四段口(南下),新竹市警察局,第一分局,120.9342,24.842539,北向南,50
新竹市,北區,舊港1-1號前(舊港大橋),新竹市警察局,第一分局,120.94274,24.844084,北向南,50
新竹市,北區,公到五路五段、東大路三段430巷口,新竹市警察局,第一分局,120.94409,24.838078,東往西(雙向),50
新竹市,北區,天府路一段、東大路三段291巷口,新竹市警察局,第一分局,120.94431,24.833956,西向東,50
新竹市,北區,經國路二段、延平路一段口,新竹市警察局,第一分局,120.95555,24.805037,北向南,50
新竹市,北區,公道五路四段、防汛道路,新竹市警察局,第一分局,120.95854,24.830074,東向西,50
新竹市,北區,武陵路61巷口,新竹市警察局,第一分局,120.96524,24.817877,北向南,50
新竹市,北區,台68線東大路匝道口,新竹市警察局,第一分局,120.96534,24.817825,北向南,40
新竹市,北區,都城隍廟周邊道路,新竹市警察局,第一分局,120.96564,24.804623,雙向,50
新竹市,北區,武陵路196巷口(武陵匝道口、荷蘭村),新竹市警察局,第一分局,120.968094,24.820688,北向南,50
新竹市,北區,公道五路三段700號,新竹市警察局,第一分局,120.98121,24.821245,往西,50
新竹市,北區,新竹市北區經國路1段176號,新竹市警察局,第二分局,120.98728,24.815268,往南,50
新竹市,香山區,台61線西濱快速公路85.2公里處,新竹市警察局,第三分局,120.88559,24.736444,南北,80
新竹市,香山區,中華路五段832號前(香山火車),新竹市警察局,第三分局,120.913246,24.76286,北向南,60
新竹市,香山區,中華路五段320巷口,新竹市警察局,第三分局,120.919235,24.78108,南向北,60
新竹市,香山區,西濱快速公路、宮口街口,新竹市警察局,第三分局,120.919395,24.793509,南向北,80
新竹市,香山區,中華路五段208巷口,新竹市警察局,第三分局,120.92019,24.784409,北向南,60
新竹市,香山區,西濱路港南國小前,新竹市警察局,第三分局,120.92257,24.81397,南向北,60
新竹市,香山區,南隘路2段76號對面（南隘國小）,新竹市警察局,第三分局,120.93,24.726501,雙向,50
新竹市,香山區,台1線79公里,新竹市警察局,第三分局,120.9357,24.790733,往南,60
新竹市,香山區,新竹市香山區五福路二段120巷口,新竹市警察局,第三分局,120.93832,24.751755,北往南,50
新竹市,香山區,新竹市香山區景觀大道、五福路二段口,新竹市警察局,第三分局,120.953094,24.75506,北往南,50
新竹市,香山區,景觀大道4.7公里,新竹市警察局,第三分局,120.9583,24.761814,往茄苳交流道,70
嘉義市,東區,文化路６９４巷口,嘉義市政府警察局,第二分局,120.44253,23.497126,北向南,50
嘉義市,東區,忠孝路(台1線263公里處),嘉義市政府警察局,第二分局,120.44435,23.51212,北向南,50
嘉義市,東區,忠孝路與義教街口,嘉義市政府警察局,第二分局,120.4515,23.498264,南向北(超速闖紅燈),50
嘉義市,東區,彌陀路１６２巷口,嘉義市政府警察局,第二分局,120.46644,23.468079,南向北,50
嘉義市,東區,林森東路612巷口斜對面,嘉義市政府警察局,第二分局,120.47364,23.491884,東向西,50
嘉義市,東區,大雅路一段470號前,嘉義市政府警察局,第二分局,120.473755,23.491804,西向東,50
嘉義市,東區,嘉義市彌陀路與學府路口,嘉義市政府警察局,第二分局,120.49665,23.46444,北向南,50
嘉義市,西區,北港路與竹仔腳路口,嘉義市政府警察局,第一分局,120.39789,23.491566,西向東,50
嘉義市,西區,高鐵大道925號前,嘉義市政府警察局,第一分局,120.40342,23.486872,東西雙向,70
嘉義市,西區,北港路1158號前,嘉義市政府警察局,第一分局,120.403595,23.490175,西向東,50
嘉義市,西區,高鐵大道與四維路口,嘉義市政府警察局,第一分局,120.42458,23.479553,西向東(超速闖紅燈),50
嘉義市,西區,博愛路與自強街口,嘉義市政府警察局,第一分局,120.425064,23.464802,南北雙向,50
嘉義市,西區,北港路與中興路口,嘉義市政府警察局,第一分局,120.43007,23.479925,東向西,50
嘉義市,西區,高鐵大道與福義街口,嘉義市政府警察局,第一分局,120.4309,23.477198,東向西(超速闖紅燈),50
嘉義市,西區,嘉義市垂楊大橋與新建街口,嘉義市政府警察局,第一分局,120.43792,23.472664,西向東(闖紅燈),50
嘉義市,西區,博愛路二段與中興路口,嘉義市政府警察局,第一分局,120.438644,23.480522,南北雙向(超速闖紅燈),50
嘉義市,西區,湖子內路與環湖一街口,嘉義市政府警察局,第一分局,120.43907,23.444014,南北雙向(超速闖紅燈),50
嘉義市,西區,新民路416巷口,嘉義市政府警察局,第一分局,120.44056,23.459938,南向北,50
嘉義市,西區,嘉義市中山路與中正路口,嘉義市政府警察局,嘉市警局交通隊,120.44178,23.478798,南北雙向(超速闖紅燈),50
嘉義市,西區,嘉義市中山路與林森西路口,嘉義市政府警察局,嘉市警局交通隊,120.442024,23.479103,南北雙向(超速闖紅燈),50
嘉義市,西區,湖子內路１００號前,嘉義市政府警察局,第一分局,120.44225,23.453062,南向北,50
嘉義市,西區,興業東路與國華街口,嘉義市政府警察局,第一分局,120.449135,23.4687,西向東(闖紅燈),50
臺北市,,自強隧道區間測速（雙向）（暫停執法）,臺北市政府警察局,,121.54943,25.090372,南北雙向,50
臺北市,,辛亥隧道區間測速（雙向）（暫停執法）,臺北市政府警察局,,121.5559,25.011496,南北雙向,50
臺北市,松山區,復興北路車行地下道南出口處,臺北市政府警察局,松山分局,121.54438,25.066849,往南,40
臺北市,松山區,民生東路四段97巷口,臺北市政府警察局,松山分局,121.552055,25.05797,西向東,50
臺北市,松山區,民權東路4段 民權公園前,臺北市政府警察局,松山分局,121.55749,25.06205,東西雙向,50
臺北市,松山區,健康路300號,臺北市政府警察局,松山分局,121.5656,25.054245,往東,50
臺北市,松山區,塔悠路近撫遠街261巷口,臺北市政府警察局,松山分局,121.568436,25.06195,往南,50
臺北市,信義區,忠孝東路四段逸仙路口附近,臺北市政府警察局,信義分局,121.55998,25.04131,東西雙向,50
臺北市,信義區,市民大道五段50號前,臺北市政府警察局,信義分局,121.56399,25.047602,往東,50
臺北市,信義區,忠孝東路5段210號,臺北市政府警察局,信義分局,121.57064,25.04102,往東,50
臺北市,大安區,和平東路一段國立師範大學前(西向東),臺北市政府警察局,大安分局,121.52677,25.026665,往東,50
臺北市,大安區,新生南路金華街(北向南),臺北市政府警察局,大安分局,121.53368,25.030283,往南,50
臺北市,大安區,新生南路三段58號台大側門,臺北市政府警察局,大安分局,121.53406,25.020033,往北,50
臺北市,大安區,建國南路2段179號往北,臺北市政府警察局,大安分局,121.53691,25.048212,往北,50
臺北市,大安區,建國高架道和平東路上方(北向南),臺北市政府警察局,大安分局,121.53762,25.026205,往南,70
臺北市,大安區,市民大道三段214號前(西向東),臺北市政府警察局,大安分局,121.53994,25.044518,往東,40
臺北市,大安區,基隆路 長興街,臺北市政府警察局,大安分局,121.54371,25.016603,往北,50
臺北市,大安區,基隆高架道下敦化南路段(南向北),臺北市政府警察局,大安分局,121.545944,25.018555,往北,60
臺北市,大安區,辛亥路三段157巷(下北二高)(東向西),臺北市政府警察局,大安分局,121.54883,25.017244,往西,50
臺北市,中山區,新生北路高架道民族東路入口(往南),臺北市政府警察局,中山分局,121.5277,25.066557,往南,70
臺北市,中山區,北安路 海軍司令部前,臺北市政府警察局,中山分局,121.53627,25.077879,往西,50
臺北市,中山區,建國高架道長春路入口(北向南),臺北市政府警察局,中山分局,121.53678,25.052633,往南,70
臺北市,中山區,明水路325號,臺北市政府警察局,中山分局,121.540924,25.077658,東西雙向,50
臺北市,中山區,復興北路(車行地下道北出口處),臺北市政府警察局,中山分局,121.54434,25.071774,往北,40
臺北市,中山區,樂群一路(基湖路口西往東天橋下(金泰公園)),臺北市政府警察局,中山分局,121.566376,25.076668,往東,50
臺北市,中正區,中華路1段53號前（南向北）,臺北市政府警察局,中正一局,121.50858,25.043074,往北,50
臺北市,中正區,重慶南路3段27巷口(往北),臺北市政府警察局,中正二局,121.515686,25.028524,南北雙向,50
臺北市,中正區,市民大道高架 京站百貨前,臺北市政府警察局,中正一局,121.51977,25.048206,往東,80
臺北市,中正區,水源快速道路同安街口（快車道）,臺北市政府警察局,中正第二分局,121.52033,25.020802,往北,60
臺北市,中正區,仁愛路臨沂街口(東向西),臺北市政府警察局,中正一局,121.53017,25.038351,往西,50
臺北市,中正區,水源快道路往南(景福匝道口),臺北市政府警察局,中正第二分局,121.53528,24.999609,往南,60
臺北市,大同區,環河北路近敦煌路(北向南),臺北市政府警察局,大同分局,121.50822,25.079073,往南,60
臺北市,大同區,承德路3段 敦煌路,臺北市政府警察局,大同分局,121.51978,25.074602,南北雙向,50
臺北市,大同區,承德路4段 通河街,臺北市政府警察局,大同分局,121.52216,25.080551,南北雙向,50
臺北市,萬華區,萬板大橋台北端引道(往台北市),臺北市政府警察局,萬華分局,121.48961,25.03056,往市區,50
臺北市,萬華區,艋舺大道297號台糖公司前(東向西),臺北市政府警察局,萬華分局,121.49679,25.033098,往西,50
臺北市,萬華區,萬大路華中橋頭(南北雙向),臺北市政府警察局,萬華分局,121.49712,25.019234,南北雙向,50
臺北市,萬華區,環河南路1段77號對面(北向南),臺北市政府警察局,萬華分局,121.50114,25.044512,往南,50
臺北市,萬華區,水源路205號前(東向西),臺北市政府警察局,萬華分局,121.50312,25.01948,往西,60
臺北市,文山區,羅斯福路5段240號(往南),臺北市政府警察局,文山二局,121.53909,25.001425,往南,50
臺北市,文山區,羅斯福路6段226號(往南),臺北市政府警察局,文山二局,121.54062,24.992655,往南,50
臺北市,文山區,辛亥路6段 懷恩隧道出口,臺北市政府警察局,文山一局,121.551506,24.99144,往南,50
臺北市,文山區,辛亥路4段辛亥隧道出口(往南),臺北市政府警察局,文山二局,121.557304,25.009743,往南,50
臺北市,文山區,信義快速道路(北往南文山隧道出口處),臺北市政府警察局,文山一局,121.581245,25.008957,往南,70
臺北市,文山區,木柵路五段(西向東) 100之3號,臺北市政府警察局,文山一局,121.59344,24.9989,往東,50
臺北市,南港區,市民大道七段與忠孝東路六段159巷口,臺北市政府警察局,南港分局,121.58609,25.050062,往東,50
臺北市,南港區,市民大道7段 近昆陽街口,臺北市政府警察局,南港分局,121.59186,25.050976,往西,50
臺北市,南港區,忠孝東路七段511號,臺北市政府警察局,南港分局,121.61159,25.052607,往東,50
臺北市,南港區,市民大道8段與東南街口(東往西),臺北市政府警察局,南港分局,121.61222,25.05411,往西,50
臺北市,南港區,市民大道8段 500號,臺北市政府警察局,南港分局,121.613174,25.053974,往東,50
臺北市,南港區,三重路19-5號前(北向南),臺北市政府警察局,南港分局,121.614105,25.057318,往南,50
臺北市,內湖區,承德路四段320號（福港街口）,臺北市政府警察局,內湖分局,121.51826,25.089705,北往南,50
臺北市,內湖區,內湖路1段324號,臺北市政府警察局,內湖分局,121.56998,25.08173,往東,50
臺北市,內湖區,行善路233號,臺北市政府警察局,內湖分局,121.58296,25.060823,往東,50
臺北市,內湖區,環東大道(南京東路6段368巷口上方),臺北市政府警察局,內湖分局,121.586334,25.059874,往西,80
臺北市,內湖區,成功路2段373號,臺北市政府警察局,內湖分局,121.59,25.074547,往北,50
臺北市,內湖區,金湖路200號前,臺北市政府警察局,內湖分局,121.60028,25.077787,往北,50
臺北市,內湖區,成功路5段152巷口,臺北市政府警察局,內湖分局,121.604034,25.083036,往東,50
臺北市,內湖區,民權東路六段423巷口(東向西),臺北市政府警察局,內湖分局,121.60418,25.071262,往西,50
臺北市,士林區,環河北路3段葫蘆街口,臺北市政府警察局,士林分局,121.50743,25.082521,往北,50
臺北市,士林區,承德路四段百齡高中前(南向北),臺北市政府警察局,士林分局,121.52306,25.08667,往北,50
臺北市,臺北市士林區,仰德大道2段29巷,臺北市政府警察局,士林分局,121.54252,25.104025,往下山方向,40
臺北市,士林區,仰德大道2段115巷口,臺北市政府警察局,士林分局,121.546036,25.10817,下山,40
臺北市,士林區,仰德大道四段75號前(下山方向),臺北市政府警察局,士林分局,121.54652,25.132162,下山,40
臺北市,北投區,學園路 台北藝術大學門口,臺北市政府警察局,北投分局,121.46587,25.130178,下山方向,30
臺北市,北投區,大度路往台北方向,臺北市政府警察局,北投分局,121.47776,25.122429,往南,70
臺北市,北投區,大度路往淡水方向,臺北市政府警察局,北投分局,121.480316,25.122408,往北,70
臺北市,北投區,大業路412號前,臺北市政府警察局,北投分局,121.49684,25.13034,往北,60
臺北市,北投區,洲美快速道路(南向避車彎處),臺北市政府警察局,北投分局,121.49871,25.107931,往南,80
臺北市,北投區,洲美快速道路(北向避車彎處),臺北市政府警察局,北投分局,121.49899,25.106007,往北,80
臺北市,北投區,立賢路101號,臺北市政府警察局,北投分局,121.50257,25.114443,往北,50
臺北市,北投區,承德路6段,臺北市政府警察局,北投分局,121.51186,25.104881,往南,60
臺北市,北投區,承德路6段,臺北市政府警察局,北投分局,121.51211,25.103973,往北,60
臺北市,北投區,陽金公路53號燈桿後方竹子湖路2-2號對面,臺北市政府警察局,北投分局,121.543755,25.164951,往市區,40
高雄市,鼓山區,鼓山三路、青峰街,高雄市政府警察局,鼓山分局,120.27578,22.659279,北向南,50
高雄市,鼓山區,蓬萊路32號前,高雄市政府警察局,鼓山分局,120.27912,22.620316,南向北,40
高雄市,鼓山區,馬卡道路（明誠路-美術館路間）,高雄市政府警察局,鼓山分局,120.283264,22.659645,南向北,50
高雄市,鼓山區,中華一路與大順一路口,高雄市政府警察局,鼓山分局,120.29224,22.65287,南向北,60
高雄市,鼓山區,中華一路與美術北三路口,高雄市政府警察局,鼓山分局,120.29245,22.662758,北向南,60
高雄市,鼓山區,明誠三路與南屏路口(西向東),高雄市政府警察局,鼓山分局,120.2999,22.661104,西向東,50
高雄市,左營區,左營區介壽路與先鋒路口,高雄市政府警察局,左營分局,120.282486,22.681307,西向東,50
高雄市,左營區,左營區翠華路與翠峰路口,高雄市政府警察局,左營分局,120.28997,22.670572,南向北,60
高雄市,左營區,左營區翠華路與華榮路口,高雄市政府警察局,左營分局,120.291405,22.67238,北向南,60
高雄市,左營區,左營區翠華路與崇德路口,高雄市政府警察局,左營分局,120.2974,22.678238,南向北,60
高雄市,左營區,華夏路337巷口,高雄市政府警察局,左營分局,120.297554,22.67165,南向北,50
高雄市,左營區,華夏路與新莊仔路,高雄市政府警察局,左營分局,120.299515,22.674582,南向北,60
高雄市,左營區,左營區翠華路與站前南路,高雄市政府警察局,左營分局,120.302666,22.687275,南向北,60
高雄市,左營區,翠華路與明潭路口,高雄市政府警察局,左營分局,120.302864,22.689344,北向南,60
高雄市,左營區,博愛二路與裕誠路口,高雄市政府警察局,左營分局,120.30315,22.665878,北向南,50
高雄市,左營區,博愛二路與新庄仔路口,高雄市政府警察局,左營分局,120.303406,22.669987,南向北,50
高雄市,左營區,高鐵路與曾子路,高雄市政府警察局,左營分局,120.30349,22.683207,北向南,50
高雄市,左營區,博愛三、文自路口,高雄市政府警察局,左營分局,120.3045,22.672869,北向南,60
高雄市,左營區,博愛、崇德路口,高雄市政府警察局,左營分局,120.30538,22.674622,南向北,50
高雄市,左營區,大中高架道路華夏匝道口,高雄市政府警察局,左營分局,120.30621,22.684856,西向東,60
高雄市,左營區,高鐵路與大中二路口,高雄市政府警察局,左營分局,120.30643,22.68523,北向南,50
高雄市,左營區,大中高架道路文川匝道口,高雄市政府警察局,左營分局,120.30761,22.68351,東向西,60
高雄市,左營區,大中二路與華夏路口,高雄市政府警察局,左營分局,120.30762,22.68328,西向東,40
高雄市,左營區,新莊仔路與自由二路,高雄市政府警察局,左營分局,120.309616,22.668627,西向東,50
高雄市,左營區,民族一路與大中一路,高雄市政府警察局,左營分局,120.31905,22.67854,南向北,60
高雄市,楠梓區,德中路與大學二十九路口,高雄市政府警察局,楠梓分局,120.27737,22.722902,東向西,60
高雄市,楠梓區,左楠、後昌路口,高雄市政府警察局,楠梓分局,120.302536,22.707396,南向北,50
高雄市,楠梓區,楠梓區左楠路與外環西路,高雄市政府警察局,楠梓分局,120.302734,22.711885,南向北,50
高雄市,楠梓區,德民路與德惠路口,高雄市政府警察局,楠梓分局,120.30323,22.725397,東向西,50
高雄市,楠梓區,加昌路與左楠路口,高雄市政府警察局,楠梓分局,120.30393,22.717358,西向東,50
高雄市,楠梓區,加昌路367號前,高雄市政府警察局,楠梓分局,120.31007,22.719818,東西向,50
高雄市,楠梓區,德民路與海專路口(機車道),高雄市政府警察局,楠梓分局,120.31035,22.726524,西向東,40
高雄市,楠梓區,高楠公路與德民路口,高雄市政府警察局,楠梓分局,120.320145,22.732939,南向北,60
高雄市,楠梓區,高楠、水管路口(機車道),高雄市政府警察局,楠梓分局,120.324486,22.707129,北向南,40
高雄市,楠梓區,高楠公路1015-6號前,高雄市政府警察局,楠梓分局,120.325356,22.717821,南向北,60
高雄市,楠梓區,高楠公路金屬研發中心前,高雄市政府警察局,楠梓分局,120.32598,22.714525,南向北,60
高雄市,楠梓區,楠陽路與鳳楠路口,高雄市政府警察局,楠梓分局,120.32995,22.723923,西向東,60
高雄市,楠梓區,楠梓區興西路與鳳楠路,高雄市政府警察局,,120.33213,22.721943,北向南,50
高雄市,楠梓區,旗楠路與土庫一路口,高雄市政府警察局,楠梓分局,120.33286,22.735596,東向西,50
高雄市,楠梓區,旗楠、常德路口,高雄市政府警察局,楠梓分局,120.336876,22.740108,東向西,60
高雄市,三民區,九如三路(中都街與九如大橋中段),高雄市政府警察局,三民第一分局,120.28611,22.643929,東向西,50
高雄市,三民區,自由一路與同盟一路,高雄市政府警察局,三民第一分局,120.30907,22.650259,北向南,50
高雄市,三民區,同盟路高醫大門,高雄市政府警察局,三民第一分局,120.31007,22.649115,西向東,50
高雄市,三民區,民族、承德路口,高雄市政府警察局,三民第二分局,120.3142,22.642303,南向北,60
高雄市,三民區,民族一路與十全一路口,高雄市政府警察局,三民第二分局,120.31434,22.644857,北向南,60
高雄市,三民區,九如一路與民族一路口,高雄市政府警察局,三民第二分局,120.31469,22.64043,東向西,50
高雄市,三民區,民族一路與建工路口,高雄市政府警察局,三民第二分局,120.31487,22.64735,南向北,40
高雄市,三民區,河堤、民族一路543巷路口,高雄市政府警察局,三民第二分局,120.31492,22.666988,北向南,50
高雄市,三民區,民族一路268號前,高雄市政府警察局,三民第二分局,120.31495,22.649855,南北向,60
高雄市,三民區,民族一路與裕誠路,高雄市政府警察局,三民第二分局,120.31608,22.663786,北向南,60
高雄市,三民區,民族、裕誠路口(機車道),高雄市政府警察局,三民第二分局,120.31617,22.663822,南向北,40
高雄市,三民區,明誠一路 528 號對面,高雄市政府警察局,三民第二分局,120.320015,22.65996,西向東,50
高雄市,三民區,九如、平等路口,高雄市政府警察局,三民第二分局,120.32043,22.639828,西向東,50
高雄市,三民區,大中路、鼎中路口東向西左側路口,高雄市政府警察局,三民第二分局,120.32344,22.676521,東向西,50
高雄市,三民區,大中路、鼎中路口東向西右側路口,高雄市政府警察局,三民第二分局,120.32359,22.676704,東向西,50
高雄市,三民區,明誠一路280號,高雄市政府警察局,三民第二分局,120.32598,22.6596,東向西,50
高雄市,三民區,明誠、大裕路口,高雄市政府警察局,三民第二分局,120.32843,22.659721,西向東,50
高雄市,三民區,九如一路、大順二路口,高雄市政府警察局,三民第二分局,120.32851,22.639074,東向西,50
高雄市,三民區,九如一路與大昌二路口,高雄市政府警察局,三民第二分局,120.33165,22.63851,西向東,50
高雄市,三民區,大昌二路420巷,高雄市政府警察局,三民第二分局,120.331825,22.649923,南向北,50
高雄市,三民區,大昌二路28號,高雄市政府警察局,三民第一分局,120.33226,22.641333,南向北,50
高雄市,三民區,九如一路光武國小旁,高雄市政府警察局,三民第二分局,120.33385,22.638254,東向西,50
高雄市,三民區,中山高西側便道、九如路口,高雄市政府警察局,三民第二分局,120.336784,22.63776,北向南,50
高雄市,三民區,九如、中山高東側便道,高雄市政府警察局,三民第二分局,120.33778,22.637417,東向西,50
高雄市,新興區,中山一路與民生一路,高雄市政府警察局,新興分局,120.30146,22.627745,北向南,50
高雄市,新興區,民生路與仁愛路口,高雄市政府警察局,新興分局,120.30685,22.627457,西向東,50
高雄市,前金區,中華三路與民生二路口,高雄市政府警察局,新興分局,120.29697,22.626291,北向南,50
高雄市,苓雅區,中山二路432號前,高雄市政府警察局,苓雅分局,120.30265,22.619112,南向北,50
高雄市,苓雅區,中山二路361號前,高雄市政府警察局,苓雅分局,120.303604,22.616146,北向南,50
高雄市,苓雅區,五福一路與和平一路口,高雄市政府警察局,苓雅分局,120.3182,22.628725,西向東,50
高雄市,苓雅區,中正地下道(東向西出口),高雄市政府警察局,苓雅分局,120.32004,22.630129,東向西,50
高雄市,苓雅區,五福、凱旋路口,高雄市政府警察局,苓雅分局,120.321106,22.62981,西向東,50
高雄市,苓雅區,建國路與武廟路口,高雄市政府警察局,苓雅分局,120.32181,22.633484,東向西,50
高雄市,苓雅區,中正地下道(西向東出口),高雄市政府警察局,苓雅分局,120.32502,22.629728,西向東,50
高雄市,苓雅區,苓雅區三多二路與凱旋二路口,高雄市政府警察局,苓雅分局,120.325806,22.620935,東向西,50
高雄市,苓雅區,武營、三多路口,高雄市政府警察局,苓雅分局,120.3359,22.623598,南向北,50
高雄市,苓雅區,中正一路與高速公路,高雄市政府警察局,苓雅分局,120.33634,22.62665,西向東,50
高雄市,苓雅區,建國一路中山高涵洞東側,高雄市政府警察局,苓雅分局,120.33671,22.630255,西向北,50
高雄市,苓雅區,建國一、正義路口,高雄市政府警察局,苓雅分局,120.33822,22.629908,西向東,50
高雄市,苓雅區,中正一路國軍高雄總醫院旁,高雄市政府警察局,苓雅分局,120.33946,22.625673,西向東,50
高雄市,苓雅區,苓雅區三多一路與建軍路口,高雄市政府警察局,苓雅分局,120.341866,22.624517,西向東,50
高雄市,前鎮區,中華五路與復興三路口,高雄市政府警察局,前鎮分局,120.30485,22.606277,南向北,50
高雄市,前鎮區,中山三路與文橫路,高雄市政府警察局,前鎮分局,120.30548,22.611725,南向北,60
高雄市,前鎮區,成功二路與興發路口,高雄市政府警察局,前鎮分局,120.30554,22.593822,北向南,50
高雄市,前鎮區,前鎮區中華五路與正勤路口(西、北側),高雄市政府警察局,前鎮分局,120.30589,22.602861,南向北,50
高雄市,前鎮區,成功二路與舊凱旋四路口,高雄市政府警察局,前鎮分局,120.306015,22.592865,南向北,50
高雄市,前鎮區,舊凱旋四路與前鎮街口,高雄市政府警察局,前鎮分局,120.3075,22.592865,西向東,50
高雄市,前鎮區,前鎮區中華五路與時代大道路口(東、南側),高雄市政府警察局,前鎮分局,120.30864,22.596786,東向西,50
高雄市,前鎮區,中山三路與正勤路口,高雄市政府警察局,前鎮分局,120.3092,22.604418,北向南,60
高雄市,前鎮區,凱旋四路與中華五路口,高雄市政府警察局,前鎮分局,120.309494,22.59344,西向東,50
高雄市,前鎮區,新生高架道路0.82K,高雄市政府警察局,前鎮分局,120.30965,22.583641,南向北,60
高雄市,前鎮區,舊凱旋四路與鎮興街口,高雄市政府警察局,前鎮分局,120.31083,22.593851,西向東,50
高雄市,前鎮區,凱旋四路與鎮興街口,高雄市政府警察局,前鎮分局,120.31139,22.59389,東向西,50
高雄市,前鎮區,過港隧道北孔〈前鎮往旗津方向〉機車道1100M處,高雄港警總隊,,120.31456,22.563587,南向北,50
高雄市,前鎮區,凱旋四路與凱旋四路424巷口,高雄市政府警察局,前鎮分局,120.31474,22.594706,西向東,40
高雄市,前鎮區,三多二路與桂林街口,高雄市政府警察局,前鎮分局,120.315796,22.61766,西向東,50
高雄市,前鎮區,中山三路與凱旋四路口,高雄市政府警察局,前鎮分局,120.316284,22.595959,南向北,60
高雄市,前鎮區,一心、光華路口,高雄市政府警察局,前鎮分局,120.317055,22.608536,東向西,50
高雄市,前鎮區,中山四路與鎮海路口,高雄市政府警察局,前鎮分局,120.31856,22.592764,北向南,40
高雄市,前鎮區,一心、和平路口,高雄市政府警察局,前鎮分局,120.32055,22.606934,西向東,50
高雄市,前鎮區,前鎮區新生路與金福路口,高雄市政府警察局,前鎮分局,120.32304,22.567684,北向南,50
高雄市,前鎮區,凱旋四路與籬仔內路口,高雄市政府警察局,前鎮分局,120.32374,22.603518,南向北,50
高雄市,前鎮區,前鎮區新生路與金福路口,高雄市政府警察局,前鎮分局,120.323746,22.567457,南向北,50
高雄市,前鎮區,前鎮區班超路瑞祥高中前,高雄市政府警察局,前鎮分局,120.32535,22.60173,北向南,50
高雄市,前鎮區,高速公路(金福路)高架聯絡道北上（離金福路出口500公尺處),高雄市政府警察局,前鎮分局,120.32586,22.575134,南向北,40
高雄市,前鎮區,高速公路(金福路)高架聯絡道南下（離金福路出口900公尺處),高雄市政府警察局,前鎮分局,120.326035,22.578098,北向南,40
高雄市,前鎮區,凱旋三路與二聖一路口,高雄市政府警察局,前鎮分局,120.32679,22.612076,北向南,50
高雄市,前鎮區,中山四路與中平路口,高雄市政府警察局,前鎮分局,120.32882,22.580608,北向南,40
高雄市,前鎮區,中山四路與中安路口,高雄市政府警察局,前鎮分局,120.32949,22.580269,南向北,50
高雄市,前鎮區,中山四路與金福路口,高雄市政府警察局,前鎮分局,120.331924,22.576746,北向南,50
高雄市,前鎮區,保泰、瑞隆路口,高雄市政府警察局,前鎮分局,120.33857,22.605717,南向北,50
高雄市,旗津區,過港隧道南孔〈旗津往前鎮方向〉汽車道1367M處,高雄港警總隊,,120.31196,22.561485,北向南,60
高雄市,旗津區,過港隧道南孔〈旗津往前鎮方向〉機車道1100M處,高雄港警總隊,,120.313225,22.562416,北向南,50
高雄市,小港區,東亞南路、平和7路路口,高雄市政府警察局,小港分局,120.33221,22.561941,南向北,60
高雄市,小港區,東亞南路、平和2路路口,高雄市政府警察局,小港分局,120.33443,22.55905,北向南,60
高雄市,小港區,中山四路段(平和東路以北50公尺處),高雄市政府警察局,小港分局,120.336555,22.571115,北向南,40
高雄市,小港區,南星路與中林路(南向北),高雄市政府警察局,小港分局,120.338646,22.528667,南向北,40
高雄市,小港區,中安路223號前,高雄市政府警察局,小港分局,120.34073,22.58326,東向西,50
高雄市,小港區,南星、中林路口(北向南),高雄市政府警察局,小港分局,120.34606,22.521515,北向南,40
高雄市,小港區,中安路與明聖街230巷口,高雄市政府警察局,小港分局,120.34622,22.583788,西向東,50
高雄市,小港區,沿海一路與宏平路,高雄市政府警察局,小港分局,120.35012,22.568972,南向北,50
高雄市,小港區,小港區沿海一路與康莊路口,高雄市政府警察局,小港分局,120.35067,22.568,北向南,40
高雄市,小港區,沿海一路與漢民路口,高雄市政府警察局,小港分局,120.35207,22.5666,北向南,50
高雄市,小港區,南星路段(沿海路以北700公尺處),高雄市政府警察局,小港分局,120.35464,22.513891,北向南,40
高雄市,小港區,沿海一路與中鋼路口(南下),高雄市政府警察局,小港分局,120.356544,22.561512,北向南,50
高雄市,小港區,小港區飛機路153號濟南里活動中心旁,高雄市政府警察局,小港分局,120.35929,22.573195,西向東,40
高雄市,小港區,沿海三路與鳳鳴路,高雄市政府警察局,小港分局,120.362404,22.51092,北向南,50
高雄市,小港區,高松、松正路口,高雄市政府警察局,小港分局,120.376785,22.57036,東向西,50
高雄市,小港區,高坪18路與高坪15路,高雄市政府警察局,小港分局,120.39456,22.554989,西向東,50
高雄市,鳳山區,臨海路與南華一路口,高雄市政府警察局,鳳山分局,120.341286,22.597889,南向北,50
高雄市,鳳山區,南華一路保安二街口,高雄市政府警察局,鳳山分局,120.341866,22.597925,東向西,50
高雄市,鳳山區,鳳山區南華一路與鳳甲路口,高雄市政府警察局,高市警局交通大隊,120.34401,22.595001,東向西,50
高雄市,鳳山區,南華一路與和成路,高雄市政府警察局,鳳山分局,120.344025,22.594791,西向東,60
高雄市,鳳山區,建國路三段與澄清路口,高雄市政府警察局,鳳山分局,120.34483,22.636532,東向西,70
高雄市,鳳山區,國泰路二段與南京路口,高雄市政府警察局,鳳山分局,120.346664,22.620205,北向南,60
高雄市,鳳山區,建國路與青年路口,高雄市政府警察局,鳳山分局,120.35096,22.63744,東向西,70
高雄市,鳳山區,鳳山區國泰路二段與五甲一路口,高雄市政府警察局,鳳山分局,120.35308,22.616306,北向南,60
高雄市,鳳山區,鳳頂路、過埤路口(西向東),高雄市政府警察局,鳳山分局,120.35834,22.590328,西向東,60
高雄市,鳳山區,鳳頂路與過埤路口,高雄市政府警察局,鳳山分局,120.35902,22.593834,北向南,60
高雄市,鳳山區,鳳頂路與田中央路口,高雄市政府警察局,鳳山分局,120.359215,22.59445,南向北,60
高雄市,鳳山區,鳳山區過埤路與鳳頂路口,高雄市政府警察局,鳳山分局,120.35935,22.590372,東向西,60
高雄市,鳳山區,鳳頂路(台糖加油站對面),高雄市政府警察局,鳳山分局,120.360016,22.598097,北向南,60
高雄市,鳳山區,國泰路一段與鳳頂路口,高雄市政府警察局,鳳山分局,120.36204,22.614567,西向東,50
高雄市,鳳山區,維武路陸軍官校側門以北50公尺處,高雄市政府警察局,鳳山分局,120.365395,22.618025,北向南,40
高雄市,鳳山區,中山東路與光遠路口,高雄市政府警察局,鳳山分局,120.368355,22.623114,南向北,50
高雄市,林園區,中門路與南星路口(快車道),高雄市政府警察局,林園分局,120.3628,22.510351,南向北,50
高雄市,林園區,中門路與南星路口(慢車道),高雄市政府警察局,林園分局,120.36288,22.510414,南向北,40
高雄市,林園區,沿海路林園南路口,高雄市政府警察局,林園分局,120.3961,22.500326,西向東,60
高雄市,林園區,林園區鳳林路三段與潭頭路口,高雄市政府警察局,林園分局,120.39701,22.52201,北向南,60
高雄市,林園區,台25線14.5公里處,高雄市政府警察局,林園分局,120.405396,22.534346,北向南,60
高雄市,林園區,台29線108.4公里處,高雄市政府警察局,林園分局,120.41476,22.532354,北向南,60
高雄市,大寮區,內坑路161之21號前,高雄市政府警察局,林園分局,120.37998,22.589094,西向東,60
高雄市,大寮區,市道188 號(內坑路)與高72線路口,高雄市政府警察局,林園分局,120.38432,22.589376,東向西,60
高雄市,大寮區,鳳屏一路與民貴街口,高雄市政府警察局,林園分局,120.38517,22.631304,東向西,50
高雄市,大寮區,大寮區鳳林三路/進學路,高雄市政府警察局,,120.395325,22.607998,南向北,50
高雄市,大寮區,新厝路119-31號以西60公尺處,高雄市政府警察局,林園分局,120.40384,22.561409,東西向,50
高雄市,大寮區,大寮區市道188號與鳳林二路口(快車道),高雄市政府警察局,林園分局,120.40461,22.586405,西向東,60
高雄市,大寮區,大寮區市道188號與鳳林二路口(慢車道),高雄市政府警察局,林園分局,120.40463,22.586277,西向東,40
高雄市,大寮區,鳳林二路、光華路口,高雄市政府警察局,林園分局,120.40737,22.581043,南向北,70
高雄市,大寮區,鳳屏二路與江山路口,高雄市政府警察局,林園分局,120.40881,22.640905,西向東,70
高雄市,大寮區,台88線快速道路西向東7.4公里處,高雄市政府警察局,林園分局,120.409294,22.58654,西向東,90
高雄市,大寮區,鳳林二路與濃公路,高雄市政府警察局,林園分局,120.40993,22.574074,北向南,60
高雄市,大寮區,鳳林一路與鳳林路四段,高雄市政府警察局,林園分局,120.411415,22.547424,北向南,70
高雄市,大寮區,光明路二段與大寮路口,高雄市政府警察局,林園分局,120.419685,22.591167,北向南,60
高雄市,大寮區,台29線96.5公里處,高雄市政府警察局,林園分局,120.42427,22.625746,南向北,60
高雄市,大寮區,台88線快速道路東向西10公里處大發交流道前,高雄市政府警察局,林園分局,120.43338,22.592665,東向西,90
高雄市,大寮區,河堤路三段與公園街,高雄市政府警察局,林園分局,120.433495,22.569546,北向南,50
高雄市,大樹區,大樹區高186甲線(三和路)仙峰宮前,高雄市政府警察局,,120.422745,22.727495,西向東,40
高雄市,大樹區,大樹區興山路興山橋旁,高雄市政府警察局,仁武分局,120.423904,22.694601,西向東,50
高雄市,大樹區,大樹區台22線14K處,高雄市政府警察局,仁武分局,120.43045,22.775007,東西向,50
高雄市,大樹區,大坑路台29線86K處,高雄市政府警察局,仁武分局,120.439255,22.70776,南北向,70
高雄市,大社區,大社區旗楠路與保糖街口,高雄市政府警察局,高市警局交通大隊,120.354195,22.752487,西向東,50
高雄市,大社區,大社區中山路521-9號旁,高雄市政府警察局,仁武分局,120.35747,22.730787,東向西,50
高雄市,大社區,和平路二段與中華路14巷口,高雄市政府警察局,仁武分局,120.35988,22.725449,東向西,60
高雄市,大社區,和平路一段710-1號前,高雄市政府警察局,仁武分局,120.360504,22.732006,東向西,60
高雄市,大社區,大社區學府路94巷口前50公尺處(往大社市區),高雄市政府警察局,仁武分局,120.37544,22.735556,東向西,40
高雄市,仁武區,高楠公路高楠新村口路口（機車道）,高雄市政府警察局,仁武分局,120.321556,22.692112,北向南,40
高雄市,仁武區,高楠公路與八德二路口,高雄市政府警察局,仁武分局,120.32345,22.70101,南向北,60
高雄市,仁武區,鳳仁路183線2.45公里中央分隔島,高雄市政府警察局,仁武分局,120.33939,22.710386,北向南,60
高雄市,仁武區,澄觀路與八德南路,高雄市政府警察局,仁武分局,120.34047,22.68022,東向西,50
高雄市,仁武區,仁雄路與澄仁路口,高雄市政府警察局,仁武分局,120.345924,22.67725,西向東,50
高雄市,仁武區,澄觀路與鳳仁路口,高雄市政府警察局,仁武分局,120.35326,22.686092,東向西,60
高雄市,仁武區,澄觀路1段(新庄路以西150公尺處),高雄市政府警察局,仁武分局,120.35793,22.694105,北向南,60
高雄市,仁武區,鳳仁路與成功路口,高雄市政府警察局,仁武分局,120.35851,22.676083,南向北,60
高雄市,仁武區,鳳仁路5-13號前,高雄市政府警察局,仁武分局,120.359085,22.675001,南北向,60
高雄市,仁武區,澄觀路與仁林路口,高雄市政府警察局,仁武分局,120.359764,22.701334,西向東,60
高雄市,仁武區,水管路與澄觀路口,高雄市政府警察局,仁武分局,120.36052,22.703672,東向西,60
高雄市,仁武區,義大二路與公館1巷3號前,高雄市政府警察局,仁武分局,120.39001,22.715528,北向南,60
高雄市,鳥松區,松藝路段(南往北往八德南路方向),高雄市政府警察局,仁武分局,120.34072,22.659094,南向北,50
高雄市,鳥松區,松藝路段(北往南往圓山路方向),高雄市政府警察局,仁武分局,120.34302,22.669724,北向南,50
高雄市,岡山區,高雄市岡山區岡山北路267號前,高雄市政府警察局,岡山分局,120.27358,22.817284,北向南,60
高雄市,岡山區,大德一路與中山北路,高雄市政府警察局,岡山分局,120.29846,22.796618,西向東,50
高雄市,岡山區,介壽東路與和平路口,高雄市政府警察局,岡山分局,120.30418,22.785051,東向西,60
高雄市,岡山區,嘉新東路與聖森路,高雄市政府警察局,岡山分局,120.31085,22.807526,西向東,60
高雄市,岡山區,介壽東路與岡燕路,高雄市政府警察局,岡山分局,120.31535,22.786663,東向西,60
高雄市,岡山區,嘉峰路高鐵橋下,高雄市政府警察局,岡山分局,120.315475,22.832905,北向南,50
高雄市,橋頭區,白樹路175號對面,高雄市政府警察局,岡山分局,120.301926,22.757471,西向東,40
高雄市,橋頭區,成功北路筆秀路口,高雄市政府警察局,岡山分局,120.30529,22.768,南向北,70
高雄市,橋頭區,成功北路與鐵道北路,高雄市政府警察局,岡山分局,120.30574,22.767155,北向南,60
高雄市,橋頭區,成功路與新興路,高雄市政府警察局,岡山分局,120.30955,22.759935,北向南,60
高雄市,橋頭區,高雄市橋頭區成功南路與仕隆路口,高雄市政府警察局,岡山分局,120.311584,22.754934,北向南,60
高雄市,橋頭區,橋頭區成功南路與經武路口,高雄市政府警察局,岡山分局,120.3169,22.743444,北向南,60
高雄市,燕巢區,旗楠路段〈鳳旗路44號之10旁〉,高雄市政府警察局,岡山分局,120.35628,22.755226,東向西,50
高雄市,燕巢區,高雄市燕巢區中興路與南一巷口(燕巢國中前),高雄市政府警察局,岡山分局,120.362366,22.78693,北向南,60
高雄市,燕巢區,鳳澄路7之32號前,高雄市政府警察局,岡山分局,120.36395,22.758595,北向南,60
高雄市,燕巢區,台22線深水國小前路口,高雄市政府警察局,岡山分局,120.391426,22.772251,東向西,50
高雄市,燕巢區,台22線高雄科技大學(燕巢校區)前路口,高雄市政府警察局,岡山分局,120.40064,22.772306,東向西,60
高雄市,田寮區,鹿埔路19號前,高雄市政府警察局,湖內分局,120.42328,22.887613,西向東,50
高雄市,阿蓮區,復安路與玉庫路口(台19甲線往阿蓮市區),高雄市政府警察局,湖內分局,120.32285,22.84498,南向北,60
高雄市,路竹區,路竹區環球路與樹人醫事學校前路口,高雄市政府警察局,湖內分局,120.26041,22.880974,西向東,60
高雄市,路竹區,中山路與國昌路口,高雄市政府警察局,湖內分局,120.261246,22.854364,北向南,70
高雄市,路竹區,中山南路、北嶺二路,高雄市政府警察局,湖內分局,120.266075,22.829268,南向北,60
高雄市,高雄市路竹區,高雄園區國道1號聯絡道3.2K至1.5K往西高科方向,保二總隊,保二一大隊,120.27407,22.83542,東西向,70
高雄市,路竹區,復興路與復興路1133巷口,高雄市政府警察局,湖內分局,120.28646,22.831896,南向北,50
高雄市,高雄市路竹區,高雄園區國道1號聯絡道1.5K至3.3K往東國道方向,保二總隊,保二一大隊,120.28775,22.84388,東西向,70
高雄市,路竹區,環球路新生路,高雄市政府警察局,湖內分局,120.29253,22.878794,東向西,50
高雄市,湖內區,和平路與東方路口,高雄市政府警察局,湖內分局,120.22501,22.876429,南向北,60
高雄市,湖內區,中山路一段與284巷口,高雄市政府警察局,湖內分局,120.244675,22.886343,南向北,60
高雄市,茄萣區,正順北路(高1-1線)與崎漏路口,高雄市政府警察局,湖內分局,120.210884,22.876348,東向西,60
高雄市,永安區,台17線(保安路)201.2K處,高雄市政府警察局,岡山分局,120.24047,22.818577,南北向,70
高雄市,永安區,保安路與維新路口,高雄市政府警察局,岡山分局,120.2433,22.808031,南向北,60
高雄市,旗山區,台29線(旗南三路)75.3K處,高雄市政府警察局,旗山分局,120.460945,22.805735,南北向,70
高雄市,旗山區,旗山區旗南三路8號以北50公尺處,高雄市政府警察局,旗山分局,120.462395,22.836103,北向南,50
高雄市,旗山區,台28線29.2公里處,高雄市政府警察局,旗山分局,120.4732,22.883623,西向東,50
高雄市,旗山區,延平1路與旗甲路1段路口,高雄市政府警察局,旗山分局,120.48113,22.898966,北向南,60
高雄市,旗山區,中華路與華中街口,高雄市政府警察局,旗山分局,120.4855,22.887808,西向東,50
高雄市,旗山區,旗甲路一段(圓潭橋前）,高雄市政府警察局,旗山分局,120.4934,22.91339,北向南,60
高雄市,美濃區,美濃區中山路二段359巷口,高雄市政府警察局,旗山分局,120.51985,22.896793,南向北,60
高雄市,美濃區,美興街232號前(月光山隧道),高雄市政府警察局,旗山分局,120.53655,22.912996,南向北,50
高雄市,美濃區,復興街一段480號前,高雄市政府警察局,旗山分局,120.5492,22.870377,北向南,50
高雄市,美濃區,中華路(台28線)與獅山街口,高雄市政府警察局,旗山分局,120.57057,22.878002,東向西,60
高雄市,美濃區,中華路77號對面(台28線40.7K),高雄市政府警察局,旗山分局,120.57328,22.875542,西向東,60
高雄市,六龜區,台28線茂林國家風景區管理處前路口,高雄市政府警察局,六龜分局,120.62428,22.88964,北向南,50
高雄市,六龜區,旗六公路新威國小前,高雄市政府警察局,六龜分局,120.62668,22.897558,西向東,60
高雄市,內門區,內門區市道182號28.9K至33.7K( 往東-內門市區方向),高雄市政府警察局,旗山分局,120.421616,22.924803,西向東,50
高雄市,內門區,內門區市道182號28.9K至33.7K( 往西-台南市龍崎區方向),高雄市政府警察局,旗山分局,120.45236,22.925508,東向西,50
高雄市,內門區,旗文路(台三線401.88K),高雄市政府警察局,旗山分局,120.46642,22.9106,北向南,60
高雄市,內門區,內門區台3線389至396K(往南),高雄市政府警察局,旗山分局,120.4677,22.949362,北向南,60
高雄市,內門區,內門區台3線389至396K(往北),高雄市政府警察局,旗山分局,120.46819,23.000528,南向北,60
新北市,板橋區,溪城路與金門街369巷口,新北市政府警察局,板橋分局,121.42829,24.98137,往樹林,50
新北市,板橋區,環河路沙崙抽水站前,新北市政府警察局,板橋分局,121.428825,24.97892,往新莊,50
新北市,板橋區,新北環河快速道路7公里處,新北市政府警察局,板橋分局,121.428825,25.02376,往三重,70
新北市,板橋區,板橋區堤外便道1K+900,新北市政府警察局,板橋分局,121.4408,24.998,往板橋,40
新北市,板橋區,環河西路5段「歡仔園防汛陸橋」前,新北市政府警察局,板橋分局,121.4414,25.00533,往土城,50
新北市,板橋區,環河西路5段00640燈桿,新北市政府警察局,板橋分局,121.44253,25.011337,往板橋或土城,50
新北市,新北市板橋區,臺65線5K+390,新北市政府警察局,板橋分局,121.446,25.0202,往新莊,80
新北市,板橋區,臺65線快速公路5.4公里,新北市政府警察局,板橋分局,121.44752,25.018425,往土城,80
新北市,板橋區,臺65線快速公路7公里,新北市政府警察局,板橋分局,121.451645,25.006397,往新莊,80
新北市,板橋區,臺64線快速公路20.24公里,新北市政府警察局,海山分局,121.46539,25.02834,往東,60
新北市,板橋區,縣民大道3段與民生路口,新北市政府警察局,海山分局,121.47163,25.01877,往板橋,60
新北市,板橋區,文化路2段與長江路口,新北市政府警察局,海山分局,121.476,25.0342,往板橋,50
新北市,板橋區,民生路1段與三民路2段正隆巷口,新北市政府警察局,海山分局,121.47617,25.01205,往板橋,50
新北市,板橋區,華江橋下坡處,新北市政府警察局,板橋分局,121.479195,25.035868,往板橋,50
新北市,板橋區,中山路光復橋頭,新北市政府警察局,海山分局,121.48396,25.0208,往板橋,50
新北市,三重區,重新堤外道8.9公里處,新北市政府警察局,三重分局,121.46712,25.04094,往新莊,50
新北市,三重區,中山橋頭,新北市政府警察局,三重分局,121.47961,25.0615,南下,50
新北市,三重區,新北環河快速道路3.2公里處,新北市政府警察局,三重分局,121.48569,25.04718,往中和,70
新北市,三重區,新北環河快速道路新北大橋旁,新北市政府警察局,三重分局,121.486145,25.047405,往中和,70
新北市,三重區,新北環河快速道路3公里處,新北市政府警察局,三重分局,121.49302,25.051329,往蘆洲,70
新北市,三重區,集賢路42號(270638路燈桿前),新北市政府警察局,三重分局,121.49335,25.087778,往蘆洲,50
新北市,三重區,環河北路3段168號前,新北市政府警察局,三重分局,121.49428,25.08842,往三重或蘆洲,50
新北市,三重區,中山高架橋上,新北市政府警察局,三重分局,121.49623,25.05448,往新莊,50
新北市,三重區,環河北路3段重陽橋下,新北市政府警察局,三重分局,121.49716,25.0851,往三重,50
新北市,三重區,環河北路2段304號,新北市政府警察局,三重分局,121.49908,25.08245,往蘆洲,50
新北市,中和區,中和區中正路1203號前,新北市政府警察局,中和分局,121.48011,25.010181,往中山路方向,50
新北市,中和區,臺64線快速公路23公里,新北市政府警察局,中和分局,121.481735,25.010017,往西,70
新北市,中和區,中和區環河西路3段,新北市政府警察局,中和分局,121.48879,25.01107,往永和,50
新北市,新北市中和區,臺64線快速道路東向25.2k主線及錦和路匝道至28.2k,新北市政府警察局,中和分局,121.49,24.9941,往東,70
新北市,中和區,臺64線快速公路25.3公里,新北市政府警察局,中和分局,121.49166,24.994188,往東,70
新北市,中和區,中正路與中興街,新北市政府警察局,中和分局,121.50045,24.993511,往秀朗橋方向,50
新北市,新北市中和區,臺64線快速道路西向26.6k至28.2k,新北市政府警察局,中和分局,121.5228,24.9906,向西,70
新北市,永和區,新北環河高架保生路匝道處,新北市政府警察局,永和分局,121.51487,25.018326,往中和,50
新北市,永和區,環河東路2段10號,新北市政府警察局,永和分局,121.52476,25.009336,往中和或永和方向,50
新北市,新莊區,新莊區壽山路(北118線0K至1.2K),新北市政府警察局,新莊分局,121.3983,25.044,往新莊,40
新北市,新莊區,青山路1段173號前,新北市政府警察局,新莊分局,121.40076,25.03016,往新莊,50
新北市,新莊區,壽山路(北118線0K+950),新北市政府警察局,新莊分局,121.4108,25.0345,往新莊,40
新北市,新莊區,新北大道7段與鳳山街口,新北市政府警察局,新莊分局,121.4128,25.02532,往中正路,60
新北市,新莊區,新北大道7段與鳳山街口,新北市政府警察局,新莊分局,121.41299,25.02524,往青山路,60
新北市,新北市新莊區,中正路879號,新北市政府警察局,新莊分局,121.4175,25.0258,雙向,50
新北市,新北市新莊區,新莊區中正路757號前,新北市政府警察局,新莊分局,121.4221,25.0287,往臺北或桃園),50
新北市,新莊區,環河路17越堤道路口,新北市政府警察局,新莊分局,121.44116,25.02238,往新莊,50
新北市,新莊區,臺65線快速公路1.8公里,新北市政府警察局,新莊分局,121.44227,25.051294,往五股,80
新北市,新莊區,臺65線快速公路1.8公里,新北市政府警察局,新莊分局,121.44227,25.051294,往板橋,80
新北市,新莊區,中環路2段臺65線高架下,新北市政府警察局,新莊分局,121.44229,25.043856,新泰路401巷29號對面,50
新北市,新莊區,中環路3段臺65線下橋墩,新北市政府警察局,新莊分局,121.44257,25.05136,往中原路,50
新北市,新北市新莊區,新莊區思源路與長青路口,新北市政府警察局,新莊分局,121.46,25.0425,往五股,50
新北市,新北市新莊區,新莊區思源路370巷口,新北市政府警察局,新莊分局,121.46,25.0517,往五股,40
新北市,新莊區,重新堤外道9.06公里處,新北市政府警察局,新莊分局,121.46546,25.04016,往三重,50
新北市,新店區,安康路3段新加坡社區前,新北市政府警察局,新店分局,121.47379,24.94202,往安坑,40
新北市,新店區,安康路3段與錦秀路口,新北市政府警察局,新店分局,121.47897,24.94604,往新店,40
新北市,新店區,安和路3段與永安街口,新北市政府警察局,新店分局,121.516556,24.985771,往新店,50
新北市,新店區,安和路2段169巷口,新北市政府警察局,新店分局,121.51862,24.97459,往新店,50
新北市,新店區,溪園路375號前,新北市政府警察局,新店分局,121.52319,24.979986,往環河路或中安大橋,60
新北市,新店區,環河路168號前,新北市政府警察局,新店分局,121.52539,24.97538,往臺北、新店,60
新北市,新店區,安康路1段與莒光路口,新北市政府警察局,新店分局,121.52834,24.96195,往新店,50
新北市,新北市新店區,新店區環河路(中央路至白馬寺),新北市政府警察局,新店分局,121.5292,24.9717,往碧潭,60
新北市,新店區,環河路美河市前,新北市政府警察局,新店分局,121.53375,24.970173,新店,60
新北市,新店區,環河路小碧潭捷運站旁,新北市政府警察局,新店分局,121.53566,24.96928,往碧潭,60
新北市,新北市新店區,新店區環河路(中央路至白馬寺),新北市政府警察局,新店分局,121.5369,24.9639,往臺北,60
新北市,新店區,環河路白馬寺前,新北市政府警察局,新店分局,121.53719,24.96601,往臺北,60
新北市,新店區,北宜路1段105巷口,新北市政府警察局,新店分局,121.53937,24.9552,往新店,50
新北市,新店區,北新路3段與順安街口,新北市政府警察局,新店分局,121.54108,24.98511,往新店,50
新北市,新店區,中興路1段與檳榔路口,新北市政府警察局,新店分局,121.54197,24.96343,往臺北,50
新北市,新店區,中興路3段與文化路口,新北市政府警察局,新店分局,121.54414,24.98054,往新店,50
新北市,新店區,中興路3段與寶中路口,新北市政府警察局,新店分局,121.544914,24.97905,往臺北,50
新北市,新店區,北宜路1段246號前,新北市政府警察局,新店分局,121.54501,24.953,往坪林,50
新北市,新店區,新烏路1段60號,新北市政府警察局,新店分局,121.54603,24.94848,往烏來,40
新北市,新店區,寶橋路78巷口,新北市政府警察局,新店分局,121.54616,24.975492,往中興路方向,50
新北市,新店區,新店區中興路2段39號前,新北市政府警察局,新店分局,121.5462,24.9699,往碧潭或景美,50
新北市,新店區,臺9甲線新烏路2段與屈尺路口,新北市政府警察局,新店分局,121.54935,24.92282,往烏來,50
新北市,新店區,北宜路2段82巷口,新北市政府警察局,新店分局,121.55339,24.95332,往坪林,50
新北市,新北市新店區,北宜路2段348號對面,新北市政府警察局,新店分局,121.5628,24.9537,往新店,50
新北市,新北市新店區,臺9線19K至23.1K,新北市政府警察局,新店分局,121.5981,24.953,往宜蘭,40
新北市,新北市新店區,臺9線19K至23.1K,新北市政府警察局,新店分局,121.6235,24.957,往新店,40
新北市,樹林區,中山路高架橋頭,新北市政府警察局,樹林分局,121.38438,24.96717,往樹林,50
新北市,樹林區,八德街與堤外道路,新北市政府警察局,樹林分局,121.39155,24.96859,往鶯歌,50
新北市,樹林區,中山路3段27巷口,新北市政府警察局,樹林分局,121.40145,24.97537,往樹林,50
新北市,樹林區,中正路與三福路口,新北市政府警察局,樹林分局,121.4094,25.01724,往樹林,50
新北市,樹林區,中正路與三俊街口,新北市政府警察局,樹林分局,121.41068,25.01503,往桃園,50
新北市,樹林區,樹林區大安路537巷口,新北市政府警察局,樹林分局,121.412865,24.984545,往新莊,50
新北市,樹林區,大安路與文化街口,新北市政府警察局,樹林分局,121.41573,24.98965,往新莊,50
新北市,樹林區,大安路249巷口,新北市政府警察局,樹林分局,121.41921,24.99423,往新莊,50
新北市,樹林區,環漢路5段與東豐街口,新北市政府警察局,樹林分局,121.41944,24.973124,往板橋,50
新北市,樹林區,大安路249巷口,新北市政府警察局,樹林分局,121.41945,24.9945,往鶯歌,50
新北市,樹林區,大安路111巷口,新北市政府警察局,樹林分局,121.4223,24.99799,往新莊,50
新北市,樹林區,中正路102之2號旁,新北市政府警察局,樹林分局,121.42626,25.00048,往樹林,50
新北市,樹林區,樹林陸橋樹林端,新北市政府警察局,樹林分局,121.428055,24.998964,板橋往樹林方向,40
新北市,鶯歌區,鶯桃路與永和街口,新北市政府警察局,三峽分局,121.33123,24.96697,往鶯歌,50
新北市,鶯歌區,中正三路193巷口,新北市政府警察局,三峽分局,121.33556,24.93945,往大溪,40
新北市,鶯歌區,西湖街191號前,新北市政府警察局,三峽分局,121.33842,24.9639,往樹林,50
新北市,鶯歌區,鶯歌區環河路與二甲路口,新北市政府警察局,三峽分局,121.3411,24.9312,往樹林,50
新北市,鶯歌區,中正二路204463號燈桿旁,新北市政府警察局,三峽分局,121.34403,24.94919,往鶯歌,50
新北市,鶯歌區,中正一路405號前,新北市政府警察局,三峽分局,121.35978,24.95708,往桃園,50
新北市,鶯歌區,中正一路與碧龍巷口,新北市政府警察局,三峽分局,121.36482,24.956474,往鶯歌,50
新北市,鶯歌區,鶯歌區館前路2.4公里,新北市政府警察局,三峽分局,121.3714,24.9581,往樹林,50
新北市,三峽區,大埔路臺7乙線7.37公里處,新北市政府警察局,三峽分局,121.21386,24.51366,往桃園,40
新北市,三峽區,大埔路臺7乙線1.97公里處,新北市政府警察局,三峽分局,121.2217,24.53442,往三峽,40
新北市,三峽區,中正路2段264號前,新北市政府警察局,三峽分局,121.36589,24.91237,往大溪,50
新北市,三峽區,復興路與大勇街口,新北市政府警察局,三峽分局,121.36717,24.93909,往鶯歌,50
新北市,新北市三峽區,三峽區中正路1段524號旁,新北市政府警察局,三峽分局,121.3693,24.9201,往大溪,50
新北市,三峽區,中正路1段與大同路口,新北市政府警察局,三峽分局,121.37177,24.92681,往復興路,50
新北市,三峽區,添福路107之15號旁,新北市政府警察局,三峽分局,121.37335,24.90288,往插角,40
新北市,三峽區,三峽區台7乙線5.3公里,新北市政府警察局,三峽分局,121.3752,24.8706,往桃園,40
新北市,新北市三峽區,三峽區大義路與學林路口,新北市政府警察局,三峽分局,121.3767,24.9481,雙向,50
新北市,三峽區,溪東路197號前,新北市政府警察局,三峽分局,121.40395,24.93368,往三峽,50
新北市,三峽區,三峽區溪東路(市道110號30K+500M往三峽),新北市政府警察局,三峽分局,121.4071,24.9323,往三峽,30
新北市,三峽區,溪東路350號前,新北市政府警察局,三峽分局,121.41125,24.92973,往新店,50
新北市,三峽區,介壽路2段2號前,新北市政府警察局,三峽分局,121.42269,24.95929,往土城,50
新北市,三峽區,介壽路3段148號前,新北市政府警察局,三峽分局,121.42269,24.95929,往土城,50
新北市,三峽區,安坑路13之8號,新北市政府警察局,三峽分局,121.44138,24.92619,往新店,40
新北市,三峽區,安坑路40號前,新北市政府警察局,三峽分局,121.45453,24.93204,往三峽,40
新北市,淡水區,臺2線8.1公里與埤島里,新北市政府警察局,淡水分局,121.44647,25.19337,往臺北,70
新北市,淡水區,臺2線8公里與新市二路4段,新北市政府警察局,淡水分局,121.44685,25.19218,往三芝,70
新北市,淡水區,臺2線與牛埔子路口,新北市政府警察局,淡水分局,121.45022,25.21866,往臺北,60
新北市,新北市淡水區,淡水區淡金路二段125號,新北市政府警察局,淡水分局,121.4506,25.182,往淡水,60
新北市,淡水區,臺2線10.56公里處,新北市政府警察局,淡水分局,121.45065,25.21363,往三芝,60
新北市,淡水區,臺2線與正德國中賢孝校區前,新北市政府警察局,淡水分局,121.45203,25.22415,往臺北,50
新北市,淡水區,中正東路與竿蓁二街口,新北市政府警察局,淡水分局,121.45243,25.16272,往臺北,50
新北市,淡水區,中正東路與坪頂路口,新北市政府警察局,淡水分局,121.45485,25.15961,往臺北,50
新北市,淡水區,中正東路與八勢路口,新北市政府警察局,淡水分局,121.45941,25.15328,往淡水,50
新北市,淡水區,臺2線與紅樹林捷運站前,新北市政府警察局,淡水分局,121.45947,25.15466,往臺北,50
新北市,新北市汐止區,汐萬路3段12.8K至14.3K,新北市政府警察局,汐止分局,121.6067,25.1271,往臺北,40
新北市,新北市汐止區,汐萬路3段11.7K至12.8K,新北市政府警察局,汐止分局,121.6095,25.1245,往臺北,40
新北市,新北市汐止區,汐萬路3段12.8K至14.3K,新北市政府警察局,汐止分局,121.6095,25.1245,往汐止,40
新北市,新北市汐止區,汐萬路3段6.2K至11.7K,新北市政府警察局,汐止分局,121.6159,25.1265,往臺北,40
新北市,新北市汐止區,汐萬路3段11.7K至12.8K,新北市政府警察局,汐止分局,121.6159,25.1265,往汐止,40
新北市,新北市汐止區,汐萬路3段6.2K至11.7K,新北市政府警察局,汐止分局,121.6352,25.111,往汐止,40
新北市,汐止區,大同路1段與樟樹二路口,新北市政府警察局,汐止分局,121.64021,25.05999,往汐止,50
新北市,汐止區,大同路1段與樟樹一路口,新北市政府警察局,汐止分局,121.64259,25.06111,往臺北,50
新北市,汐止區,臺5線14.4公里處,新北市政府警察局,汐止分局,121.65135,25.06157,往基隆,50
新北市,汐止區,臺5線15.86公里處,新北市政府警察局,汐止分局,121.66457,25.06671,往汐止,50
新北市,汐止區,大同路3段205號前,新北市政府警察局,汐止分局,121.67155,25.07699,往基隆,50
新北市,汐止區,新臺五路與茄苳路口,新北市政府警察局,汐止分局,121.674904,25.065943,往汐止,50
新北市,汐止區,臺5線17.68公里處,新北市政府警察局,汐止分局,121.68126,25.06842,往基隆或汐止,50
新北市,汐止區,大同路3段與保新路口,新北市政府警察局,汐止分局,121.68333,25.07278,往基隆,50
新北市,瑞芳區,楓仔瀨路瑞楓陸橋前臺2丁線5.95k,新北市政府警察局,瑞芳分局,121.77496,25.10369,往基隆,50
新北市,瑞芳區,臺2甲線4.9公里處,新北市政府警察局,瑞芳分局,121.77542,25.115238,往四腳亭,60
新北市,瑞芳區,臺62線下明燈路匝道,新北市政府警察局,瑞芳分局,121.79625,25.11272,往瑞芳,40
新北市,瑞芳區,臺62線快速公路16.83公里處,新北市政府警察局,瑞芳分局,121.80344,25.117428,往基隆,80
新北市,瑞芳區,臺62線快速公路16.95公里處,新北市政府警察局,瑞芳分局,121.80344,25.117428,往瑞芳,80
新北市,瑞芳區,中山路與東和街口,新北市政府警察局,瑞芳分局,121.80405,25.10624,往南,50
新北市,瑞芳區,臺2丁線與明燈路口,新北市政府警察局,瑞芳分局,121.80943,25.10765,往瑞芳,50
新北市,瑞芳區,臺2線72.4公里,新北市政府警察局,瑞芳分局,121.81608,25.12807,往宜蘭,50
新北市,瑞芳區,臺2線81公里欽賢國中旁,新北市政府警察局,瑞芳分局,121.81609,25.12807,往宜蘭,50
新北市,瑞芳區,臺2線78.4公里處與北34路口,新北市政府警察局,瑞芳分局,121.86391,25.122484,往貢寮,60
新北市,瑞芳區,臺2線81.2公里與南雅路,新北市政府警察局,瑞芳分局,121.88808,25.12077,往基隆,50
新北市,瑞芳區,臺2線84.6公里鼻頭隧道口,新北市政府警察局,瑞芳分局,121.91718,25.1212,往基隆,50
新北市,土城區,中央路4段與龍泉路口,新北市政府警察局,土城分局,121.40913,24.94975,往土城,50
新北市,土城區,擺接堡路與民權街,新北市政府警察局,土城分局,121.41591,24.9646,往板橋,50
新北市,土城區,擺接堡路與民權街口,新北市政府警察局,土城分局,121.41621,24.96472,往三峽,50
新北市,土城區,中央路3段與中興路口,新北市政府警察局,土城分局,121.42566,24.96286,往三峽,50
新北市,土城區,中央路3段與大安路,新北市政府警察局,土城分局,121.43242,24.965454,往土城交流道,50
新北市,土城區,擺接堡路2.5公里處與自強路口,新北市政府警察局,土城分局,121.43305,24.97264,往板橋,50
新北市,土城區,臺65線快速公路10.4公里,新北市政府警察局,土城分局,121.4378,24.980923,往土城,60
新北市,土城區,臺65線快速公路10.4公里,新北市政府警察局,土城分局,121.4378,24.980923,往板橋,60
新北市,土城區,擺接堡路1號裕德國小前,新北市政府警察局,土城分局,121.43934,24.983744,往土城或板橋,50
新北市,新北市土城區,土城區金城路1段62號,新北市政府警察局,土城分局,121.4425,24.9709,雙向,50
新北市,土城區,金城路2段27號前,新北市政府警察局,土城分局,121.44939,24.97739,往土城,50
新北市,土城區,城林橋頭,新北市政府警察局,土城分局,121.4508,24.97889,往土城,50
新北市,土城區,中華路1段與裕民路口,新北市政府警察局,土城分局,121.4508,24.97889,往中和,50
新北市,土城區,中華路2段與水源街口,新北市政府警察局,土城分局,121.4508,24.97889,往土城,50
新北市,土城區,金城路2段46巷口,新北市政府警察局,土城分局,121.45098,24.97919,往中和,50
新北市,蘆洲區,環堤大道與永樂街口,新北市政府警察局,蘆洲分局,121.45572,25.08899,雙向,50
新北市,蘆洲區,三民路與長榮路口,新北市政府警察局,蘆洲分局,121.46128,25.09364,往蘆洲,50
新北市,蘆洲區,環堤大道與民族路422巷口,新北市政府警察局,蘆洲分局,121.47416,25.09737,往五股,50
新北市,新北市五股區,五股區新五路2段572號,新北市政府警察局,蘆洲分局,121.4431,25.0859,往成泰路,50
新北市,五股區,新五路2段347號前,新北市政府警察局,蘆洲分局,121.44501,25.08844,往新莊或五股,50
新北市,五股區,新五路3段210號前,新北市政府警察局,蘆洲分局,121.44712,25.091421,往疏洪北路或新城八路,50
新北市,五股區,臺64線快速公路10.4公里,新北市政府警察局,蘆洲分局,121.4484,25.09222,往東,80
新北市,五股區,五股區疏洪一路1K+535,新北市政府警察局,蘆洲分局,121.4526,25.0839,雙向,50
新北市,新北市五股區,五股區成泰路4段43號前,新北市政府警察局,蘆洲分局,121.4555,25.1098,雙向,50
新北市,新北市泰山區,泰山區大科路686號前,新北市政府警察局,林口分局,121.3976,25.0597,往泰山,40
新北市,泰山區,大科路331之6號旁,新北市政府警察局,林口分局,121.40171,25.05661,往新莊,50
新北市,泰山區,泰林路3段370巷對面,新北市政府警察局,林口分局,121.41264,25.06889,往新莊,50
新北市,泰山區,公園路60號對面,新北市政府警察局,林口分局,121.42583,25.055712,往明志路,40
新北市,泰山區,新北大道6段85號,新北市政府警察局,林口分局,121.42754,25.037806,往台麗街,60
新北市,林口區,臺61線快速公路19.8公里處,新北市政府警察局,林口分局,121.30524,25.122051,往八里,90
新北市,林口區,文化北路一段與忠孝一路口,新北市政府警察局,林口分局,121.36106,25.073347,往八里,50
新北市,林口區,臺61線快速公路14公里處,新北市政府警察局,林口分局,121.361244,25.133865,往八里,90
新北市,新北市林口區,文化三路1段249巷旁,新北市政府警察局,林口分局,121.3634,25.0712,往林口,50
新北市,林口區,文化北路1段492巷口新北市特殊教育學校前,新北市政府警察局,林口分局,121.3659,25.078018,往八里,50
新北市,林口區,中山路與中原街口,新北市政府警察局,林口分局,121.365906,25.078018,往林口,50
新北市,林口區,文化二路與仁愛二路口,新北市政府警察局,林口分局,121.37455,25.076698,往八里,50
新北市,林口區,文化二路1段571號,新北市政府警察局,林口分局,121.375435,25.077879,往仁愛路2段,50
新北市,林口區,文化一路1段與麗園一街口,新北市政府警察局,林口分局,121.3755,25.07277,往林口,50
新北市,林口區,文化北路2段與寶林路口,新北市政府警察局,林口分局,121.375755,25.08959,往八里,50
新北市,林口區,文化三路2段328號前,新北市政府警察局,林口分局,121.37809,25.08505,往八里,50
新北市,林口區,中山路562號,新北市政府警察局,林口分局,121.37872,25.083277,往文化三路2段,50
新北市,林口區,文化一路與竹林一路口,新北市政府警察局,林口分局,121.385574,25.085184,往八里,50
新北市,林口區,仁愛路1段691號前與竹林路口,新北市政府警察局,林口分局,121.3864,25.07677,往林口,50
新北市,深坑區,文山路三段16之1號前,新北市政府警察局,新店分局,121.5646,24.98839,往臺北,60
新北市,深坑區,106乙線0.5公里,新北市政府警察局,新店分局,121.60351,24.99938,往深坑,60
新北市,新北市深坑區,106乙線文山路2段喜樂橋頭,新北市政府警察局,新店分局,121.6216,25.0001,往石碇,60
新北市,深坑區,深坑區深南路與風格街口,新北市政府警察局,新店分局,121.6256,25.0165,往南港或深坑,40
新北市,深坑區,文山路2段30巷口,新北市政府警察局,新店分局,121.62653,24.99899,往臺北,60
新北市,新北市深坑區,文山路1段與旺躭路45巷口,新北市政府警察局,新店分局,121.6275,25.0023,往石碇,60
新北市,新北市深坑區,文山路1段與北深路1段229巷口,新北市政府警察局,新店分局,121.6314,25.0062,往臺北,60
新北市,石碇區,北宜路4段6號(21.3公里),新北市政府警察局,新店分局,121.6139,24.961,往坪林,40
新北市,新北市石碇區,臺9線23.1K至26.2K,新北市政府警察局,新店分局,121.6235,24.957,往宜蘭,40
新北市,石碇區,北宜路5段67號前,新北市政府警察局,新店分局,121.63567,24.954155,往新店,40
新北市,石碇區,臺9線26.2公里,新北市政府警察局,新店分局,121.6478,24.95029,往坪林或新店,40
新北市,新北市石碇區,臺9線23.1K至26.2K,新北市政府警察局,新店分局,121.648,24.95,往新店,40
新北市,新北市石碇區,臺9線26.2K至32.2K,新北市政府警察局,新店分局,121.648,24.95,往宜蘭,40
新北市,石碇區,106線靜安路1段356號前,新北市政府警察局,新店分局,121.64866,25.00944,往深坑或平溪,40
新北市,石碇區,106線靜安路1段236號前,新北市政府警察局,新店分局,121.657745,25.006935,往平溪,40
新北市,新北市坪林區,臺9線26.2K至32.2K,新北市政府警察局,新店分局,121.6708,24.9434,往新店,40
新北市,新北市坪林區,臺9線32.2K至33.3K,新北市政府警察局,新店分局,121.6708,24.9434,往宜蘭,40
新北市,新北市坪林區,臺9線32.2K至33.3K,新北市政府警察局,新店分局,121.6771,24.9383,往新店,40
新北市,新北市坪林區,臺9線33.3K至37.2K,新北市政府警察局,新店分局,121.6771,24.9383,往宜蘭,40
新北市,新北市坪林區,臺9線33.3K至37.2K,新北市政府警察局,新店分局,121.7035,24.936,往新店,40
新北市,新北市坪林區,臺9線37.2K至42.2K,新北市政府警察局,新店分局,121.7035,24.936,往宜蘭,40
新北市,坪林區,臺9線37.3公里,新北市政府警察局,新店分局,121.70452,24.93552,往宜蘭,40
新北市,坪林區,臺9線38公里,新北市政府警察局,新店分局,121.71017,24.93531,往坪林,40
新北市,新北市坪林區,臺9線37.2K至42.2K,新北市政府警察局,新店分局,121.7168,24.9108,往新店,40
新北市,新北市坪林區,臺9線42.2K至48.4K,新北市政府警察局,新店分局,121.7168,24.9108,往宜蘭,40
新北市,坪林區,臺9線42.2公里,新北市政府警察局,新店分局,121.71682,24.91096,往宜蘭或坪林,40
新北市,新北市坪林區,臺9線42.2K至48.4K,新北市政府警察局,新店分局,121.7441,24.8916,往新店,40
新北市,新北市坪林區,臺9線48.4K至56.3K,新北市政府警察局,新店分局,121.7441,24.8916,往宜蘭,40
新北市,新北市坪林區,臺9線48.4K至56.3K,新北市政府警察局,新店分局,121.7737,24.8666,往新店,40
新北市,三芝區,三芝區臺2線淡金公路5段屯山國小前,新北市政府警察局,淡水分局,121.45681,25.23803,往淡水,60
新北市,三芝區,臺2線14.5公里與大片頭前,新北市政府警察局,淡水分局,121.45966,25.24675,往金山,70
新北市,三芝區,臺2線與海景街口,新北市政府警察局,淡水分局,121.47009,25.25102,往石門,60
新北市,三芝區,臺2線與海景街口,新北市政府警察局,淡水分局,121.47048,25.25127,往淡水,60
新北市,三芝區,臺2線18.05公里處,新北市政府警察局,淡水分局,121.48618,25.26219,往金山,70
新北市,三芝區,臺2線18.8公里處,新北市政府警察局,淡水分局,121.49248,25.26003,往淡水,50
新北市,三芝區,臺2線19.7公里與埔頭坑路口,新北市政府警察局,淡水分局,121.50133,25.26166,往臺北,50
新北市,石門區,臺2線22.5公里北觀處,新北市政府警察局,金山分局,121.52016,25.282724,往金山,70
新北市,石門區,臺2線27.5公里(石門加油站前),新北市政府警察局,金山分局,121.56132,25.29087,往金山,50
新北市,石門區,臺2線27.9公里與石門國中前,新北市政府警察局,金山分局,121.56444,25.29096,往金山,50
新北市,石門區,臺2線28.5公里處,新北市政府警察局,金山分局,121.56831,25.29364,往淡水,50
新北市,八里區,臺15線中山路3段383號前,新北市政府警察局,蘆洲分局,121.37247,25.13779,往八里,50
新北市,八里區,中山路3段與下罟子漁港路口,新北市政府警察局,蘆洲分局,121.38171,25.140436,往八里,50
新北市,八里區,中山路3段112號前,新北市政府警察局,蘆洲分局,121.39,25.142183,往八里或往林口,50
新北市,八里區,中華路3段236號長坑國小前,新北市政府警察局,蘆洲分局,121.39082,25.125595,往八里,40
新北市,八里區,臺64線快速公路2.85公里,新北市政府警察局,蘆洲分局,121.40382,25.12744,往西,60
新北市,八里區,中華路2段165巷(往龍米路3段),新北市政府警察局,蘆洲分局,121.407,25.15088,往龍米路3段,50
新北市,八里區,中山路1段與忠八街口,新北市政府警察局,蘆洲分局,121.419426,25.159758, 往中山路2段,40
新北市,八里區,省道台64線西向1.6K至5.4K,新北市政府警察局,蘆洲分局,121.4219,25.1116,往西,80
新北市,八里區,中華路1段與中山路口,新北市政府警察局,蘆洲分局,121.42313,25.15879,往臺北,50
新北市,八里區,龍米路3段48-51號,新北市政府警察局,蘆洲分局,121.42549,25.15932,往中山路,50
新北市,八里區,龍米路2段與觀海大道口,新北市政府警察局,蘆洲分局,121.42912,25.15905,往中華路,50
新北市,八里區,龍米路2段與渡船頭街口(往中山路),新北市政府警察局,蘆洲分局,121.43447,25.158358,往中山路,50
新北市,八里區,龍米路2段153之3號前,新北市政府警察局,蘆洲分局,121.4407,25.1531,往八里,50
新北市,八里區,龍米路2段第391033號燈桿前,新北市政府警察局,蘆洲分局,121.44286,25.15061,往臺北或八里,50
新北市,八里區,龍米路2段米倉國小前,新北市政府警察局,蘆洲分局,121.44574,25.14726,往八里,50
新北市,八里區,龍米路1段聖心女中前,新北市政府警察局,蘆洲分局,121.45009,25.13583,往臺北,50
新北市,八里區,龍米路1段與龍形一街,新北市政府警察局,蘆洲分局,121.45138,25.13019,往八里,50
新北市,八里區,龍米路1段與龍形三街口,新北市政府警察局,蘆洲分局,121.45154,25.13205,往臺北,50
新北市,八里區,龍米路1段90巷口,新北市政府警察局,蘆洲分局,121.45458,25.12329,往八里,50
新北市,八里區,龍米路一段65巷口,新北市政府警察局,蘆洲分局,121.45556,25.121183,往五股,50
新北市,八里區,龍米路1段2之1號旁,新北市政府警察局,蘆洲分局,121.45757,25.11525,往八里,50
新北市,雙溪區,臺2丙線12.7公里,新北市政府警察局,瑞芳分局,121.79376,25.01914,往雙溪,50
新北市,雙溪區,臺2丙線17公里,新北市政府警察局,瑞芳分局,121.830345,25.02876,往雙溪,60
新北市,雙溪區,雙溪區臺2丙線過港隧道與中山路口,新北市政府警察局,瑞芳分局,121.86508,25.032803,往貢寮,40
新北市,貢寮區,臺2丙線25.95公里處(泮宮路45號),新北市政府警察局,瑞芳分局,121.90777,25.017883,往宜蘭,50
新北市,貢寮區,臺2線91公里,新北市政府警察局,瑞芳分局,121.91446,25.07952,往宜蘭或瑞芳,60
新北市,貢寮區,臺2線與仁愛路口,新北市政府警察局,瑞芳分局,121.92373,25.05334,往瑞芳,50
新北市,貢寮區,臺2線與仁愛路口,新北市政府警察局,瑞芳分局,121.9239,25.05363,往宜蘭,50
新北市,貢寮區,臺2線96.55公里處,新北市政府警察局,瑞芳分局,121.92655,25.04003,往宜蘭或基隆,60
新北市,貢寮區,臺2線100.2公里處,新北市政府警察局,瑞芳分局,121.94097,25.01935,往宜蘭,50
新北市,新北市貢寮區,貢寮區臺2線112.1公里,新北市政府警察局,瑞芳分局,121.9794,24.9928,往宜蘭,50
新北市,貢寮區,臺2線104.6公里處,新北市政府警察局,瑞芳分局,121.98017,25.02287,往宜蘭或瑞芳,50
新北市,金山區,臺2線35.3公里處,新北市政府警察局,金山分局,121.62368,25.27129,往金山,70
新北市,金山區,臺2甲線0.9公里處,新北市政府警察局,金山分局,121.62376,25.21971,往金山或往臺北,50
新北市,金山區,臺2線38.9公里處(海興路93號旁),新北市政府警察局,金山分局,121.63158,25.239101,往金山,60
新北市,金山區,臺2線與陽金公路口,新北市政府警察局,金山分局,121.63168,25.22149,往萬里,70
新北市,金山區,臺2線42.5公里處,新北市政府警察局,金山分局,121.63982,25.21736,往萬里,60
新北市,萬里區,臺2線43.5公里處大鵬派出所前,新北市政府警察局,金山分局,121.6465,25.21225,往基隆,50
新北市,萬里區,萬里區臺2線大鵬國小對面,新北市政府警察局,金山分局,121.65275,25.20877,往金山,60
新北市,萬里區,臺2線47.1公里萬里隧道出口處,新北市政府警察局,金山分局,121.6776,25.20037,往金山,50
新北市,新北市萬里區,萬里隧道,新北市政府警察局,金山分局,121.6777,25.2004,往萬里,50
新北市,萬里區,臺2線48.3公里萬里隧道出口處,新北市政府警察局,金山分局,121.68391,25.19181,往基隆,50
新北市,新北市萬里區,萬里隧道,新北市政府警察局,金山分局,121.6843,25.1922,往金山,50
新北市,萬里區,臺2線49.5公里處,新北市政府警察局,金山分局,121.68742,25.18376,往金山,60
臺中市,中區,公園路與中華路二段路口,臺中市政府警察局,第一分局,120.67897,24.147018,東向西,50
臺中市,中區,建國路與民權路口,臺中市政府警察局,第一分局,120.68188,24.135622,西向東,50
臺中市,東區,東區建成路521號前,臺中市政府警察局,,120.69571,24.134548,雙向,50
臺中市,東區,東區旱溪西路二段17巷口,臺中市政府警察局,,120.69949,24.149633,南向北,50
臺中市,東區,環中東路四段與樂業路口,臺中市政府警察局,第三分局,120.70936,24.135723,北向南,50
臺中市,南區,南區復興路一段129號前,臺中市政府警察局,,120.6484,24.111053,東向西,60
臺中市,南區,復興路一段與工學路口,臺中市政府警察局,第三分局,120.658005,24.117344,西向東,50
臺中市,南區,南區文心南路930號前,臺中市政府警察局,,120.660736,24.110003,北向南,60
臺中市,南區,南區南平路97號前,臺中市政府警察局,,120.66404,24.12225,雙向,50
臺中市,南區,國光路與南門路口,臺中市政府警察局,第三分局,120.67933,24.122667,北向南,50
臺中市,南區,南區忠明南路1265號前,臺中市政府警察局,,120.68229,24.119066,雙向,50
臺中市,西區,西區忠明南路與忠明南路326巷口,臺中市政府警察局,,120.657326,24.13757,雙向,50
臺中市,西區,忠明南路口與民生路口,臺中市政府警察局,第一分局,120.65734,24.14457,北向南,50
臺中市,西區,臺灣大道二段與忠明路口,臺中市政府警察局,第一分局,120.6599,24.156784,東向西,60
臺中市,西區,西區建國北路二段101號前,臺中市政府警察局,,120.66449,24.128283,雙向,50
臺中市,西區,五權路與英才路口,臺中市政府警察局,第一分局,120.66702,24.141409,東向西,50
臺中市,北區,進化北路與學士路口,臺中市政府警察局,第二分局,120.68129,24.16301,東向西,50
臺中市,北區,三民路三段與育才街口(往公園路方向),臺中市政府警察局,第二分局,120.684265,24.150146,北向南,50
臺中市,北區,崇德路一段與太原路二段路口,臺中市政府警察局,第二分局,120.6851,24.165606,北向南,50
臺中市,北區,三民路三段與崇德路一段路口(往五權路方向),臺中市政府警察局,第二分局,120.68655,24.154957,東向西,50
臺中市,北區,北區東光路270號前,臺中市政府警察局,,120.69855,24.152458,北向南,50
臺中市,西屯區,西屯區都會園路(往西屯路距都會公園1.35公里),臺中市政府警察局,,120.59475,24.196201,北向南,50
臺中市,西屯區,西屯區臺灣大道四段2088號前(往市區),臺中市政府警察局,,120.5978,24.1819,西向東,50
臺中市,西屯區,台灣大道四段與東大路一段路口(往市區),臺中市政府警察局,第六分局,120.6022,24.1827,西向東,50
臺中市,西屯區,西屯區臺灣大道四段近東大路一段(側門慢車道),臺中市政府警察局,,120.60272,24.182938,西向東,40
臺中市,西屯區,西屯區東大路一段450號前往西屯路三段方向,臺中市政府警察局,,120.60414,24.18653,南向北,50
臺中市,西屯區,科園路29號,保二總隊,保二三大隊,120.60799,24.203812,西往東,40
臺中市,西屯區,臺中市西屯區東大路一段與中科路口(超速及闖紅燈),保二總隊,保二三大隊,120.61238,24.209778,南往北,60
臺中市,西屯區,西屯區西屯路三段261號前,臺中市政府警察局,,120.6128,24.1901,西向東,50
臺中市,西屯區,西屯區福科路617號前往福林路方向中央分隔島,臺中市政府警察局,,120.61284,24.186693,西向東,50
臺中市,西屯區,安和路1號前,臺中市政府警察局,第六分局,120.617775,24.16113,北向南,50
臺中市,西屯區,臺灣大道四段與中工三路口,臺中市政府警察局,第六分局,120.619835,24.181044,西向東,50
臺中市,西屯區,西屯區安和路99-38號前,臺中市政府警察局,,120.62116,24.171976,南向北,50
臺中市,西屯區,福雅路與西林巷口,臺中市政府警察局,第六分局,120.627754,24.201817,北向南,50
臺中市,西屯區,環中路三段(龍洋巷50-15號前),臺中市政府警察局,第六分局,120.63082,24.167393,南北雙向,60
臺中市,西屯區,西屯區市政路123號前,臺中市政府警察局,,120.63997,24.158367,西向東,60
臺中市,西屯區,台灣大道三段與河南路三段路口(往市區),臺中市政府警察局,第六分局,120.640724,24.164879,西向東,60
臺中市,西屯區,西屯區環中路二段766號,臺中市政府警察局,,120.64267,24.19317,南向北,60
臺中市,西屯區,西屯區黎明路三段與僑大五路口,臺中市政府警察局,,120.64392,24.191656,東向西,50
臺中市,西屯區,西屯區中彰快速道路12.7K(往烏日方向),臺中市政府警察局,,120.644775,24.194983,東向西,80
臺中市,西屯區,西屯區中彰快速道路13.3K(往中清路方向),臺中市政府警察局,,120.650085,24.197182,西向東,80
臺中市,西屯區,中清路二段與環中路一段路口(往大雅區),臺中市政府警察局,第六分局,120.65583,24.199211,南向北,50
臺中市,西屯區,河南路二段與長安路二段路口,臺中市政府警察局,第六分局,120.66065,24.172567,北向南,50
臺中市,南屯區,向上路五段往龍井區方向(距五權西路1.2K處),臺中市政府警察局,第四分局,120.58719,24.161362,東向西,60
臺中市,南屯區,向上路五段(往市區距離精科路360公尺),臺中市政府警察局,第四分局,120.60441,24.151878,西向東,60
臺中市,南屯區,南屯區永春南路148號前,臺中市政府警察局,,120.60922,24.138643,西向東,50
臺中市,南屯區,南屯區五權西路三段225-7號前,臺中市政府警察局,,120.611015,24.154503,雙向,50
臺中市,南屯區,南屯區中彰快速道路4.8K,臺中市政府警察局,,120.619804,24.129442,雙向,80
臺中市,南屯區,環中路三段與五權西路二段口,臺中市政府警察局,第四分局,120.6232,24.149775,北向南,40
臺中市,南屯區,南屯區環中路四段56-8號,臺中市政府警察局,,120.62328,24.147081,雙向,60
臺中市,南屯區,環中路四段與向上路三段路口,臺中市政府警察局,第四分局,120.623505,24.144829,南向北,40
臺中市,南屯區,南屯區向上路三段418號前,臺中市政府警察局,,120.62725,24.145042,西向東,50
臺中市,南屯區,南屯區環中路四段643號前,臺中市政府警察局,,120.62967,24.12745,北向南,60
臺中市,南屯區,南屯區五權西路二段1001號前,臺中市政府警察局,,120.630356,24.146921,雙向,50
臺中市,南屯區,永春東路1387號前,臺中市政府警察局,第四分局,120.630775,24.13873,西向東,50
臺中市,南屯區,南屯區永春東路1392號對面,臺中市政府警察局,,120.630974,24.138615,西向東,50
臺中市,南屯區,公益路二段與文心路一段路口,臺中市政府警察局,第四分局,120.647316,24.150768,東向西,50
臺中市,北屯區,松竹路三段與后庄路口,臺中市政府警察局,第五分局,120.67149,24.192783,東向西,50
臺中市,北屯區,北屯區四平路仁愛公園旁,臺中市政府警察局,,120.674286,24.181917,西向東,50
臺中市,北屯區,崇德路二段與文心路四段路口,臺中市政府警察局,第五分局,120.68546,24.172531,北向南,50
臺中市,北屯區,北屯區崇德路三段938號前,臺中市政府警察局,,120.6867,24.203175,雙向,60
臺中市,北屯區,太原路三段與旱溪東路三段路口,臺中市政府警察局,第五分局,120.706024,24.164804,東向西,60
臺中市,北屯區,北屯區旱溪東路三段48號前,臺中市政府警察局,,120.71065,24.176659,北向南,50
臺中市,北屯區,北屯區太原路三段1027-1號前,臺中市政府警察局,,120.71781,24.163551,西向東,60
臺中市,北屯區,北屯區軍功路二段571號前,臺中市政府警察局,,120.71834,24.188057,北向南,50
臺中市,北屯區,環中東路三段與太原路三段路口(下閘道及慢車道往太平),臺中市政府警察局,第五分局,120.71938,24.163439,北向南,40
臺中市,北屯區,北屯區松竹路一段360號前(往環中東路一段方向),臺中市政府警察局,,120.72484,24.180975,東向西,50
臺中市,北屯區,北屯區廍子路456號前,臺中市政府警察局,,120.73345,24.167746,南向北,50
臺中市,北屯區,北屯區祥順路二段398號前,臺中市政府警察局,,120.73518,24.176296,北向南,50
臺中市,北屯區,北屯區廍子路與廍子路700巷口,臺中市政府警察局,,120.73828,24.176615,東向西,50
臺中市,北屯區,北屯區東山路二段151-3號前,臺中市政府警察局,,120.76548,24.198912,東向西,50
臺中市,豐原區,豐原區豐原大道八段(愛心紀念公園前),臺中市政府警察局,,120.706635,24.24755,南北雙向,60
臺中市,豐原區,豐原區國豐路一段501號,臺中市政府警察局,,120.71295,24.277452,西向東,50
臺中市,豐原區,圓環北路二段與大順街口,臺中市政府警察局,豐原分局,120.72356,24.26045,西向東,50
臺中市,豐原區,豐原區豐原大道六段516號前,臺中市政府警察局,,120.72574,24.264332,東向西,60
臺中市,豐原區,豐原區豐原大道四段近379號前,臺中市政府警察局,,120.7364,24.24755,東向西,60
臺中市,豐原區,豐勢路二段與豐年路口,臺中市政府警察局,豐原分局,120.736855,24.261272,北向南,50
臺中市,豐原區,豐勢路二段與萬順一街口,臺中市政府警察局,豐原分局,120.75961,24.277002,北向南,50
臺中市,東勢區,東勢區東蘭路(台3線152.3K),臺中市政府警察局,,120.79997,24.291922,北向南,60
臺中市,東勢區,東關路六段與新盛街口,臺中市政府警察局,東勢分局,120.834564,24.237774,西向東,60
臺中市,東勢區,東關路六段199巷口,臺中市政府警察局,東勢分局,120.83711,24.221622,西向東,60
臺中市,東勢區,東勢區東關路六段近262巷,臺中市政府警察局,,120.83718,24.222034,東向西,60
臺中市,大甲區,大甲區中山路一段近東安路處,臺中市政府警察局,,120.608826,24.32607,南向北,70
臺中市,大甲區,經國路與光明路口,臺中市政府警察局,大甲分局,120.61697,24.347183,北向南,60
臺中市,大甲區,經國路與育英路口,臺中市政府警察局,大甲分局,120.61876,24.35378,南向北,60
臺中市,大甲區,經國路與和平路口,臺中市政府警察局,大甲分局,120.6228,24.356602,北向南,60
臺中市,大甲區,中山路二段與幼獅路口,臺中市政府警察局,大甲分局,120.64362,24.408592,南向北,70
臺中市,大甲區,經國路與通天路口,臺中市政府警察局,大甲分局,120.651505,24.382694,北向南,70
臺中市,清水區,環港北路190燈桿(高美濕地景觀橋旁),臺中港警總隊,,120.54493,24.301151,南向北,50
臺中市,清水區,臨港路六段與港埠路五段路口,臺中市政府警察局,清水分局,120.55248,24.294132,北向南,70
臺中市,清水區,臨港路六段與高美路口,臺中市政府警察局,清水分局,120.56402,24.296701,南向北,70
臺中市,清水區,中清路九段91巷口,臺中市政府警察局,清水分局,120.56481,24.271301,東向西,60
臺中市,清水區,臺61線快速道路148.1K至156.4K,臺中市政府警察局,,120.56591,24.320395,北向南,90
臺中市,清水區,中華路與鰲峰路口,臺中市政府警察局,清水分局,120.566574,24.267813,南向北,70
臺中市,清水區,中華路與高美路口,臺中市政府警察局,清水分局,120.57553,24.27849,北向南,70
臺中市,清水區,清水區臨港路七段(台17線近1K處),臺中市政府警察局,,120.58682,24.303308,東向西,70
臺中市,清水區,清水區中山路553號前,臺中市政府警察局,,120.58764,24.291664,北向南,70
臺中市,沙鹿區,沙鹿區向上路七段近321號,臺中市政府警察局,,120.559746,24.210121,東向西,60
臺中市,沙鹿區,臺灣大道七段與七賢路口,臺中市政府警察局,清水分局,120.56767,24.238121,西向東,60
臺中市,沙鹿區,沙鹿區向上路六段752號前(龍井交流道),臺中市政府警察局,,120.56995,24.201292,東向西,50
臺中市,沙鹿區,沙鹿區臺灣大道七段466號前,臺中市政府警察局,,120.57241,24.232698,東向西,60
臺中市,沙鹿區,沙鹿區中清路七段(台10線5.5K),臺中市政府警察局,,120.57488,24.253681,西向東,60
臺中市,沙鹿區,臺灣大道七段(台12線6.4k)(靜宜大學),臺中市政府警察局,清水分局,120.5771,24.2254,東向西,60
臺中市,沙鹿區,臺灣大道六段(台12線7.4k)(弘光科技大學),臺中市政府警察局,清水分局,120.580826,24.216763,東向西,60
臺中市,沙鹿區,沙鹿區中清路七段(台10線6.7K),臺中市政府警察局,,120.58471,24.25025,東向西,60
臺中市,沙鹿區,沙鹿區中清路六段(台10線9.2K),臺中市政府警察局,,120.60923,24.24623,東向西,70
臺中市,梧棲區,中二路3k+587處(建新物流專區旁),臺中港務警察總隊,,120.52082,24.252245,北向南,60
臺中市,梧棲區,中二路與臺灣大道10段路口,臺中港務警察總隊,,120.52259,24.255108,東向西,50
臺中市,梧棲區,臺61線快速道路157.8K至151.6K,臺中市政府警察局,,120.52294,24.218498,南向北,90
臺中市,梧棲區,港埠路二段與大智路二段路口,臺中市政府警察局,清水分局,120.53942,24.258165,北向南,60
臺中市,梧棲區,梧棲區中華路一段(台1線168.5K),臺中市政府警察局,,120.548325,24.236662,北向南,70
臺中市,后里區,臺中市西屯區東大路一段與中科路口,保二總隊,保二三大隊,120.61238,24.209778,南往北,60
臺中市,后里區,三豐路三段(正隆紙廠)前,臺中市政府警察局,大甲分局,120.72255,24.284721,北向南,60
臺中市,后里區,后科路三段2號(后里園區汙水處理廠),保二總隊,保二三大隊,120.72295,24.321606,西往東,50
臺中市,后里區,后里區三豐路三段與枋寮路口,臺中市政府警察局,,120.723434,24.29135,北向南,60
臺中市,后里區,后里區三豐路五段(中社花市前),臺中市政府警察局,,120.7308,24.33512,北向南,60
臺中市,后里區,后科路二段(盟力公司),保二總隊,保二三大隊,120.7323,24.3199,西往東,50
臺中市,神岡區,神岡區民生路122號前(台10線17.4K),臺中市政府警察局,,120.675,24.240812,東西雙向,60
臺中市,神岡區,神岡區崇德路3之1號前,臺中市政府警察局,,120.69065,24.22982,南北雙向,60
臺中市,潭子區,崇德路四段與雅潭路口,臺中市政府警察局,豐原分局,120.68834,24.21576,南向北,60
臺中市,潭子區,潭子區中山路一段261號前,臺中市政府警察局,,120.70297,24.198017,北向南,60
臺中市,潭子區,中山路二段與潭子街一段路口,臺中市政府警察局,豐原分局,120.70532,24.210285,北向南,60
臺中市,潭子區,中山路三段與祥和路口,臺中市政府警察局,豐原分局,120.70861,24.22941,南向北,60
臺中市,潭子區,潭子區中彰快速道路19.4K(往烏日方向),臺中市政府警察局,,120.70975,24.20075,東向西,80
臺中市,潭子區,潭子區中彰快速道路19.4K(往太平方向),臺中市政府警察局,,120.70982,24.200447,西向東,80
臺中市,潭子區,潭子區豐興路二段(中89線4.2K),臺中市政府警察局,,120.72174,24.209267,北向南,50
臺中市,潭子區,潭子區豐興路二段(中89線3.96K北上),臺中市政府警察局,,120.72229,24.210611,南向北,50
臺中市,大雅區,中部科學工業園區中科路近科雅東路口,保二總隊,保二第三大隊,120.62186,24.207615,西往東,60
臺中市,大雅區,大雅區中科路1088號前往永和路方向快慢分隔島,臺中市政府警察局,,120.63207,24.205421,東向西,60
臺中市,大雅區,大雅區雅潭路三段與雅潭路三段400巷口(橋上),臺中市政府警察局,,120.67085,24.215734,東向西,50
臺中市,石岡區,明德路與大勇街口,臺中市政府警察局,東勢分局,120.773125,24.27559,北向南,70
臺中市,石岡區,石岡區明德路68之2號前,臺中市政府警察局,,120.77903,24.27415,北向南,70
臺中市,石岡區,石岡區豐勢路與廣華街口,臺中市政府警察局,,120.78272,24.275433,北向南,70
臺中市,石岡區,豐勢路與萬仙街口,臺中市政府警察局,東勢分局,120.79112,24.27301,西向東,70
臺中市,烏日區,中山路三段與高鐵東路口(往市區方向),臺中市政府警察局,烏日分局,120.36817,24.06411,西向東,70
臺中市,烏日區,烏日區環中路八段599號前,臺中市政府警察局,,120.38841,24.0466,南北雙向,60
臺中市,烏日區,烏日區中山路三段917號前,臺中市政府警察局,,120.59575,24.11225,西向東,70
臺中市,烏日區,中山路三段與學田路口,臺中市政府警察局,烏日分局,120.60754,24.108591,北向南,70
臺中市,烏日區,烏日區環河路二段(近春源鋼鐵公司),臺中市政府警察局,,120.637,24.09453,東西雙向,60
臺中市,烏日區,環中路八段與褔泰街口,臺中市政府警察局,烏日分局,120.647896,24.086382,北向南,60
臺中市,烏日區,環中路六段與光明路口,臺中市政府警察局,烏日分局,120.6498,24.10689,北向南,50
臺中市,烏日區,環中路七段與勤農巷口,臺中市政府警察局,烏日分局,120.65213,24.10482,南向北,50
臺中市,大肚區,沙田路三段889巷路口,臺中市政府警察局,烏日分局,120.542145,24.169611,北向南,70
臺中市,大肚區,自由路與仁德路口,臺中市政府警察局,烏日分局,120.54904,24.146513,南向北,70
臺中市,龍井區,環港南路81至82號燈桿間(台中發電廠南側),臺中港警總隊,,120.48009,24.208727,西向東,50
臺中市,龍井區,中南一路6K+222公尺處(中龍鋼鐵旁),臺中港警總隊,,120.497734,24.220963,南向北,50
臺中市,龍井區,龍井區西濱路二段與臨港東路二段路口,臺中市政府警察局,烏日分局,120.51382,24.198784,北向南,60
臺中市,龍井區,龍井區向上路八段與193巷口處,臺中市政府警察局,,120.537636,24.219357,東向西,60
臺中市,龍井區,龍井區中華路二段480號前,臺中市政府警察局,,120.53984,24.208696,南向北,70
臺中市,龍井區,中華路一段與茄投路口,臺中市政府警察局,烏日分局,120.54306,24.176163,北向南,70
臺中市,龍井區,龍井區中華路一段(台1線175.5k),臺中市政府警察局,,120.54362,24.178783,南向北,70
臺中市,龍井區,龍井區向上路6段與中興路口至沙鹿區向上路6段與自立路口,臺中市政府警察局,,120.57346,24.18763,東往西,50
臺中市,龍井區,中興路東端路口,臺中市政府警察局,烏日分局,120.57871,24.187832,南向北,60
臺中市,龍井區,龍井區向上路六段(中136線10.2K),臺中市政府警察局,,120.57916,24.176645,東向西,60
臺中市,龍井區,龍井區臺灣大道六段與水裡社路口處(台12線10.1K),臺中市政府警察局,,120.57993,24.192793,東向西,70
臺中市,霧峰區,霧峰區中正路569-9號前,臺中市政府警察局,,120.41613,24.02899,南向北,70
臺中市,霧峰區,中正路與吉峰路口(往大里方向),臺中市政府警察局,霧峰分局,120.41993,24.04543,南向北,50
臺中市,霧峰區,霧峰區環河路一段702號,臺中市政府警察局,,120.65812,24.087242,東向西,60
臺中市,霧峰區,霧峰區中投公路11.4K(南下),臺中市政府警察局,,120.68192,24.037436,北向南,70
臺中市,霧峰區,霧峰區中投公路11.5K(北上),臺中市政府警察局,,120.68279,24.036856,南向北,70
臺中市,太平區,中彰快速道路東平路匝道口,臺中市政府警察局,太平分局,120.70977,24.1347,南向北,40
臺中市,太平區,太平區中彰快速道路27.5K(往大里方向),臺中市政府警察局,,120.70988,24.136902,北向南,80
臺中市,太平區,環中東路四段與十甲路口,臺中市政府警察局,太平分局,120.712036,24.14412,南向北,50
臺中市,太平區,太平區中彰快速道路25.9K(往潭子方向),臺中市政府警察局,,120.71485,24.149885,南向北,80
臺中市,太平區,太平區環中東路三段(育才路與樹孝路67巷間),臺中市政府警察局,,120.71678,24.154285,北向南,50
臺中市,太平區,太平區祥順路一段310號前,臺中市政府警察局,,120.72522,24.15363,南北雙向,50
臺中市,大里區,大里區環河路一段188號(中來水泥廠前),臺中市政府警察局,,120.40692,24.0522,東向西,60
臺中市,大里區,大里區國光路二段505號前,臺中市政府警察局,,120.40746,24.0669,北向南,50
臺中市,大里區,大里區國光路一段72號前,臺中市政府警察局,,120.41064,24.05835,南向北,50
臺中市,大里區,德芳南路口與環中東路六段路口,臺中市政府警察局,霧峰分局,120.41471,24.06039,西向東,60
臺中市,大里區,大里區中投公路4.5K(南下),臺中市政府警察局,,120.66426,24.089636,北向南,70
臺中市,大里區,大里區中投公路4.4K(北上),臺中市政府警察局,,120.66457,24.09063,南向北,70
臺中市,大里區,文心南路與福德路口,臺中市政府警察局,霧峰分局,120.665726,24.106167,西向東,60
臺南市,新營區,長榮路與三興街口172線20.05公里,臺南市政府警察局,新營分局,120.300354,23.319435,東向,50
臺南市,新營區,臺1線290.3公里與東山路口,臺南市政府警察局,新營分局,120.32573,23.308907,北向,50
臺南市,新營區,南314線1公里,臺南市政府警察局,新營分局,120.3359,23.309875,雙向,50
臺南市,鹽水區,飯店里臺19線110.3公里,臺南市政府警察局,新營分局,120.20978,23.263838,雙向,70
臺南市,鹽水區,歡雅里臺19線105.6公里,臺南市政府警察局,新營分局,120.241684,23.29279,北向,50
臺南市,白河區,臺1線281.7公里處後壁陸橋北端,臺南市政府警察局,白河分局,120.36489,23.374134,雙向,70
臺南市,白河區,臺1線279.9公里與南91線路口,臺南市政府警察局,白河分局,120.37534,23.388468,北向,70
臺南市,柳營區,長榮路四段近2.8公里處,臺南市政府警察局,新營分局,120.2939,23.282194,雙向,60
臺南市,柳營區,臺1線294.1公里,臺南市政府警察局,新營分局,120.32532,23.27626,雙向,70
臺南市,東山區,165線18.82公里,臺南市政府警察局,白河分局,120.400185,23.310371,雙向,50
臺南市,東山區,曾文水庫道路7公里,保七總隊,保七第二大隊,120.51807,23.24088,西向東方向,40
臺南市,東山區,曾文水庫道路7.5K公里,保七總隊,保七第二大隊,120.52249,23.24212,雙向(東往西、西往東),40
臺南市,東山區,曾文水庫道路8.1公里,保七總隊,保七第二大隊,120.52639,23.24631,東向西方向,40
臺南市,麻豆區,176線16.9公里麻豆口路口,臺南市政府警察局,麻豆分局,120.21999,23.176996,西向,60
臺南市,麻豆區,臺19甲線與中正、文昌路口,臺南市政府警察局,麻豆分局,120.25361,23.189913,雙向,60
臺南市,麻豆區,臺19甲17.2公里與新生南路路口,臺南市政府警察局,麻豆分局,120.25403,23.176693,北向,50
臺南市,六甲區,臺1線297.3公里與174線路口,臺南市政府警察局,麻豆分局,120.31245,23.253683,南向,70
臺南市,六甲區,臺1線298.8公里與174線路口,臺南市政府警察局,麻豆分局,120.31561,23.24004,北向,70
臺南市,官田區,臺1線302公里,臺南市政府警察局,麻豆分局,120.30732,23.214054,北向,50
臺南市,大內區,臺84線37.2公里處走馬瀨隧道口,臺南市政府警察局,善化分局,120.42545,23.142551,雙向,90
臺南市,學甲區,臺19線117.5公里大安里大灣路口,臺南市政府警察局,學甲分局,120.18567,23.211151,南向,50
臺南市,西港區,臺19線125.8公里與南45線往後營路口,臺南市政府警察局,佳里分局,120.19251,23.142836,北向,70
臺南市,七股區,臺17線152.6公里大潭寮路口,臺南市政府警察局,佳里分局,120.124985,23.189188,北向,70
臺南市,七股區,臺17線162.05公里與南38線路口,臺南市政府警察局,佳里分局,120.131676,23.104435,南向,70
臺南市,七股區,臺17線153.95公里處,臺南市政府警察局,佳里分局,120.133705,23.175344,雙向,70
臺南市,七股區,臺17線155.6公里篤加國小前路口,臺南市政府警察局,佳里分局,120.13461,23.159895,南向,70
臺南市,北門區,臺61線281.9公里,臺南市政府警察局,學甲分局,120.12972,23.294575,南向,90
臺南市,新化區,臺19甲線33.5公里,臺南市政府警察局,新化分局,120.29865,23.055922,雙向,70
臺南市,新化區,臺19甲線與信義路路口,臺南市政府警察局,新化分局,120.32138,23.038275,雙向,50
臺南市,新化區,臺20線15.9公里國8道路口,臺南市政府警察局,新化分局,120.33201,23.061539,南向,60
臺南市,善化區,南科北路與環西路二段,保二總隊,保二第一大隊,120.272125,23.121284,東西向,60
臺南市,善化區,環西路二段與南科七路口,保二總隊,保二第一大隊,120.27259,23.109247,南北向,50
臺南市,善化區,南科北路與南科九路口,保二總隊,保二第一大隊,120.273506,23.117811,南北向,60
臺南市,善化區,南科北路與南科九路口,保二總隊,保二第一大隊,120.273605,23.117603,東西向,60
臺南市,善化區,南科北路與南科八路口,保二總隊,保二第一大隊,120.27492,23.114704,南向,60
臺南市,善化區,南科北路與南科七路口,保二總隊,保二第一大隊,120.27672,23.110853,北向南,60
臺南市,善化區,環東路二段與南科九路口,保二總隊,保二第一大隊,120.27739,23.119776,西向,50
臺南市,善化區,南科七路與環東路二段路口,保二總隊,保二第一大隊,120.28151,23.112717,西向,50
臺南市,善化區,南科七路與三抱竹路口,保二總隊,保二第一大隊,120.282555,23.090631,東西向,50
臺南市,善化區,西拉雅大道與大順六路口,保二總隊,保二第一大隊,120.28986,23.104445,東向西,60
臺南市,善化區,西拉雅大道與大順六路口,保二總隊,保二第一大隊,120.290016,23.104391,東向西,60
臺南市,善化區,臺1線310.6公里處,臺南市政府警察局,善化分局,120.33444,23.150946,雙向,70
臺南市,新市區,南科三路與道爺路口,保二總隊,保二第一大隊,120.26776,23.093756,西向,50
臺南市,新市區,新港社大道(橋上雙向),保二總隊,保二第一大隊,120.278786,23.082232,雙向,60
臺南市,新市區,西拉雅大道與南科南北路口,保二總隊,保二第一大隊,120.28029,23.102247,東西向,60
臺南市,新市區,西拉雅大道與南科南路口,保二總隊,保二第一大隊,120.2803,23.102236,東西向,60
臺南市,新市區,南科南路與南科三路,保二總隊,保二第一大隊,120.28104,23.098495,東西向,60
臺南市,新市區,南科南路與環西路一段路口,保二總隊,保二一大隊,120.28252,23.090643,北向,60
臺南市,新市區,南科南路與環西路一段路口,保二總隊,保二第一大隊,120.282524,23.090633,東西向,40
臺南市,新市區,南科南路與新港社高架橋前,保二總隊,保二第一大隊,120.28282,23.088713,北向,60
臺南市,新市區,西拉雅大道與環東路二段路口,保二總隊,保二第一大隊,120.284904,23.103241,東西向,60
臺南市,新市區,西拉雅大道與環東路二段路口,保二總隊,保二第一大隊,120.284904,23.103241,東西向,60
臺南市,新市區,大順七路與大順二路口,保二總隊,保二第一大隊,120.2877,23.101562,南向,40
臺南市,新市區,臺19甲線28公里處,臺南市政府警察局,善化分局,120.29493,23.099846,雙向,70
臺南市,新市區,臺1線317.7公里,臺南市政府警察局,善化分局,120.310776,23.09386,雙向,70
臺南市,安定區,臺19線132.7公里中崙段,臺南市政府警察局,善化分局,120.210495,23.084492,北向,50
臺南市,安定區,178線7.9公里與南134線路口,臺南市政府警察局,善化分局,120.22924,23.094667,東向,50
臺南市,玉井區,臺84線40.38公里,臺南市政府警察局,玉井分局,120.45011,23.12476,雙向,70
臺南市,玉井區,臺84線40.8公里,臺南市政府警察局,玉井分局,120.45354,23.122286,西向,70
臺南市,玉井區,臺20線與台3線中華路口,臺南市政府警察局,玉井分局,120.46526,23.120522,東向,50
臺南市,楠西區,臺3線369公里,臺南市政府警察局,玉井分局,120.48853,23.155445,北向,70
臺南市,楠西區,臺南市 楠西區 曾文水庫道路3.2公里至4.9公里,保七總隊,保七第二大隊,120.49526,23.21866,雙向(東向西、西向東),40
臺南市,楠西區,臺南市 楠西區 曾文水庫道路1.2公里至2.9公里,保七總隊,保七第二大隊,120.4968,23.21025,雙向(東向西、西向東),40
臺南市,楠西區,臺南市 楠西區 曾文水庫道路5.4公里,保七總隊,保七第二大隊,120.50452,23.23226,雙向(東向西、西向東),40
臺南市,楠西區,臺南市 楠西區 曾文水庫道路6公里,保七總隊,保七第二大隊,120.51041,23.23555,西向東方向,40
臺南市,南化區,臺3線388K處,臺南市政府警察局,玉井分局,120.47022,23.013083,雙向,60
臺南市,南化區,臺3線378.4公里,臺南市政府警察局,玉井分局,120.486984,23.086584,雙向,60
臺南市,左鎮區,臺20線22.3公里,臺南市政府警察局,新化分局,120.38012,23.067501,雙向,60
臺南市,仁德區,快速道路86線西向3.9K處,臺南市政府警察局,歸仁分局,120.21165,22.927332,西向,90
臺南市,仁德區,臺1線342.7公里臺86線匝道路口,臺南市政府警察局,歸仁分局,120.22093,22.931923,南向,70
臺南市,仁德區,二仁路台1線341.85K,臺南市政府警察局,歸仁分局,120.2212,22.939863,雙向,70
臺南市,仁德區,臺1線344.15公里與二行一路路口,臺南市政府警察局,歸仁分局,120.225494,22.920004,北向,50
臺南市,仁德區,文德路與中山路口,臺南市政府警察局,歸仁分局,120.24821,22.972763,雙向,50
臺南市,歸仁區,臺39線10公里,臺南市政府警察局,歸仁分局,120.27526,22.94757,北向,70
臺南市,歸仁區,臺39線2.6公里處,臺南市政府警察局,歸仁分局,120.28728,23.011648,南向,70
臺南市,歸仁區,182線12.1公里忠孝南北路口,臺南市政府警察局,歸仁分局,120.303055,22.965597,西向,50
臺南市,關廟區,臺19甲線41公里,臺南市政府警察局,歸仁分局,120.30967,22.988716,雙向,60
臺南市,關廟區,臺86線17.85公里,臺南市政府警察局,歸仁分局,120.31324,22.97128,雙向,70
臺南市,臺南市龍崎區,市道182線22公里至28公里處,臺南市政府警察局,歸仁分局,0.0,0.0,雙向,50
臺南市,龍崎區,市道182線中正路與南屏路口,臺南市政府警察局,歸仁分局,120.35717,22.96794,西向,50
臺南市,龍崎區,182市道28.5公里,臺南市政府警察局,歸仁分局,120.42066,22.929552,北向,50
臺南市,永康區,中華路與中正南路口,臺南市政府警察局,永康分局,120.218185,23.023575,多向,50
臺南市,臺南市永康區,中華路與中山南路口,臺南市政府警察局,永康分局,120.23084,23.01345,北向,50
臺南市,永康區,中華路與中華二路口,臺南市政府警察局,永康分局,120.23383,23.008518,南向,50
臺南市,永康區,中華路與中華一路口(近兵仔市場),臺南市政府警察局,永康分局,120.235275,23.004257,雙向,50
臺南市,永康區,復興路與復興路26巷口,臺南市政府警察局,永康分局,120.24956,22.998642,南向,50
臺南市,永康區,永大路與中山北路路口,臺南市政府警察局,永康分局,120.26064,23.027317,北向,50
臺南市,東區,林森路-大同路口,臺南市政府警察局,第一分局,120.212296,22.980795,西向,50
臺南市,東區,小東路與成功大學成功校區校門路口,臺南市政府警察局,第一分局,120.220146,23.000835,東向,60
臺南市,東區,林森路後甲國中前-近東和路口,臺南市政府警察局,第一分局,120.22442,22.99815,南向,50
臺南市,東區,中華東路與東門路口,臺南市政府警察局,第一分局,120.229164,22.9808,北向,60
臺南市,東區,中華東路-凱旋路口,臺南市政府警察局,第一分局,120.23394,22.99264,南向,60
臺南市,臺南市東區,中華東路與平實路口,臺南市政府警察局,第一分局,120.23408,22.992664,多向,60
臺南市,東區,中華東路-平實五街路口,臺南市政府警察局,第一分局,120.23424,22.994543,北向,60
臺南市,東區,崇善路-德東街口,臺南市政府警察局,第一分局,120.23616,22.962046,南向,40
臺南市,南區,安平港路聯外道路-鯤鯓路127之5號前,臺南市政府警察局,第六分局,120.169586,22.958733,雙向,50
臺南市,南區,安平港聯外道路台電高分鯤鯓54右38號電桿,臺南市政府警察局,第六分局,120.1741,22.947441,北向,60
臺南市,南區,濱南路與喜樹路340巷口,臺南市政府警察局,第六分局,120.176,22.937895,南向,50
臺南市,南區,臺17線濱南路海口宮前,臺南市政府警察局,第六分局,120.17664,22.930405,雙向,70
臺南市,南區,新平路24號前,臺南市政府警察局,第六分局,120.17872,22.964375,雙向,60
臺南市,南區,濱南路-鯤鯓路口,臺南市政府警察局,第六分局,120.183876,22.9588,北向,60
臺南市,南區,中華西路-新和路口,臺南市政府警察局,第六分局,120.18389,22.967249,北向,60
臺南市,南區,中華西路1段75號,臺南市政府警察局,第六分局,120.18413,22.975246,南向,60
臺南市,南區,明興路-明興路1312巷,臺南市政府警察局,第六分局,120.18476,22.923483,南向,50
臺南市,南區,中華南路-南和路口,臺南市政府警察局,第六分局,120.189156,22.961212,東向,50
臺南市,南區,金華路-永華路口,臺南市政府警察局,第六分局,120.192085,22.98797,北向,50
臺南市,南區,中華南路-德興路口,臺南市政府警察局,第六分局,120.19253,22.96194,西向,60
臺南市,南區,永成路2段369號往南70公尺處,臺南市政府警察局,第六分局,120.19549,22.945978,雙向,60
臺南市,南區,中華南路-近西門路口,臺南市政府警察局,第六分局,120.20016,22.964825,雙向,60
臺南市,南區,中華南路-國民路口,臺南市政府警察局,第六分局,120.209946,22.9689,南向,50
臺南市,北區,中華北路二段80巷口,臺南市政府警察局,第五分局,120.19698,23.019335,雙向,60
臺南市,北區,海安路-文成路口,臺南市政府警察局,第五分局,120.200386,23.012684,南向,50
臺南市,北區,中華北路二段與北安路口,臺南市政府警察局,第五分局,120.20602,23.02185,西向,60
臺南市,北區,臺南轉運站前(公園路東、西兩側),臺南市政府警察局,第五分局,120.20929,23.002089,雙向,50
臺南市,北區,公園路-長榮路口,臺南市政府警察局,第五分局,120.21203,23.013504,南向,40
臺南市,北區,北門路與小東路口,臺南市政府警察局,第五分局,120.212944,23.001534,南向,50
臺南市,北區,東豐路-長榮路口,臺南市政府警察局,第五分局,120.22248,23.002623,西向,50
臺南市,北區,東豐路與林森路口,臺南市政府警察局,第五分局,120.224686,23.002415,多向,50
臺南市,安南區,四草大道與大眾街口,臺南市政府警察局,第三分局,120.13247,23.018547,南向,70
臺南市,安南區,安明路-安中路口,臺南市政府警察局,第三分局,120.13401,23.06104,南向,70
臺南市,安南區,安明路4段1100號前,臺南市政府警察局,第三分局,120.13506,23.074215,雙向,70
臺南市,安南區,安明路近北汕尾路口,臺南市政府警察局,第三分局,120.145706,23.049866,雙向,70
臺南市,安南區,公學路六段418號前,臺南市政府警察局,第三分局,120.14962,23.078297,雙向,50
臺南市,安南區,臺江大道三段近安中路320巷口,臺南市政府警察局,第三分局,120.17002,23.06164,雙向,70
臺南市,安南區,安明路-近大港觀海橋,臺南市政府警察局,第三分局,120.17903,23.017673,雙向,70
臺南市,安南區,安吉路-安中路口,臺南市政府警察局,第三分局,120.1884,23.04589,北向,60
臺南市,安南區,安吉路一段近本原街口,臺南市政府警察局,第三分局,120.18961,23.052488,雙向,60
臺南市,安南區,安吉路3段近安順庄大道,臺南市政府警察局,第三分局,120.193634,23.07735,北向,60
臺南市,安南區,北安路3段396巷前,臺南市政府警察局,第三分局,120.20804,23.046125,雙向,60
臺南市,安南區,北安路4段548巷近長和街口,臺南市政府警察局,第三分局,120.21477,23.067614,雙向,60
臺南市,安南區,臺江大道一段與開安路口,臺南市政府警察局,第三分局,120.22557,23.051445,東向,50
臺南市,安南區,長和路一段與館前一路口,臺南市政府警察局,第三分局,120.23261,23.058355,北向,50
臺南市,安平區,健康路與文平路口,臺南市政府警察局,第四分局,120.17719,22.983109,東向,50
臺南市,臺南市中西區,中華西路與府前路口,臺南市政府警察局,第二分局,120.186844,22.992668,北向,60
臺南市,中西區,西門路與民族路口,臺南市政府警察局,第二分局,120.200134,22.997572,南向,50
臺南市,臺南市中西區,中山路與西華南街口,臺南市政府警察局,第二分局,120.20977,22.995575,多向,50
臺南市,中西區,成功路近火車站圓環,臺南市政府警察局,第二分局,120.21107,22.99729,東向,40
桃園市,,台61線高架52.43K至47.15K,桃園市政府警察局,桃市警局交通大隊,121.026726,25.001097,北上,90
桃園市,,台61線高架47.25K至52.53K,桃園市政府警察局,桃市警局交通大隊,121.060905,25.035498,南下,90
桃園市,,台66線西向東3K至6.9K,桃園市政府警察局,桃市警局交通大隊,121.07854,25.01612,東向,80
桃園市,,台66線東向西14.6K至11.5K,桃園市政府警察局,桃市警局交通大隊,121.1616,24.950443,西向,90
桃園市,,大溪區台七乙線12.1K至8.2K處,桃園市政府警察局,桃市警局交通大隊,121.33447,24.847773,北上,40
桃園市,,大溪區台七乙線12.1K至8.2K處,桃園市政府警察局,桃市警局交通大隊,121.35709,24.854143,南下,40
桃園市,,龜山區萬壽路一段(東萬壽路309巷-萬壽路1275巷),桃園市政府警察局,桃市警局交通大隊,121.36832,25.004057,往龜山,50
桃園市,,龜山區萬壽路一段(萬壽路1275巷-東萬壽路309巷),桃園市政府警察局,桃市警局交通大隊,121.37559,25.011662,往迴龍,50
桃園市,,龜山區青山路二段(青山路2段文青路-青山路1段200號),桃園市政府警察局,桃市警局交通大隊,121.38697,25.040182,往青山路1段200號,50
桃園市,,龜山區青山路二段(青山路1段200號-青山路2段文青路,桃園市政府警察局,桃市警局交通大隊,121.39753,25.0318,往青山路2段文青路,50
桃園市,桃園市桃園區,桃園區文中路645號前,桃園市政府警察局,桃市警局交通大隊,121.27776,24.99366,往國際路方向,50
桃園市,桃園市桃園區,桃園區富國路379號對面,桃園市政府警察局,桃市警局交通大隊,121.285835,25.014463,往蘆竹方向,50
桃園市,桃園市桃園區,桃園區莊敬路二段路燈桿(0716800)旁,桃園市政府警察局,桃市警局交通大隊,121.289185,25.20103,往寶慶路方向,50
桃園市,桃園市桃園區,桃園區大興西路三段與正光路口,桃園市政府警察局,桃市警局交通大隊,121.2906,25.005362,往永安路方向,50
桃園市,桃園市桃園區,桃園區大興西路三段與正光路口,桃園市政府警察局,桃市警局交通大隊,121.29077,25.005877,往南桃園交流道方向,50
桃園市,桃園市桃園區,桃園區溫州街69號對面,桃園市政府警察局,桃市警局交通大隊,121.29746,25.006742,往大興西路方向,30
桃園市,桃園市桃園區,桃園區春日路561號前,桃園市政府警察局,桃市警局交通大隊,121.31246,25.005,往桃園市區方向,50
桃園市,桃園市桃園區,桃園區成功路三段235號前,桃園市政府警察局,桃市警局交通大隊,121.32475,25.00729,往桃園市區方向,40
桃園市,桃園市中壢區,中壢區民族路六段360號前,桃園市政府警察局,桃市警局交通大隊,121.15863,24.962679,往新屋方向,50
桃園市,中壢區,中正路四段353號前,桃園市政府警察局,中壢分局,121.1744,24.990446, 往中壢,50
桃園市,中壢區,台31線12.3K(往南),桃園市政府警察局,中壢分局,121.193,24.991371, 往南,70
桃園市,中壢區,台31線12.5K(往北),桃園市政府警察局,中壢分局,121.193,24.991371, 往北,70
桃園市,桃園市中壢區,中正路二段239巷口,桃園市政府警察局,桃市警局交通大隊,121.19523,24.97736,往中壢方向,50
桃園市,桃園市中壢區,領航南路與新生路口,桃園市政府警察局,桃市警局交通大隊,121.2054,24.97215,往北,50
桃園市,桃園市中壢區,高鐵北路與青心路口,桃園市政府警察局,桃市警局交通大隊,121.2054,24.97215,往大園方向,50
桃園市,桃園市中壢區,中豐北路與大圳路一段口,桃園市政府警察局,桃市警局交通大隊,121.2134,24.984825,往市區方向,50
桃園市,桃園市中壢區,中豐北路與大圳路一段口,桃園市政府警察局,桃市警局交通大隊,121.214294,24.984001,往高鐵站方向,50
桃園市,中壢區,新生路三段192號前,桃園市政府警察局,中壢分局,121.222,24.991396, 往大園,50
桃園市,桃園市中壢區,中壢區新生路二段421號前,桃園市政府警察局,桃市警局交通大隊,121.222176,24.985235,往中壢方向,50
桃園市,中壢區,中園路421號前,桃園市政府警察局,中壢分局,121.22935,25.002476, 往中壢,50
桃園市,中壢區,中園路二段346號前,桃園市政府警察局,中壢分局,121.23196,24.996529, 往大園,50
桃園市,桃園市中壢區,中華路普忠路口,桃園市政府警察局,桃市警局交通大隊,121.24136,24.965984,往中壢方向,50
桃園市,中壢區,中山東路二段371號前,桃園市政府警察局,中壢分局,121.24363,24.948748, 往市區方向,50
桃園市,中壢區,中華路與自強一路口,桃園市政府警察局,桃市警局交通大隊,121.244286,24.96701,往桃園方向,50
桃園市,中壢區,普忠路770巷路口前,桃園市政府警察局,中壢分局,121.25115,24.952522,往榮民南路,50
桃園市,桃園市中壢區,普忠路581巷前,桃園市政府警察局,桃市警局交通大隊,121.25116,24.954819,往環中東路方向,50
桃園市,桃園市中壢區,晉元路180號對面,桃園市政府警察局,桃市警局交通大隊,121.26084,24.950453,往榮民南路方向,50
桃園市,大溪區,仁和路二段517巷口,桃園市政府警察局,桃市警局交通大隊,121.259544,24.911953, 往大溪,50
桃園市,桃園市大溪區,永昌路台66線路口,桃園市政府警察局,桃市警局交通大隊,121.2625,24.89797,往中壢方向,50
桃園市,桃園市大溪區,石園路327號前,桃園市政府警察局,桃市警局交通大隊,121.26314,24.8736,往大溪方向,60
桃園市,大溪區,康莊路五段6號前,桃園市政府警察局,桃市警局交通大隊,121.266235,24.826963, 往龍潭,60
桃園市,桃園市大溪區,康莊路三段632號對面（台4線34K+200處）,桃園市政府警察局,桃市警局交通大隊,121.27307,24.846693,往大溪方向,60
桃園市,大溪區,大溪區瑞安路一段562號前(台4線29K+900)崁津橋前,桃園市政府警察局,桃市警局交通大隊,121.27842,24.874975, 往崎頂,60
桃園市,桃園市大溪區,大溪區瑞安路一段(台4線29K+650)崁津橋前),桃園市政府警察局,桃市警局交通大隊,121.27842,24.874975,往石門水庫方向,60
桃園市,大溪區,埔頂路二段256號前,桃園市政府警察局,桃市警局交通大隊,121.28098,24.913181, 往八德,50
桃園市,桃園市大溪區,員林路一段142巷口,桃園市政府警察局,桃市警局交通大隊,121.28111,24.899384,往龍潭方向,50
桃園市,桃園市大溪區,崎頂下坡路段,桃園市政府警察局,桃市警局交通大隊,121.282295,24.899925,往大溪方向,50
桃園市,桃園市大溪區,介壽路與仁善街路口,桃園市政府警察局,桃市警局交通大隊,121.28657,24.907955,往大溪方向,50
桃園市,桃園市大溪區,大溪區月眉路1號前約120公尺處,桃園市政府警察局,桃市警局交通大隊,121.28862,24.885729,往桃園方向,50
桃園市,桃園市大溪區,復興路二段20號前,桃園市政府警察局,桃市警局交通大隊,121.2889,24.880772,往復興方向,40
桃園市,桃園市大溪區,大鶯路769巷口,桃園市政府警察局,桃市警局交通大隊,121.29937,24.918503,往大溪方向,40
桃園市,桃園市大溪區,大溪區信義路永福派出所前,桃園市政府警察局,桃市警局交通大隊,121.32408,24.89424,往大溪方向,50
桃園市,桃園市大溪區,大溪區信義路永福派出所前,桃園市政府警察局,桃市警局交通大隊,121.32408,24.89424,往新北市方向,50
桃園市,桃園市大溪區,台七乙線9.1K處,桃園市政府警察局,桃市警局交通大隊,121.351234,24.849945,往大溪方向,40
桃園市,桃園市大溪區,台七乙線9.1K處,桃園市政府警察局,桃市警局交通大隊,121.351234,24.849945,往新北市方向,40
桃園市,桃園市楊梅區,台61線南下平面50.8K處,桃園市政府警察局,桃市警局交通大隊,121.03625,25.013884,往南方向,50
桃園市,桃園市楊梅區,中山路與大成路,桃園市政府警察局,桃市警局交通大隊,121.14574,24.90688, 往北,50
桃園市,桃園市楊梅區,梅獅路與文化街岔路口,桃園市政府警察局,桃市警局交通大隊,121.17775,24.905577,往楊梅方向,40
桃園市,桃園市蘆竹區,大竹北路1085巷對面,桃園市政府警察局,桃市警局交通大隊,121.236725,25.04252,往大園方向,50
桃園市,蘆竹區,南青路607號(台31線3K+150),桃園市政府警察局,桃市警局交通大隊,121.25152,25.047396, 往南,60
桃園市,桃園市蘆竹區,濱海路一段355號前,桃園市政府警察局,桃市警局交通大隊,121.26124,25.116083,往南下方向,70
桃園市,蘆竹區,文中路一段265巷口前,桃園市政府警察局,桃市警局交通大隊,121.262245,24.989258, 往桃園,50
桃園市,桃園市蘆竹區,富國路130號前,桃園市政府警察局,桃市警局交通大隊,121.266235,25.045538,往蘆竹方向,40
桃園市,蘆竹區,富國路二段360號前,桃園市政府警察局,桃市警局交通大隊,121.26845,25.039837, 往桃園,50
桃園市,蘆竹區,大竹路109號,桃園市政府警察局,桃市警局交通大隊,121.2712,25.014542, 往桃園,50
桃園市,蘆竹區,山林路二段655號前,桃園市政府警察局,桃市警局交通大隊,121.30809,25.081982, 往山腳,50
桃園市,蘆竹區,仁愛路三段高鐵前,桃園市政府警察局,桃市警局交通大隊,121.31008,25.05544, 往蘆竹,40
桃園市,桃園市蘆竹區,八德一路與八德二路口,桃園市政府警察局,桃市警局交通大隊,121.339,25.064642,往蘆竹方向,40
桃園市,桃園市大園區,台61線35.6K(高架),桃園市政府警察局,桃市警局交通大隊,121.16777,25.079317,往北,90
桃園市,桃園市大園區,和平西路一段447號前,桃園市政府警察局,桃市警局交通大隊,121.18615,25.04613,往大園方向,50
桃園市,桃園市大園區,中正東路與橫湳路口,桃園市政府警察局,桃市警局交通大隊,121.21008,25.059599,往國道二號方向,50
桃園市,桃園市大園區,高鐵北路二段與領航北路四段路口前,桃園市政府警察局,桃市警局交通大隊,121.22347,25.021976,往高鐵站方向,50
桃園市,大園區,中正東路一段373號對面,桃園市政府警察局,桃市警局交通大隊,121.22364,25.045202,往桃園,50
桃園市,大園區,中正東路一段373號前(往大園),桃園市政府警察局,桃市警局交通大隊,121.22364,25.045202, 往大園,50
桃園市,桃園市大園區,大牛稠7號（桃5線4.8K）,桃園市政府警察局,桃市警局交通大隊,121.2277,25.055984,往大園方向,50
桃園市,桃園市大園區,大園區沙崙里台61線橋下PB53-52橋墩旁,桃園市政府警察局,桃市警局交通大隊,121.23267,25.109863,往南方向,50
桃園市,桃園市大園區,國際路二段與中央路路口,桃園市政府警察局,桃市警局交通大隊,121.244095,25.107386,往竹圍方向,70
桃園市,桃園市大園區,三民路2段825號,桃園市政府警察局,桃市警局交通大隊,121.26142,25.070162,往桃園,50
桃園市,桃園市龜山區,萬壽路二段與忠孝街口前,桃園市政府警察局,桃市警局交通大隊,121.32443,24.992449,往北上方向,50
桃園市,桃園市龜山區,萬壽路二段1262號前,桃園市政府警察局,桃市警局交通大隊,121.32719,24.993011,往南下方向,50
桃園市,桃園市龜山區,忠義路一段20.5K處,桃園市政府警察局,桃市警局交通大隊,121.3488,25.018616,往林口方向,60
桃園市,桃園市龜山區,忠義路一段20.5K處,桃園市政府警察局,桃市警局交通大隊,121.3488,25.018616,往桃園方向,60
桃園市,龜山區,萬壽路二段472號前,桃園市政府警察局,龜山分局,121.35082,25.001873, 往桃園方向,50
桃園市,龜山區,忠義路一段1196-15號前,桃園市政府警察局,龜山分局,121.35543,25.035666, 往林口,60
桃園市,桃園市龜山區,忠義路一段18K+660前,桃園市政府警察局,桃市警局交通大隊,121.35543,25.035666,往桃園方向,60
桃園市,桃園市龜山區,振興路829巷口旁,桃園市政府警察局,桃市警局交通大隊,121.362755,25.021631,往桃園方向,60
桃園市,桃園市龜山區,文化二路與文昌一街口,桃園市政府警察局,桃市警局交通大隊,121.3671,25.056957,往林口方向,50
桃園市,龜山區,復興三路500號對面,桃園市政府警察局,龜山分局,121.369965,25.04303, 往大埔,50
桃園市,桃園市龜山區,文化一路與復興二路口,桃園市政府警察局,桃市警局交通大隊,121.37406,25.05708,往龜山方向,60
桃園市,龜山區,振興路1169號前,桃園市政府警察局,龜山分局,121.37497,25.029663, 往龜山方向,60
桃園市,龜山區,東萬壽路622號前,桃園市政府警察局,龜山分局,121.37507,25.008944, 往北,50
桃園市,龜山區,東萬壽路與龍校街121巷6弄口,桃園市政府警察局,龜山分局,121.37637,25.009476, 往南,50
桃園市,龜山區,華亞三路近文化二路口,桃園市政府警察局,龜山分局,121.37707,25.043844,往長庚,50
桃園市,龜山區,華亞三路近華亞二路前,桃園市政府警察局,龜山分局,121.37707,25.043844, 往大埔,50
桃園市,龜山區,龜山區萬壽路一段17K+960,桃園市政府警察局,龜山分局,121.383575,25.012165, 往北,50
桃園市,桃園市龜山區,樂善村青山路2K,桃園市政府警察局,桃市警局交通大隊,121.391335,25.035828,往新莊方向,50
桃園市,桃園市八德區,新生路段近龍宮街36巷9弄口,桃園市政府警察局,桃市警局交通大隊,121.25918,24.926731,往平鎮方向,50
桃園市,桃園市八德區,中華路龍壽街口署立桃園醫院前,桃園市政府警察局,桃市警局交通大隊,121.26988,24.977488,往桃園方向,50
桃園市,八德區,介壽路二段陸軍218營站前,桃園市政府警察局,桃市警局交通大隊,121.2975,24.940912,往大溪方向,50
桃園市,桃園市八德區,興豐路1176號前,桃園市政府警察局,桃市警局交通大隊,121.3079,24.938059,往八德方向,50
桃園市,桃園市八德區,興豐路1176號前,桃園市政府警察局,桃市警局交通大隊,121.3079,24.938059,往鶯歌方向,50
桃園市,桃園市八德區,和平路439號前,桃園市政府警察局,桃市警局交通大隊,121.30998,24.958261,往交流道方向,50
桃園市,八德區,和強路127號前,桃園市政府警察局,桃市警局交通大隊,121.318436,24.960634, 往桃園,50
桃園市,桃園市龍潭區,桃園市平鎮區梅獅路二段,保二總隊,保二三大隊,121.184975,24.89299,往北,40
桃園市,龍潭區,福源路256號對面,桃園市政府警察局,龍潭分局,121.18508,24.825977, 往龍潭,40
桃園市,桃園市龍潭區,聖亭路236號春源鋼鐵旁,桃園市政府警察局,桃市警局交通大隊,121.204506,24.870478,往龍潭方向,50
桃園市,桃園市龍潭區,台三線50.8K處,桃園市政府警察局,桃市警局交通大隊,121.20464,24.852085,往龍潭方向,50
桃園市,龍潭區,中正路三林段330號,桃園市政府警察局,桃市警局交通大隊,121.22926,24.849716, 往市區,50
桃園市,龍潭區,龍源路大平段290號,桃園市政府警察局,桃市警局交通大隊,121.238655,24.826025, 往大溪,60
桃園市,龍潭區,中正路三坑下坡路段,桃園市政府警察局,桃市警局交通大隊,121.24607,24.837442, 往石門水庫,60
桃園市,桃園市龍潭區,上坪1-2號前,桃園市政府警察局,桃市警局交通大隊,121.24745,24.825394,往大溪方向,60
桃園市,桃園市龍潭區,中興路九龍段104號前,桃園市政府警察局,桃市警局交通大隊,121.248314,24.880243,往大溪方向,50
桃園市,平鎮區,民族路雙連一段168號前,桃園市政府警察局,平鎮分局,121.18032,24.958342, 往新屋,50
桃園市,桃園市平鎮區,中興路平鎮段305號前,桃園市政府警察局,桃市警局交通大隊,121.19139,24.903605,往埔心方向,50
桃園市,桃園市平鎮區,中興路與南豐路口,桃園市政府警察局,桃市警局交通大隊,121.193665,24.898373,往埔心方向,50
桃園市,平鎮區,延平路三段260巷口前,桃園市政府警察局,平鎮分局,121.20095,24.93786, 往楊梅,50
桃園市,平鎮區,陸橋南路與平德路口前,桃園市政府警察局,平鎮分局,121.2054,24.929602, 往北,50
桃園市,平鎮區,中豐路山頂段531號前,桃園市政府警察局,平鎮分局,121.21205,24.893105, 往龍潭,50
桃園市,桃園市平鎮區,中豐路一段166號前,桃園市政府警察局,桃市警局交通大隊,121.213455,24.928421,往龍潭方向,50
桃園市,桃園市平鎮區,平鎮區中豐路與延平路口,桃園市政府警察局,桃市警局交通大隊,121.218254,24.950768,往平鎮方向,50
桃園市,桃園市平鎮區,中豐路與三興路岔路口,桃園市政府警察局,桃市警局交通大隊,121.21872,24.955051,往中壢方向,50
桃園市,桃園市平鎮區,金陵路與環南路口,桃園市政府警察局,桃市警局交通大隊,121.22299,24.94076,往平鎮方向,50
桃園市,平鎮區,福龍路一段550巷,桃園市政府警察局,平鎮分局,121.226,24.896788, 往龍潭,50
桃園市,桃園市平鎮區,平鎮區金陵路四段409號前約80公尺處,桃園市政府警察局,桃市警局交通大隊,121.23118,24.91479,往環南路方向,50
桃園市,桃園市平鎮區,快速路一段(台66線快速道路24k+160下方),桃園市政府警察局,桃市警局交通大隊,121.23328,24.903872,往大溪方向,50
桃園市,桃園市平鎮區,營德路與華隆街路口前約150公尺處,桃園市政府警察局,桃市警局交通大隊,121.23699,24.923742,往龍岡路方向,50
桃園市,桃園市新屋區,台15線59K處,桃園市政府警察局,桃市警局交通大隊,121.01196,24.955013,往北方向,70
桃園市,桃園市新屋區,中山西路三段62號前,桃園市政府警察局,桃市警局交通大隊,121.04484,24.987537,往永安漁港方向,50
桃園市,新屋區,中山東路一段458號前,桃園市政府警察局,桃市警局交通大隊,121.12517,24.972265, 往中壢,50
桃園市,桃園市觀音區,濱海路保生段277號前,桃園市政府警察局,桃市警局交通大隊,121.05245,25.016968,南下車道,70
桃園市,桃園市觀音區,台66線（1.080K）與臺15線岔路口,桃園市政府警察局,桃市警局交通大隊,121.06222,25.025244,往台61方向,80
桃園市,觀音區,台61線45.6K(高架),桃園市政府警察局,桃市警局交通大隊,121.07821,25.04476, 往南,90
桃園市,桃園市觀音區,成功路與忠孝路口,桃園市政府警察局,桃市警局交通大隊,121.13367,25.05512,往觀音工業區方向,50
桃園市,桃園市觀音區,大觀路二段與六合路口,桃園市政府警察局,桃市警局交通大隊,121.13834,25.043825,北上車道,50
桃園市,桃園市復興區,台七線羅浮82號前,桃園市政府警察局,桃市警局交通大隊,121.36436,24.79405,往大溪方向,40
國道一號,,國道一號南向306.1公里,國道公路警察局,國道公路警四隊,120.2315,23.16412,往南,110
國道一號,,國道一號北向309.1公里,國道公路警察局,國道公路警四隊,120.23468,23.137453,往北,110
國道一號,,國道一號南向301.6公里,國道公路警察局,國道公路警四隊,120.23653,23.20419,往南,110
國道一號,,國道一號北向301.5公里,國道公路警察局,國道公路警四隊,120.23672,23.20487,往北,110
國道一號,,國道一號南向321.8公里,國道公路警察局,國道公路警四隊,120.2493,23.026245,往南,110
國道一號,,國道一號北向323.4公里,國道公路警察局,國道公路警四隊,120.249374,23.011911,往北,110
國道一號,,國道一號南向315.5公里,國道公路警察局,國道公路警四隊,120.25174,23.082615,往南,110
國道一號,,國道一號北向334公里,國道公路警察局,國道公路警四隊,120.26014,22.918657,往北,110
國道一號,,國道一號南向293.1公里,國道公路警察局,國道公路警四隊,120.26733,23.27464,往南,110
國道一號,,國道一號北向336.7公里,國道公路警察局,國道公路警四隊,120.27043,22.896294,往北,110
國道一號,,國道一號北向292.5公里,國道公路警察局,國道公路警四隊,120.27128,23.278519,往北,110
國道一號,,國道一號南向340.2公里,國道公路警察局,國道公路警五隊,120.28468,22.867977,往南,110
國道一號,,國道一號南向285.3公里,國道公路警察局,國道公路警四隊,120.30684,23.334305,往南,110
國道一號,,國道一號南向373.5公里,國道公路警察局,國道公路警五隊,120.328354,22.585747,往南,60
國道一號,,國道一號南向362.5公里,國道公路警察局,國道公路警五隊,120.328735,22.677532,往南,110
國道一號,,國道一號北向373.4公里,國道公路警察局,國道公路警五隊,120.32915,22.586142,往北,60
國道一號,,國道一號北向353.3公里,國道公路警察局,國道公路警五隊,120.3321,22.759113,往北,110
國道一號,,國道一號南向353.4公里,國道公路警察局,國道公路警五隊,120.33219,22.7585,往南,110
國道一號,,國道一號南向276.2公里,國道公路警察局,國道公路警四隊,120.35525,23.397736,往南,110
國道一號,,國道一號北向277.3公里,國道公路警察局,國道公路警四隊,120.35529,23.38762,往北,110
國道一號,,國道一號北向172.8公里,國道公路警察局,國道公路警三隊,120.401024,24.124218,往北,110
國道一號,,國道一號北向261.7公里,國道公路警察局,國道公路警四隊,120.40404,23.51677,往北,110
國道一號,,國道一號南向260.5公里,國道公路警察局,國道公路警四隊,120.405815,23.527653,往南,110
國道一號,,國道一號北向254.1公里,國道公路警察局,國道公路警四隊,120.42849,23.581106,往北,110
國道一號,,國道一號南向252.2公里,國道公路警察局,國道公路警四隊,120.43435,23.597475,往南,110
國道一號,,國道一號南向247.2公里,國道公路警察局,國道公路警四隊,120.44377,23.641596,往南,110
國道一號,,國道一號北向233.4公里,國道公路警察局,國道公路警四隊,120.4677,23.75602,往北,110
國道一號,,國道一號南向238.6公里,國道公路警察局,國道公路警四隊,120.47608,23.712355,往南,110
國道一號,,國道一號南向223.4公里,國道公路警察局,國道公路警三隊,120.48427,23.84565,往南,110
國道一號,,國道一號北向224.9公里,國道公路警察局,國道公路警三隊,120.48481,23.831924,往北,110
國道一號,,國道一號南向200.1公里,國道公路警察局,國道公路警三隊,120.52377,24.053078,往南,110
國道一號,,國道一號南向187.5公里,國道公路警察局,國道公路警三隊,120.59749,24.113134,往南,110
國道一號,,國道一號南向172.4公里,國道公路警察局,國道公路警三隊,120.673164,24.214231,往南,110
國道一號,,國道一號南向165.3公里,國道公路警察局,國道公路警三隊,120.693085,24.273296,往南,110
國道一號,,國道一號北向157.4公里,國道公路警察局,國道公路警三隊,120.72009,24.33757,往北,100
國道一號,,國道一號南向152.9公里,國道公路警察局,國道公路警三隊,120.74645,24.37083,往南,100
國道一號,,國道一號北向141.7公里,國道公路警察局,國道公路警二隊,120.78804,24.462055,往北,100
國道一號,,國道一號北向127.5公里,國道公路警察局,國道公路警二隊,120.84625,24.564814,往北,100
國道一號,,國道一號南向126.5公里,國道公路警察局,國道公路警二隊,120.85275,24.570803,往南,100
國道一號,,國道一號南向124公里,國道公路警察局,國道公路警二隊,120.86044,24.592031,往南,100
國道一號,,國道一號北向105.5公里,國道公路警察局,國道公路警二隊,120.94732,24.726902,往北,100
國道一號,,國道一號南向102.5公里,國道公路警察局,國道公路警二隊,120.96852,24.736074,往南,100
國道一號,,國道一號北向82.1公里,國道公路警察局,國道公路警二隊,121.04609,24.876558,往北,100
國道一號,,國道一號南向81.8公里,國道公路警察局,國道公路警二隊,121.048615,24.876383,往南,100
國道一號,,國道一號北向82.1公里,國道公路警察局,國道公路警二隊,121.055756,24.875992,往北,100
國道一號,,國道一號南向78.2公里,國道公路警察局,國道公路警二隊,121.08215,24.88472,往南,100
國道一號,,國道一號五楊高架北向64.3公里,國道公路警察局,國道公路警一隊,121.19353,24.941029,往北,100
國道一號,,國道一號北向63.7公里,國道公路警察局,國道公路警一隊,121.19477,24.945833,往北,100
國道一號,,國道一號南向60.1公里,國道公路警察局,國道公路警一隊,121.21667,24.970358,往南,100
國道一號,,國道一號五楊高架南向44.6公里,國道公路警察局,國道公路警一隊,121.332634,25.060703,往南,100
國道一號,,國道一號五楊高架北向38.8公里,國道公路警察局,國道公路警一隊,121.38388,25.065002,往北,100
國道一號,,國道一號北向37公里,國道公路警察局,國道公路警一隊,121.402565,25.055336,往北,100
國道一號,,國道一號北向34.4公里,國道公路警察局,國道公路警一隊,121.42388,25.066257,往北,50
國道一號,,國道一號南向34.4公里,國道公路警察局,國道公路警一隊,121.42437,25.067223,往南,50
國道一號,,國道一號南向30公里,國道公路警察局,國道公路警一隊,121.466354,25.075937,往南,100
國道一號,,國道一號汐五高架南向29.5公里,國道公路警察局,國道公路警一隊,121.47129,25.075502,往南,100
國道一號,,國道一號南向279公里,國道公路警察局,國道公路警四隊,121.53301,25.042383,往南,110
國道一號,,國道一號南向22.7公里,國道公路警察局,國道公路警一隊,121.536865,25.07305,往南,100
國道一號,,國道一號汐五高架南向16.1公里,國道公路警察局,國道公路警一隊,121.60144,25.064278,往南,100
國道一號,,國道一號汐五高架北向16公里,國道公路警察局,國道公路警一隊,121.60169,25.063948,往北,100
國道一號,,國道一號北向14.5公里,國道公路警察局,國道公路警一隊,121.61644,25.065916,往北,100
國道一號,,國道一號南向13.7公里,國道公路警察局,國道公路警一隊,121.62495,25.066725,往南,100
國道一號,,國道一號北向7.5公里,國道公路警察局,國道公路警一隊,121.68071,25.085808,往北,100
國道一號,,國道一號南向2公里,國道公路警察局,國道公路警一隊,121.72474,25.106857,往南,100
國道一號,,國道一號北向1.9公里,國道公路警察局,國道公路警一隊,121.72534,25.107763,往北,100
國道二號,,國道二號西向2公里,國道公路警察局,國道公路警一隊,121.21719,25.049833,往西,100
國道二號,,國道二號東向2.4公里,國道公路警察局,國道公路警一隊,121.21863,25.046331,往東,100
國道二號,,國道二號西向6.4公里,國道公路警察局,國道公路警一隊,121.2518,25.028276,往西,100
國道二號,,國道二號東向11.8公里,國道公路警察局,國道公路警六隊,121.282974,24.99567,往東,100
國道二號,,國道二號東向18.5里,國道公路警察局,國道公路警六隊,121.32486,24.959269,往東,100
國道三號,,國道三號南向342.1公里,國道公路警察局,國道公路警八隊,120.3275,23.107119,往南,110
國道三號,,國道三號北向344.7公里,國道公路警察局,國道公路警八隊,120.329216,23.083382,往北,110
國道三號,,國道三號南向358.6公里,國道公路警察局,國道公路警八隊,120.33847,22.97058,往南,110
國道三號,,國道三號北向331公里,國道公路警察局,國道公路警八隊,120.35549,23.201338,往北,110
國道三號,,國道三號南向372.3公里,國道公路警察局,國道公路警五隊,120.36923,22.862396,往南,110
國道三號,,國道三號北向374.3公里,國道公路警察局,國道公路警五隊,120.38294,22.84931,往北,110
國道三號,,國道三號北向318.7公里,國道公路警察局,國道公路警八隊,120.407295,23.298801,往北,110
國道三號,,國道三號南向378.85公里,國道公路警察局,國道公路警五隊,120.41966,22.820845,往南,110
國道三號,,國道三號南向313.7公里,國道公路警察局,國道公路警八隊,120.43159,23.330832,往南,110
國道三號,,國道三號南向386公里,國道公路警察局,國道公路警五隊,120.44159,22.769218,往南,110
國道三號,,國道三號北向389.3公里,國道公路警察局,國道公路警五隊,120.47148,22.758017,往北,110
國道三號,,國道三號南向282.7公里,國道公路警察局,國道公路警八隊,120.50546,23.570353,往南,110
國道三號,,國道三號南向423.1公里,國道公路警察局,國道公路警五隊,120.52481,22.508148,往南,110
國道三號,,國道三號北向423.2公里,國道公路警察局,國道公路警五隊,120.524925,22.507158,往北,110
國道三號,,國道三號北向186.1公里,國道公路警察局,國道公路警七隊,120.54876,24.17851,往北,110
國道三號,,國道三號南向184.1公里,國道公路警察局,國道公路警七隊,120.56188,24.190897,往南,110
國道三號,,國道三號南向178.6公里,國道公路警察局,國道公路警七隊,120.59093,24.229563,往南,110
國道三號,,國道三號北向177.8公里,國道公路警察局,國道公路警七隊,120.59371,24.236176,往北,110
國道三號,,國道三號北向265.1公里,國道公路警察局,國道公路警八隊,120.5988,23.692923,往北,110
國道三號,,國道三號北向171公里,國道公路警察局,國道公路警七隊,120.60209,24.293697,往北,110
國道三號,,國道三號南向166公里,國道公路警察局,國道公路警七隊,120.62855,24.330593,往南,110
國道三號,,國道三號南向253.2公里,國道公路警察局,國道公路警八隊,120.628716,23.774883,往南,110
國道三號,,國道三號北向206.6公里,國道公路警察局,國道公路警七隊,120.63864,24.071049,往北,110
國道三號,,國道三號北向218公里,國道公路警察局,國道公路警七隊,120.65042,23.999996,往北,110
國道三號,,國道三號南向162.1公里,國道公路警察局,國道公路警七隊,120.658714,24.350279,往南,110
國道三號,,國道三號北向162.1公里,國道公路警察局,國道公路警七隊,120.65884,24.350206,往北,110
國道三號,,國道三號南向150.2公里,國道公路警察局,國道公路警二隊,120.67839,24.453047,往南,110
國道三號,,國道三號北向247.1公里,國道公路警察局,國道公路警八隊,120.68793,23.777445,往北,110
國道三號,,國道三號北向235.2公里,國道公路警察局,國道公路警七隊,120.705086,23.869972,往北,110
國道三號,,國道三號南向142.9公里,國道公路警察局,國道公路警二隊,120.71315,24.507294,往南,110
國道三號,,國道三號北向131.2公里,國道公路警察局,國道公路警二隊,120.779076,24.591295,往北,110
國道三號,,國道三號北向122.5公里匝道,國道公路警察局,國道公路警二隊,120.83118,24.648779,往北,40
國道三號,,國道三號南向117.1公里,國道公路警察局,國道公路警二隊,120.85332,24.691969,往南,110
國道三號,,國道三號北向116.5公里,國道公路警察局,國道公路警二隊,120.85748,24.695911,往北,110
國道三號,,國道三號南向112.2公里,國道公路警察局,國道公路警二隊,120.89375,24.714918,往南,110
國道三號,,國道三號南向107.4公里,國道公路警察局,國道公路警六隊,120.92539,24.746012,往南,110
國道三號,,國道三號南向81.5公里,國道公路警察局,國道公路警六隊,121.149864,24.807201,往南,110
國道三號,,國道三號南向64.2公里,國道公路警察局,國道公路警六隊,121.25546,24.881098,往南,110
國道三號,,國道三號北向57公里,國道公路警察局,國道公路警六隊,121.304276,24.924303,往北,110
國道三號,,國道三號南向39.3公里,國道公路警察局,國道公路警六隊,121.45628,24.975258,往南,100
國道三號,,國道三號北向38.3公里,國道公路警察局,國道公路警六隊,121.465515,24.977514,往北,100
國道三號,,國道三號北向30.1公里,國道公路警察局,國道公路警九隊,121.53064,24.962175,往北,90
國道三號,,國道三號北向29.1公里,國道公路警察局,國道公路警九隊,121.539185,24.958471,往北,90
國道三號,,國道三號北向25公里,國道公路警察局,國道公路警九隊,121.57083,24.976095,往北,90
國道三號,,國道三號南向21.8公里,國道公路警察局,國道公路警九隊,121.59263,24.992199,往南,90
國道三號,,國道三號北向17.1公里,國道公路警察局,國道公路警九隊,121.610565,25.02955,往北,90
國道三號,,國道三號北向14.5公里,國道公路警察局,國道公路警九隊,121.62579,25.046879,往北,90
國道三號,,國道三號北向10.2公里,國道公路警察局,國道公路警九隊,121.647484,25.078312,往北,90
國道三號,,國道三號南向4.7公里,國道公路警察局,國道公路警九隊,121.68526,25.110235,往南,90
國道四號,,國道四號西向4.4公里,國道公路警察局,國道公路警三隊,120.62779,24.305094,往西,100
國道五號,,國道五號北向5.7公里,國道公路警察局,國道公路警九隊,121.65255,24.994558,往北,80
國道五號,,國道五號南向13.3公里,國道公路警察局,國道公路警九隊,121.70153,24.949272,往南,80
國道五號,,國道五號南向16.9公里(雪山隧道科技執法),國道公路警察局,國道公路警九隊,121.72434,24.925926,往南,90
國道五號,,國道五號北向16.9公里(雪山隧道科技執法),國道公路警察局,國道公路警九隊,121.72481,24.92628,往北,90
國道五號,,國道五號南向18.3公里(雪山隧道科技執法),國道公路警察局,國道公路警九隊,121.73286,24.916126,往南,90
國道五號,,國道五號北向18.3公里(雪山隧道科技執法),國道公路警察局,國道公路警九隊,121.733315,24.91648,往北,90
國道五號,,國道五號南向19.7公里(雪山隧道科技執法),國道公路警察局,國道公路警九隊,121.74336,24.907925,往南,90
國道五號,,國道五號北向19.7公里(雪山隧道科技執法),國道公路警察局,國道公路警九隊,121.74382,24.908276,往北,90
國道五號,,國道五號南向21.1公里(雪山隧道科技執法),國道公路警察局,國道公路警九隊,121.75373,24.899525,往南,90
國道五號,,國道五號北向21.1公里(雪山隧道科技執法),國道公路警察局,國道公路警九隊,121.75418,24.89985,往北,90
國道五號,,國道五號南向22.5公里(雪山隧道科技執法),國道公路警察局,國道公路警九隊,121.761765,24.88923,往南,90
國道五號,,國道五號北向22.5公里(雪山隧道科技執法),國道公路警察局,國道公路警九隊,121.762215,24.889566,往北,90
國道五號,,國道五號南向23.9公里(雪山隧道科技執法),國道公路警察局,國道公路警九隊,121.76942,24.87876,往南,90
國道五號,,國道五號北向23.9公里(雪山隧道科技執法),國道公路警察局,國道公路警九隊,121.769875,24.879107,往北,90
國道五號,,國道五號南向25.3公里(雪山隧道科技執法),國道公路警察局,國道公路警九隊,121.77889,24.869598,往南,90
國道五號,,國道五號北向25.3公里(雪山隧道科技執法),國道公路警察局,國道公路警九隊,121.779335,24.869923,往北,90
國道五號,,國道五號北向34.9公里,國道公路警察局,國道公路警九隊,121.78095,24.791565,往北,90
國道五號,,國道五號南向26.7公里(雪山隧道科技執法),國道公路警察局,國道公路警九隊,121.788055,24.860128,往南,90
國道五號,,國道五號北向26.7公里(雪山隧道科技執法),國道公路警察局,國道公路警九隊,121.78834,24.860365,往北,90
國道五號,,國道五號南向52.7公里,國道公路警察局,國道公路警九隊,121.80556,24.63743,往南,90
國道六號,,國道六號東向12.5公里,國道公路警察局,國道公路警七隊,120.778725,23.985535,往東,100
國道六號,,國道六號西向15.6公里,國道公路警察局,國道公路警七隊,120.80137,23.996187,往西,100
國道六號,,國道六號西向26公里,國道公路警察局,國道公路警七隊,120.89099,23.9811,往西,100
國道六號,,國道六號東向36.5公里,國道公路警察局,國道公路警七隊,120.98814,23.982555,往東,100
國道八號,,國道八號東西向0公里,國道公路警察局,國道公路警四隊,120.19544,23.080551,往東西向,80
國道八號,,國道八號東向4.2公里,國道公路警察局,國道公路警四隊,120.231125,23.082523,往東,100
國道十號,,國道十號東向14.7公里,國道公路警察局,國道公路警五隊,120.3869,22.760332,往東,100
國道十號,,國道十號西向16.8公里,國道公路警察局,國道公路警五隊,120.40675,22.770908,往西,100
國道3甲,,國道三甲西向1.7公里,國道公路警察局,國道公路警九隊,121.56336,25.010769,往西,80
國道3甲,,國道三甲西向3.4公里,國道公路警察局,國道公路警九隊,121.57856,25.005106,往西,80
台2已線,,台2己線北向1.1公里,國道公路警察局,國道公路警九隊,121.73204,25.15298,往北,50
